fullname,address,code,name_province,cid_province,name_city,cid_city,phone_seal,phone_service,lat,lng,region
广汽埃安北京房山体验中心,北京市房山区饶乐府村村西6幢,BJA0900,北京市,110000,北京市,110100,010-89330818,010-89339968,39.708709,116.009912,华北大区
广汽埃安北京房山澎湃展示中心,北京市房山区阎村镇前沿村村委会南280米（房山澎湃汽车园）,BJA0900-1,北京市,110000,北京市,110100,,,39.727415,116.109440,华北一区
广汽埃安北京大兴体验中心,北京大兴区西红门镇中鼎路16号,BJA6000,北京市,110000,北京市,110100,010-60290715,010-60296960,39.733910,116.425308,华北一区
广汽埃安北京石景山首钢园展示中心,北京市石景山区首钢园六工汇购物广场一层105,BJA0210-1,北京市,110000,北京市,110100,,,39.921610,116.163696,华北一区
广汽埃安北京石景山古城体验中心,北京市石景山区北京国际汽车贸易服务园F区4号,BJA0160,北京市,110000,北京市,110100,010-68876625,010-67780992/68876676,39.921809,116.188622,华北一区
广汽埃安北京鑫敏恒槐房万达展示中心,北京市丰台区南苑西路39号（槐房万达）,BJA6000-1,北京市,110000,北京市,110100,,,39.820321,116.374596,华北一区
广汽埃安北京丰台体验中心, 北京市丰台区南三环西路28号,BJA0400,北京市,110000,北京市,110100,010-67589520,010-67588520,39.858213,116.363487,华北一区
广汽埃安北京金泰凯迪昌平万达展示中心,北京市昌平区乐多港万达广场1006,BJA0130-1,北京市,110000,北京市,110100,,,39.908035,116.298010,华北一区
广汽埃安北京朝阳成寿寺体验中心,北京市朝阳区成寿寺路甲131号,BJA0100,北京市,110000,北京市,110100,010-63335188,010-63388088,39.849174,116.453195,华北一区
广汽埃安北京奥森世纪金源商超展示中心,北京市海淀区远大路1号世纪金源,BJA0190-1,北京市,110000,北京市,110100,,,39.964514,116.294006,华北一区
广汽埃安北京凯瑞翔通体验中心,北京市朝阳区五方桥东侧200米路北（京哈高速辅路）,BJA0500,北京市,110000,北京市,110100,010-65770060,010-65770902,39.875416,116.563720,华北大区
广汽埃安北京青年路北投公园商超展示中心,北京市朝阳区奥体中路北京冬奥村（北投公园）,BJA0180-1,北京市,110000,北京市,110100,,,39.987560,116.404610,华北一区
广汽埃安北京奥森体验中心,北京市朝阳区花虎沟99号院1号楼1层101,BJA0190,北京市,110000,北京市,110100,010-62958611,010-62958622,40.025264,116.364853,华北一区
广汽埃安北京连成鹏体验中心,北京市海淀区清河小营桥北300米路西,BJA0210,北京市,110000,北京市,110100,010-60605160,010-60605167,40.047668,116.344993,华北一区
广汽埃安北京朝阳北路体验中心,北京市朝阳区朝阳北路39号平房,BJA0150,北京市,110000,北京市,110100,010-65777272,010-65777070,39.924392,116.559368,华北一区
广汽埃安北京青年路体验中心,北京市朝阳区李家坟5号11幢平房南侧,BJA0180,北京市,110000,北京市,110100,010-85758188,010-85758288,39.943310,116.537061,华北一区
广汽埃安北京望京体验中心,北京市朝阳区来广营西路18号,BJA0800,北京市,110000,北京市,110100,010-84919919,010-84918886,40.020000,116.443333,华北一区
广汽埃安北京朝阳金隅嘉展示中心,北京市朝阳区东坝中路38号金隅嘉,BJA0100-1,北京市,110000,北京市,110100,,,39.957584,116.554712,华北一区
广汽埃安北京凯瑞翔通罗斯福商超展示中心,北京市通州区领展购物广场1层107号,BJA0500-1,北京市,110000,北京市,110100,010-65770060,010-65770902,39.894721,116.665718,华北大区
广汽埃安北京凯瑞翔通通州爱琴海展示中心,北京市通州区爱琴海购物公园1层,BJA0500-2,北京市,110000,北京市,110100,,,39.915434,116.665117,华北一区
广汽埃安北京金泰凯迪体验中心,北京市昌平区北辰亚运村汽车交易市场3-4广汽埃安,BJA0130,北京市,110000,北京市,110100,010-81776166-1,010-80129166,40.093218,116.417181,华北一区
广汽埃安北京昌平体验中心,北京市昌平区昌平镇西关环岛西北侧27号楼002室,BJA0220,北京市,110000,北京市,110100,17600205767,18511688806,40.228084,116.224034,华北一区
广汽埃安北京顺义体验中心,北京市顺义区天竺地区府前一街3号,BJA0700,北京市,110000,北京市,110100,010-53247782,010-53247787,40.066913,116.590632,华北大区
广汽埃安北京金泰凯迪延庆万达展示中心,北京市延庆区新城街与庆园街交叉路口往北约150米（万达广场）,BJA0130-2,北京市,110000,北京市,110100,010-81776166,010-81776166,40.474351,115.983867,华北一区
广汽埃安北京方正利成怀柔万达展示中心,北京市怀柔区府前西街1号院1号楼（青春万达广场1层1013）,BJA0800-2,北京市,110000,北京市,110100,,,40.323095,116.636247,华北一区
广汽埃安北京朝阳北路平谷华联展示中心,北京市平谷区迎宾街1号院22号楼 （华联购物中心）,BJA0150-1,北京市,110000,北京市,110100,,,40.144840,117.087652,华北一区
广汽埃安北京密云体验中心,北京市密云区十里堡镇排山汽车城内,BJA0170,北京市,110000,北京市,110100,010-89098899,010-89096699,40.357566,116.795702,华北一区
广汽埃安天津捷通达静海展示中心,天津市河东区津滨大道160号爱琴海购物公园1层135号,TJA0300-3,天津市,120000,天津市,120100,,,38.952095,117.011923,华北一区
广汽埃安天津中北体验中心,天津市西青区中北镇卉康道14号,TJA0600,天津市,120000,天津市,120100,022-27915500,022-27916622,39.116303,117.105179,华北一区
广汽埃安天津大寺体验中心,天津市西青区大寺镇储源道6号A区,TJA0120,天津市,120000,天津市,120100,022-23978855,022-23970066,38.994911,117.280071,华北一区
广汽埃安天津捷通达大寺展示中心,天津市西青区大寺镇储源道,TJA0300-4,天津市,120000,天津市,120100,,,38.997805,117.277339,华北一区
广汽埃安天津河西西青万达商超展示中心,天津市西青区津港公路与兴华道交叉口西北方180米（西青万达）,TJA0100-3,天津市,120000,天津市,120100,,,39.025614,117.244238,华北一区
广汽埃安天津南开长江体验中心,天津市南开区咸阳路74号,TJA0800,天津市,120000,天津市,120100,022-87089966,022-87085599,39.137807,117.144883,华北一区
广汽埃安天津河西体验中心, 天津市河西区解放南路613号,TJA0100,天津市,120000,天津市,120100,022-88241000,022-88233305,39.062446,117.238906,华北一区
广汽埃安天津中北新业天地展示中心,天津市河西区黑牛城道125号（新业广场）,TJA0600-1,天津市,120000,天津市,120100,,,39.082954,117.221617,华北一区
广汽埃安天津天河城展示中心,天津和平路263号天河城购物中心一层112,TJA0700-1,天津市,120000,天津市,120100,13512088353,13512088353,39.133519,117.210292,华北一区
广汽埃安天津双街辛庄展示中心,天津市津南区辛庄镇辛柴公路2号,TJA0700-4,天津市,120000,天津市,120100,,,39.021738,117.352361,华北一区
广汽埃安天津北辰辰悦商超展示中心,天津市北辰区京津路与天马道交叉口（辰悦广场）,TJA0400-1,天津市,120000,天津市,120100,,,39.218214,117.147299,华北一区
广汽埃安天津爱琴海展示中心,天津市河东区津滨大道160号爱琴海购物公园1层135号,TJA0300-2,天津市,120000,天津市,120100,022-60376666,022-60376060,39.127754,117.261522,华北大区
广汽埃安天津双街体验中心,天津市北辰区双街镇京津公路东双江道南庞大汽贸园内19号,TJA0700,天津市,120000,天津市,120100,13512088353,18920026682,39.257044,117.126105,华北一区
广汽埃安天津东丽万达展示中心,天津市东丽区先锋东路6号（东丽万达）,TJA0100-2,天津市,120000,天津市,120100,,,39.076431,117.358576,华北一区
广汽埃安天津津南体验中心,天津市津南区葛沽镇盛裕园2号B区,TJA0110,天津市,120000,天津市,120100,022-58203600,022-58203600,38.980000,117.490000,华北一区
广汽埃安天津双街北辰远洋未来城展示中心,天津市北辰区宜兴埠立交桥南侧（北辰远洋未来城）,TJA0700-5,天津市,120000,天津市,120100,,,39.208920,117.227214,华北一区
广汽埃安天津北辰体验中心,天津市北辰区北辰道2号浩物汽车园东门,TJA0400,天津市,120000,天津市,120100,022-85101818,022-85101010,39.255701,117.181488,华北大区
广汽埃安天津捷通达体验中心,天津自贸试验区（空港经济区）汽车园中路31号-3,TJA0300,天津市,120000,天津市,120100,022-60376666,022-60376060,39.166054,117.381561,华北一区
广汽埃安天津津滨体验中心,天津市滨海新区河南路1156号,TJA0900,天津市,120000,天津市,120100,(022) 6063 1238,13012202898,39.001854,117.661325,华北一区
广汽埃安天津自贸区滨海展示中心,天津市开发区黄海路133号,TJA0300-1,天津市,120000,天津市,120100,暂无,暂无,39.051460,117.700478,华北一区
广汽埃安天津河西蓟州展示中心,天津市蓟州区中昌南路（别山镇科科村汽车街）,TJA0100-4,天津市,120000,天津市,120100,,,40.006003,117.426419,华北一区
广汽埃安石家庄新石体验中心,河北省石家庄市桥西区西二环与新石中路交口北行30米路东,HEA0200,河北省,130000,石家庄市,130100,0311-83831234,0311-83807888,38.020000,114.440000,华南二区
广汽埃安石家庄新华勒泰广场展示中心,石家庄市长安区中山东路39号勒泰广场,HEA0100-2,河北省,130000,石家庄市,130100,,,38.050856,114.513342,华北一区
广汽埃安石家庄裕华万达展示中心,石家庄市裕华区建华南大街136号苏宁易购广场一层W1186号,HEA3000-2,河北省,130000,石家庄市,130100,,,38.029620,114.552240,华北二区
广汽埃安石家庄北二环体验中心,石家庄市北二环西路127号,HEA3000,河北省,130000,石家庄市,130100,0311-85320988,0311-66630893,38.092740,114.468714,华北二区
广汽埃安石家庄新华盛典体验中心,河北省石家庄市新华区北二环西路228号,HEA0400,河北省,130000,石家庄市,130100,0311-66530111,0311-66637000,38.090873,114.479830,华北二区
广汽埃安石家庄裕华时代体验中心,河北省石家庄市裕华区裕华东路166号时代广场汽贸园内东侧,HEA0300,河北省,130000,石家庄市,130100,0311-89896588,0311-89896566,38.042278,114.578363,华北二区
广汽埃安石家庄汽车园区体验中心,河北省石家庄市长安区北二环东路86号汽车贸易园阳光大道8号,HEA3000-3,河北省,130000,石家庄市,130100,0311-66692336,0311-66692203,38.077690,114.556249,华北二区
广汽埃安石家庄珺玥体验中心,河北省石家庄市新华区和平西路与植物园街交汇处西行100米路南商铺,HEA0100,河北省,130000,石家庄市,130100,18531164030,18633854030,38.415000,114.233000,华北二区
广汽埃安唐山高新体验中心,唐山市路北区高新机场路立交桥北侧荣川汽车园区,HEB0200,河北省,130000,唐山市,130200,0315-5511004,0315-5511145,39.670429,118.107460,华北二区
广汽埃安唐山路南体验中心,河北省唐山市路南区汽车文化展示园（广汽埃安体验中心）,HEB0300,河北省,130000,唐山市,130200,0315-5933355,0315-5933366,39.600917,118.199808,华北一区
广汽埃安唐山开平爱琴海商超展示中心,唐山市路北区北新道与卫国路交汇处西南角（爱琴海）,HEB0100-2,河北省,130000,唐山市,130200,,,39.675623,118.169973,华北一区
广汽埃安唐山开平体验中心,河北省唐山市开平区开平镇西八里村东,HEB0100,河北省,130000,唐山市,130200,,,39.650510,118.268034,华南二区
广汽埃安秦皇岛海港展示中心,秦皇岛市海港区东港北路45号,HEC3000,河北省,130000,秦皇岛市,130300,0335-5285777,0335-8525666,39.980686,119.640489,华北二区
广汽埃安邯郸邯山体验中心,河北省邯郸市邯山区南环路与机场路交叉口东200米路南,HED3000,河北省,130000,邯郸市,130400,0310-7535111,0310-7535111,36.573169,114.462564,华北一区
广汽埃安邯郸南环体验中心,河北省邯郸市邯山区南环路与机场路交叉口东行400米路南东侧A区A01,HED0200,河北省,130000,邯郸市,130400,13373105202,0310-7152009,36.573099,114.463376,华北一区
广汽埃安邯郸悦然城展示中心,邯郸市邯山区中华大街南环路立交桥东南角（美的-悦然广场）,HED3000-2,河北省,130000,邯郸市,130400,0310-7535111,0310-7535111,36.572192,114.496709,华北二区
广汽埃安邯郸邯山丛台展示中心,邯郸市雪驰路与东环路交叉口东行100米路北,HED3000-4,河北省,130000,邯郸市,130400,0310-7535111,0310-7535111,36.598544,114.546851,华北二区
广汽埃安邯郸广星美乐城展示中心,河北省邯郸市丛台区人民东路456号美乐城中厅S2112,HED3000-3,河北省,130000,邯郸市,130400,,,36.612812,114.531236,华南二区
广汽埃安邯郸北环体验中心,北环路与铁西大街交叉口西行50米路北,HED0100,河北省,130000,邯郸市,130400,13363068788,13363068788,36.661884,114.512917,华北二区
广汽埃安邢台环洁体验中心,河北省邢台市桥东区龙岗大街与永安路交叉口西北角23号,HEE3000,河北省,130000,邢台市,130500,0319-5036345,0319-7530313,37.024018,114.563213,华北二区
广汽埃安邢台襄都万达展示中心,河北省邢台市襄都区万达一层1063号商铺,HEE3000-1,河北省,130000,邢台市,130500,0319-5208802,,37.098282,114.530704,华北二区
广汽埃安邢台北环体验中心,河北省邢台市襄都区龙岗大街918-6号,HEE0100,河北省,130000,邢台市,130500,0319-3931666,0319-3903888,37.117433,114.555099,华北一区
广汽埃安邢台环洁桥东展示中心,邢台市桥东区龙岗东大街汽车园区内,HEE3000-2,河北省,130000,邢台市,130500,,,39.922529,116.192561,华北一区
广汽埃安保定世纪车城定州展示中心,保定市定州市清风北路与107交叉口路东,HEF0200-2,河北省,130000,保定市,130600,,,38.539474,114.995172,华北一区
广汽埃安保定清苑体验中心,河北省保定市清苑区和平路361号,HEF0300,河北省,130000,保定市,130600,5807878,5807979,38.752568,115.486388,华北二区
广汽埃安保定世纪车城体验中心,河北省保定市莲池区南大园乡长城南大街1485号世纪汽车城院内,HEF0200,河北省,130000,保定市,130600,18703127388,13831278851,38.835224,115.513211,华北二区
广汽埃安保定清苑高新展示中心,河北省保定市创业路359号,HEF0300-1,河北省,130000,保定市,130600,5897688 ,5897988,38.906484,115.457092,华北二区
广汽埃安保定科苑体验中心,保定市莲池区七一东路2456号中冀汽车集团园区,HEF3000,河北省,130000,保定市,130600,5997995,5019385,38.885238,115.564722,华北一区
广汽埃安张家口高新体验中心,河北省张家口市经济开发区沙岭子镇太师湾村大山口张宣公路东7号,HEG0100,河北省,130000,张家口市,130700,0313-3236688,0313-3236688,40.677502,114.942305,华北二区
广汽埃安沧州泰盛吾悦展示中心,沧州市运河区海河西路沧兴加油站西侧约210米（吾悦广场）,HEJ3000-2,河北省,130000,沧州市,130900,,,38.279227,116.834483,华北二区
广汽埃安沧州开发区体验中心,沧州市新华区开发区三胜车管所东行50米,HEJ3000,河北省,130000,沧州市,130900,0317-7571555,0317-7973111,38.296272,116.939842,华北二区
广汽埃安沧州新华体验中心,河北省沧州市新华区长芦北大道与渤海路交叉口,HEJ0100,河北省,130000,沧州市,130900,0317-2046666,0317-3011158,38.351815,116.904973,华北一区
广汽埃安沧州任丘万达展示中心,,HEJ3000-1,河北省,130000,沧州市,130900,,,0.000000,0.000000,华北二区
广汽埃安廊坊广阳体验中心,廊坊市广阳区廊万路188号,HER3000,河北省,130000,廊坊市,131000,0316-2205777,0316-2206777,39.551595,116.657714,华北一区
广汽埃安廊坊广阳展示中心,河北省廊坊市广阳区东安路183号,HER3000-1,河北省,130000,廊坊市,131000,0316-2180555,,39.526167,116.743631,华北一区
广汽埃安衡水高新体验中心,河北省衡水市高新区胜利西路昌明大街688号6栋1-2层,HET3000,河北省,130000,衡水市,131100,0318-2157777,0318-8885018,37.738791,115.643493,华北二区
广汽埃安衡水北环体验中心,河北省衡水市高新区北外环东路597号,HET0100,河北省,130000,衡水市,131100,0318-2638000,0318-2637000,37.774817,115.712969,华北一区
广汽埃安太原大昌汽车城体验中心,山西省太原市小店区平阳南路88号小马汽贸园,SXA0100,山西省,140000,太原市,140100,0351-3297888,0351-3297999,37.788606,112.560337,华北二区
广汽埃安太原南中环体验中心,山西省太原市晋源区新晋祠路488号山西万国汽车贸易服务园二环,SXA0300,山西省,140000,太原市,140100,0351-6361666,0351-6329508,37.802185,112.535561,华北一区
广汽埃安太原龙城体验中心,山西省太原市小店区马练营路59号,SXA0200,山西省,140000,太原市,140100,0351-5237599,0351-5237600,37.766728,112.614767,华北二区
广汽埃安太原新晋祠路展示中心,山西省太原市万柏林区新晋祠路汇豪新能源汽车城,SXA0200-2,山西省,140000,太原市,140100,0351-6850688,0351-5237600,37.831209,112.535345,华北二区
广汽埃安太原龙城铜锣湾展示中心,太原市迎泽区五一路77号铜锣湾国际购物中心,SXA0200-4,山西省,140000,太原市,140100,,,37.875290,112.577872,华北二区
广汽埃安太原富力广场展示中心,山西省太原市杏花岭区北中环街富力广场一层,SXA0200-3,山西省,140000,太原市,140100,0351-6620588,0351-5237600,37.905165,112.601317,华北二区
广汽埃安大同平城体验中心,山西省大同市平城区魏都大道688号,SXB0100,山西省,140000,大同市,140200,0352-5390088,0352-5398800,40.050438,113.295235,华北二区
广汽埃安阳泉李荫路体验中心,阳泉市市郊区李荫路汉河沟路段,SXC0100,山西省,140000,阳泉市,140300,,,37.916714,113.575264,华北一区
广汽埃安长治潞州体验中心,山西省长治市潞州区解放西街火车站东 500米路南,SXD0100,山西省,140000,长治市,140400,0355-5050558,0355-5050558,36.191221,113.083202,华北一区
广汽埃安长治潞州展示中心,山西省长治市长治高新技术产业开发区北外环路路北华信汽贸园东区2排,SXD3000,山西省,140000,长治市,140400,0355-2023355,0355-2023355,36.219906,113.121234,华北二区
广汽埃安长治北环万达展示中心,长治市潞州区英雄北路222号（万达广场）,SXD3000-2,山西省,140000,长治市,140400,,,36.223978,113.133911,华北二区
广汽埃安长治北环金威展示中心,长治市潞城区晋水社区东（金威购物广场）,SXD3000-1,山西省,140000,长治市,140400,139 9468 9336,,36.328206,113.217364,华北二区
广汽埃安晋城西环体验中心,晋城市城区西环路3888号,SXE0100,山西省,140000,晋城市,140500,0356-8989586,,35.510005,112.809438,华北一区
广汽埃安晋城凤城展示中心,山西省晋城市城区西街街道凤展购物广场有限公司新时代店1楼L-1101,SXE3000,山西省,140000,晋城市,140500,0356-2226601,0356-2226602,35.479252,112.852990,华北二区
广汽埃安晋中万达体验中心,晋中市山西示范区晋中开发区汇通产业园区汇通路（晋中开发区汽贸园2号）,SXK3000,山西省,140000,晋中市,140700,0354-3980018,0351-7781177,37.702961,112.717160,华北一区
广汽埃安晋中万达展示中心,山西省晋中市榆次区新建北路556号万达广场1层1062号商铺,SXK3000-1,山西省,140000,晋中市,140700,0354-3980018,0351-7781177,37.724304,112.745488,华北二区
广汽埃安运城北郊万达展示中心,运城市盐湖区禹西路与铺安街交叉口（运城万达）,SXM3000-1,山西省,140000,运城市,140800,,,35.049293,111.035139,华北二区
广汽埃安运城诺维兰汽车城展示中心,山西省运城市盐湖区工业园区南风大道三号,SXM3000,山西省,140000,运城市,140800,0359-2588559,0359-8594222,35.122295,110.957464,华北二区
广汽埃安临汾尧都体验中心,山西省临汾市尧都区尧庙镇金井村一号南200米,SXL0100,山西省,140000,临汾市,141000,3572311115,3572311115,36.025424,111.482901,华北二区
广汽埃安呼和浩特玉泉体验中心,内蒙古自治区呼和浩特玉泉区南二环快速路辅路紫维汽车园西段3号,NMA0100,内蒙古自治区,150000,呼和浩特市,150100,0471-3379988,0471-3320088,40.777520,111.605007,华北一区
广汽埃安包头开发区体验中心,内蒙古自治区包头市包头稀土高新技术产业开发区稀土路4号恒通汽车城第1排2号,NMB0100,内蒙古自治区,150000,包头市,150200,0472-5354578,0472-7155596,40.636432,109.891029,华北二区
广汽埃安赤峰红山体验中心,内蒙古自治区赤峰市红山区桥北镇姚家洼居委会红山物流园区（火花北路108号）,NMD0100,内蒙古自治区,150000,赤峰市,150400,0476-8883777,0476-8781116,42.326179,118.940207,华北二区
广汽埃安鄂尔多斯东胜体验中心,内蒙古自治区鄂尔多斯市东胜区铜川汽车博览园安居街 7-5 号,NMK0100,内蒙古自治区,150000,鄂尔多斯市,150600,0477-2231888,0477-2783683,39.792324,110.125132,华北二区
广汽埃安沈阳北二路展示中心,沈阳市铁西区北二中路13号,LNA3100,辽宁省,210000,沈阳市,210100,024-25908800,024-25908800,41.815042,123.377732,华北一区
广汽埃安全运万达展示中心,沈阳市浑南区全运路万达广场1层-1010,LNA3100-1,辽宁省,210000,沈阳市,210100,024-67966878,024-67966878,41.741483,123.465664,华北一区
广汽埃安沈阳北二路奥体万达展示中心,沈阳市浑南区营盘西街17号（浑南奥体万达）,LNA3100-2,辽宁省,210000,沈阳市,210100,15102495199,,41.741483,123.465664,华北二区
广汽埃安沈阳金山路体验中心,沈阳市皇姑区金山路83号,LNA0200,辽宁省,210000,沈阳市,210100,,,41.857824,123.459349,华北二区
广汽埃安沈阳东陵路体验中心,沈阳市沈河区东陵路14号,LNA0100,辽宁省,210000,沈阳市,210100,024-88439777,024-28412603,41.818802,123.530514,华北一区
广汽埃安大连华北路凯德和平展示中心,大连市沙河口区高尔基路695号（凯德和平广场）,LNB3000-1,辽宁省,210000,大连市,210200,,,38.902877,121.594482,华北一区
广汽埃安大连华北路展示中心,大连市甘井子区华北路293号-1,LNB3000,辽宁省,210000,大连市,210200,0411-86575555,0411-86575555,38.995136,121.576016,华北大区
广汽埃安大连甘井子体验中心,辽宁省大连市甘井子区华东路215号－3,LNB0100,辽宁省,210000,大连市,210200,0411-86715888,0411-86715888,39.007250,121.597820,华北一区
广汽埃安鞍山千山西路展示中心,鞍山市千山西路51号,LNC3000,辽宁省,210000,鞍山市,210300,0412-6960000,0412-6960000,41.129777,122.977168,华北大区
广汽埃安丹东振兴体验中心,辽宁省丹东市振兴区花园路49号,LNF3000,辽宁省,210000,丹东市,210600,0415-6224777,0415-3963111,40.127988,124.355306,华北一区
广汽埃安盘锦兴隆台万达展示中心,盘锦市兴隆台区双兴南路71号（万达广场）,LNL3000-1,辽宁省,210000,盘锦市,211100,,,41.106458,122.083201,华北一区
广汽埃安盘锦兴隆台展示中心,辽宁省盘锦市赵家经济开发区石油高新技术产业园1-17-107,LNL3000,辽宁省,210000,盘锦市,211100,0427-6612345,0427-6682516,41.158642,122.049374,华北大区
广汽埃安铁岭银州体验中心,铁岭市铁岭县102国道西辽海加油站附近,LNM0100,辽宁省,210000,铁岭市,211200,,,42.243803,123.802096,华北二区
广汽埃安朝阳龙城体验中心,辽宁省朝阳市龙城区中山大街五段159号广汽埃安体验中心,LNN0100,辽宁省,210000,朝阳市,211300,18009833388,0421-2628889,41.554558,120.379894,华北二区
广汽埃安长春高新体验中心,吉林省长春市高新开发区蔚山路新兴红旗嘉园C14-104室,JLA0100,吉林省,220000,长春市,220100,0431-85198111,0431-81874555,43.824746,125.248939,华北一区
广汽埃安长春春城体验中心,长春市绿园区普阳街58号长春市文教锅炉厂产权楼104号厂房,JLA0200,吉林省,220000,长春市,220100,0431-88519000,0431-88519111,43.882622,125.283098,华北二区
广汽埃安上海青浦万达展示中心,上海市青浦区淀山湖大道851号,SHA0600-5,上海市,310000,上海市,310100,021-59200167,021-59200177,31.139676,121.088205,华东大区
广汽埃安上海松卫青浦吾悦展示中心,上海市青浦区淀山湖大道218号（青浦吾悦）,SHA0130-1,上海市,310000,上海市,310100,,,31.150622,121.101782,华东大区
广汽埃安上海宁桥绿地缤纷城展示中心,上海市青浦区外青松公路5999号（绿地缤纷城）,SHA0140-1,上海市,310000,上海市,310100,,,31.159648,121.125562,华东大区
广汽埃安上海崧华体验中心,上海市青浦区崧华路688号,SHA0220,上海市,310000,上海市,310100,,,31.167684,121.176665,华东大区
广汽埃安上海吉恒开元新天地展示中心,上海市松江区新松江路927弄（开元新天地）,SHA0120-3,上海市,310000,上海市,310100,,,31.047499,121.216966,华东大区
广汽埃安上海青浦体验中心, 上海市青浦区嘉松中路799弄26号,SHA0600,上海市,310000,上海市,310100,021-59200167,021-59200177,31.253820,121.220134,华东大区
广汽埃安上海劲立松江万达展示中心,上海市松江区广富林路658号（松江万达）,SHA0600-8,上海市,310000,上海市,310100,021-57181608,021-57187738,31.063144,121.249676,华东大区
广汽埃安上海嘉定体验中心,上海市嘉定区沪宜公路4491号10幢,SHA0190,上海市,310000,上海市,310100,,,31.374874,121.233746,华东大区
广汽埃安上海奥莱体验中心,上海市青浦区沪青平公路2599号A栋101室,SHA0120,上海市,310000,上海市,310100,021-59241190,021-59241190,31.157543,121.249269,华东大区
广汽埃安上海松卫体验中心,上海市松江区江田东路259号10幢B区,SHA0130,上海市,310000,上海市,310100,021-67720551,021-67720299,31.030940,121.268511,华东大区
广汽埃安上海吉鸿嘉定大融城展示中心,上海市嘉定区宝安公路3386号（嘉定大融城）,SHA0120-5,上海市,310000,上海市,310100,,,31.336396,121.286412,华东大区
广汽埃安上海晋熙手拉手展示中心,上海市松江区九干公路50号手拉手汽车港,SHA0900-5,上海市,310000,上海市,310100,,,31.133128,121.304869,华东大区
广汽埃安上海劲立金沙江西路展示中心,上海市嘉定区金沙江西路2600号,SHA0600-11,上海市,310000,上海市,310100,,,31.248159,121.311120,华东大区
广汽埃安上海沪松体验中心,上海市松江区九亭镇沪松公路1197号3幢,SHA0210,上海市,310000,上海市,310100,57800681,57800682,31.149847,121.334977,华东大区
广汽埃安上海金山体验中心,上海市金山区亭卫公路2011号,SHA0230,上海市,310000,上海市,310100,,,30.779715,121.364481,华东大区
广汽埃安上海虹桥展示中心,上海市闵行区沪青平公路415-433号,SHA3000,上海市,310000,上海市,310100,021-33581833,021-33581877,31.181892,121.351297,华东大区
广汽埃安上海闵行体验中心,上海市闵行区黎安路1399弄22号,SHA0400,上海市,310000,上海市,310100,400-861-7988,400-861-7988,31.125363,121.358744,华东大区
广汽埃安上海普陀体验中心, 上海市普陀区金昌路1858号,SHA0500,上海市,310000,上海市,310100,021-57529922,021-57523377,31.281833,121.350176,华东大区
广汽埃安上海浦东御桥路七宝宝龙商超展示中心,上海市漕宝路3299号七宝宝龙城S5号楼一层M-S5-F1-003-1号商铺（宝龙城）,SHA0160-1,上海市,310000,上海市,310100,,,31.164415,121.360967,华东大区
广汽埃安上海闵行马桥万达,上海市闵行区马桥镇富岩路121号1021,SHA0600-6,上海市,310000,上海市,310100,021-59200167,021-59202177,31.029517,121.380019,华东大区
广汽埃安上海月罗体验中心,上海市宝山区月罗路2370号,SHA0150,上海市,310000,上海市,310100,021-60790585,021-60790586,31.416212,121.358934,华东大区
广汽埃安上海松卫凯德龙之梦商超展示中心,上海市闵行区沪闵路6088号凯德龙之梦,SHA0130-2,上海市,310000,上海市,310100,,,31.113930,121.384402,华东大区
广汽埃安上海颛桥万达展示中心,上海市闵行区颛兴东路1570号（颛桥万达）,SHA0600-2,上海市,310000,上海市,310100,021-59200167,021-59200177,31.077149,121.412839,华东大区
广汽埃安上海经伟汇展示中心,上海市宝山区经地路99弄经纬汇一楼三号楼内庭商铺上海市宝山区经地路99弄经纬汇一楼三号楼内庭商铺,SHA0120-1,上海市,310000,上海市,310100,,,31.331042,121.405938,华东大区
广汽埃安上海长宁龙之梦展示中心,上海市长宁区长宁路1018号龙之梦B203-D,SHA0200-1,上海市,310000,上海市,310100,021-60710391,4001867988,31.219198,121.416736,华东大区
广汽埃安上海劲立奉贤展示中心,上海上海市奉贤区沪杭公路1960号,SHA0600-9,上海市,310000,上海市,310100,021-57181608,021-57187738,30.923876,121.441225,华东大区
广汽埃安上海奉贤沪杭体验中心,上海市奉贤区南桥镇沪杭公路1960号二幢,SHA0240,上海市,310000,上海市,310100,021-57181608,021-57187738,30.923876,121.441225,华东大区
广汽埃安上海宝山日月光展示中心,上海市宝山区沪太路1933号日月光中心,SHA0500-4,上海市,310000,上海市,310100,,,31.300017,121.423615,华东大区
广汽埃安上海沪北体验中心,上海市宝山区宝安公路839号,SHA0180,上海市,310000,上海市,310100,021-33856288,021-33856155,31.370527,121.419055,华东大区
广汽埃安上海静安大融城展示中心,上海市静安区沪太路1111弄（静安大融城）,SHA0170-1,上海市,310000,上海市,310100,,,31.286475,121.432472,华东大区
广汽埃安上海晋熙奉贤宝龙展示中心,上海市奉贤区南桥环城东路728号（奉贤宝龙）,SHA0900-4,上海市,310000,上海市,310100,,,30.903429,121.451967,华东大区
广汽埃安上海汶水体验中心,上海市静安区汶水路269号3幢101-1室,SHA0170,上海市,310000,上海市,310100,021-36031702,021-56771666,31.297719,121.447335,华东大区
广汽埃安上海崇明万达展示中心,上海市崇明区城桥镇崇明大道8388号（崇明万达二期）,SHA0600-3,上海市,310000,上海市,310100,021-59200167,021-59200177,31.632266,121.424366,华东大区
广汽埃安上海静安国际展示中心,上海市静安区裕通路89号（静安国际中心）,SHA0600-4,上海市,310000,上海市,310100,021-59200167,021-59200177,31.249448,121.460428,华东大区
广汽埃安上海宝山体验中心, 上海市宝山区江杨南路1505号,SHA0200,上海市,310000,上海市,310100,400-186-7988,400-186-7988,31.334413,121.467172,华东大区
广汽埃安上海吉鸿奉贤隆龙湖展示中心,上海市奉贤区南行港路388号（奉贤龙湖金汇天街）,SHA0120-4,上海市,310000,上海市,310100,,,30.968538,121.490955,华东大区
广汽埃安上海广场体验中心,上海市黄浦区淮海中路138号上海广场（东南门1楼）106B-107-111号,SHA3100,上海市,310000,上海市,310100,,,31.231492,121.484942,华东大区
广汽埃安上海郑隆奉贤天街展示中心,上海市奉贤区金海公路3800号（奉贤天街）,SHA0180-1,上海市,310000,上海市,310100,13002162915,,30.920722,121.502823,华东大区
广汽埃安上海月罗宝杨宝龙展示中心,上海市宝山区同济路669弄4号1层101室M1-L1-025-1,SHA0150-1,上海市,310000,上海市,310100,13052463335,,31.400972,121.488406,华东大区
广汽埃安上海吉鸿浦江广场展示中心,上海市闵行区江月路1850弄1F-E16、E17、E18店铺（浦江城市生活广场）,SHA0120-6,上海市,310000,上海市,310100,,,31.089019,121.511639,华东大区
广汽埃安上海浦东临港万达,上海市浦东新区鸿音路2555号1F-2,SHA0600-7,上海市,310000,上海市,310100,021-59200167,021-59202177,31.227348,121.550455,华东大区
广汽埃安上海浦东御桥路体验中心,上海浦东新区御桥路1377号,SHA0160,上海市,310000,上海市,310100,021-50108916,021-50108918,31.155496,121.558635,华东大区
广汽埃安上海浦东龙阳广场展示中心,上海市浦东新区龙阳路2000号一层110-02号,SHA0900-3,上海市,310000,上海市,310100,,,31.209545,121.565270,华东大区
广汽埃安上海车市体验中心,上海市浦东新区沪南路4789弄311号,SHA0900,上海市,310000,上海市,310100,021-68041668,021-68041619,31.075394,121.595669,华东大区
广汽埃安上海宁桥森兰花园城商超展示中心,上海市浦东新区启帆路517号森兰花园城商超1楼中庭处附近,SHA0140-2,上海市,310000,上海市,310100,,,31.320403,121.597912,华东大区
广汽埃安上海宁桥体验中心,上海市浦东新区宁桥路668号（金桥建材市场内）,SHA0140,上海市,310000,上海市,310100,021-50331533,021-50331560,31.251358,121.617257,华东大区
广汽埃安上海君和沪南公路展示中心,上海市浦东新区沪南公路7160号,SHA0500-3,上海市,310000,上海市,310100,18217750382,,31.031509,121.642320,华东大区
广汽埃安上海浦东阳光天地展示中心,浦东新区唐镇高科东路777号阳光天地1楼,SHA0900-2,上海市,310000,上海市,310100,18019041163,,31.220439,121.662783,华东大区
广汽埃安上海劲立崇明展示中心,上海崇明区堡镇北路800号,SHA0600-10,上海市,310000,上海市,310100,,,31.568966,121.641879,华东大区
广汽埃安上海松卫浦东展示中心,上海浦东新区川沙路3703号,SHA0130-3,上海市,310000,上海市,310100,,,31.221062,121.697127,华东大区
广汽埃安南京大胜关体验中心,南京市雨花台区天驰路2号,JSA0500,江苏省,320000,南京市,320100,025-57066111,025-57066611,31.951389,118.661090,华东大区
广汽埃安南京浦珠体验中心,南京市江北新区泰山街道浦珠北路159号,JSA0800,江苏省,320000,南京市,320100,025-58879166,025-58879196,32.117319,118.704905,华东大区
广汽埃安南京宁南建邺吾悦展示中心,江苏省南京市建邺区江东门北街吾悦广场1楼,JSA3100-2,江苏省,320000,南京市,320100,18114023081,,32.042978,118.742963,华东大区
广汽埃安南京雨田金鹰世界展示中心,南京市建邺区应天大街888号金鹰购物中心内A06层1138-A06-00961商铺,JSA3000-2,江苏省,320000,南京市,320100,,,32.028360,118.746284,华东大区
广汽埃安南京宁南体验中心,南京市雨花台区丁墙路1号,JSA3100,江苏省,320000,南京市,320100,025-52200758,025-52259122,31.988069,118.806224,华东大区
广汽埃安南京宁镇金茂览秀城展示中心,江苏省南京市鼓楼区中央路201号（金茂览秀城）,JSA0700-1,江苏省,320000,南京市,320100,,,32.078716,118.789647,华东大区
广汽埃安南京城北体验中心,南京市栖霞区燕子矶街道幕府东路228号,JSA0600,江苏省,320000,南京市,320100,025-58119111,025-52238666,32.121911,118.813303,华东大区
广汽埃安南京宁镇体验中心,南京市玄武区东方城48号,JSA0700,江苏省,320000,南京市,320100,025-83700017,025-83700016,32.092421,118.842169,华东大区
广汽埃安南京江宁体验中心,南京市江宁区东山汽车园润麒路18号2号楼,JSA3000,江苏省,320000,南京市,320100,,,31.987543,118.882015,华东大区
广汽埃安六合龙湖天街展示中心,南京六合区雄州街道龙湖天街A-F1,JSA0400-1,江苏省,320000,南京市,320100,13337700020,,32.335399,118.849630,华东大区
广汽埃安南京玄武体验中心,江苏省南京市栖霞区仙隐北路28号,JSA0200,江苏省,320000,南京市,320100,025-85450066,025-85450099,32.107062,118.898933,华东大区
广汽埃安南京玄武万达茂展示中心,江苏省南京市栖霞区仙林大道与守敬路交汇处（万达茂）,JSA0200-1,江苏省,320000,南京市,320100,,,32.127199,118.994333,华东大区
广汽埃安无锡宜兴融达展示中心,宜兴市融达汽车城北门口1幢801,JSB0400-1,江苏省,320000,无锡市,320200,,,31.393706,119.792588,华东大区
广汽埃安无锡宜兴体验中心,宜兴经济技术开发区塞特大道128-3号,JSB0400,江苏省,320000,无锡市,320200,0510--87120222,80790109/80797009,31.417440,119.815150,华东大区
广汽埃安宜兴万达展示中心,无锡市宜兴市东虹路550号（宜兴万达）,JSB3000-1,江苏省,320000,无锡市,320200,0510-85807111,0510-68582666,31.369729,119.859241,华东大区
广汽埃安无锡盛岸体验中心,无锡市惠山区钱桥盛岸西路610-1号,JSB0300,江苏省,320000,无锡市,320200,0510-83133888,0510-83226999,31.621215,120.231494,华东大区
广汽埃安无锡盛岸滨湖万达展示中心,无锡市滨湖区梁溪路35号（滨湖万达）,JSB0300-1,江苏省,320000,无锡市,320200,,,31.568104,120.273316,华东大区
广汽埃安无锡金城湾体验中心,无锡市梁溪区金城路388号,JSB0200,江苏省,320000,无锡市,320200,0510-82109999,0510-88353355,31.525320,120.297790,华东大区
广汽埃安江阴澄杨八佰伴展示中心,无锡市江阴市虹桥南路256号（江阴八佰伴）,JSB3100-2,江苏省,320000,无锡市,320200,,,31.897335,120.273178,华东大区
广汽埃安无锡惠山体验中心,无锡市惠山区金惠路121号,JSB0100,江苏省,320000,无锡市,320200,0510-83551866,0510-83556577,31.670178,120.308515,华东大区
广汽埃安无锡惠山奥特莱斯展示中心,无锡市惠山区惠山大道66号（悦尚奥特莱斯）,JSB0100-1,江苏省,320000,无锡市,320200,,,31.639413,120.317522,华东大区
广汽埃安江阴澄杨体验中心,江阴市澄杨路55号,JSB3100,江苏省,320000,无锡市,320200,,,31.890488,120.317463,华东大区
广汽埃安无锡锡山体验中心,无锡市锡山区先锋中路25-3号,JSB3000,江苏省,320000,无锡市,320200,0510-68581333,0510-68582666,31.590153,120.427057,华东大区
广汽埃安江阴澄杨万达展示中心,江阴市万达广场1号门东厅 1072/1073A,JSB3100-1,江苏省,320000,无锡市,320200,,,31.851576,120.432085,华东大区
广汽埃安徐州金山金地展示中心,徐州市鼓楼区中山北路6号 （金地商都）,JSC0100-1,江苏省,320000,徐州市,320300,,,34.273906,117.193213,华东大区
广汽埃安徐州高新复兴苏宁展示中心,徐州市鼓楼区复兴北路27号（复兴苏宁广场）,JSC0200-1,江苏省,320000,徐州市,320300,,,34.273910,117.209570,华东大区
广汽埃安徐州金山淮海食品城体验中心,徐州市云龙区淮海食品城会展路3号万安市场1-1号,JSC0100,江苏省,320000,徐州市,320300,0516-61885695,0516-61885695,34.230565,117.237441,华东大区
广汽埃安徐州香山体验中心,徐州市鼓楼区三环东路闽商汽车园E栋一区,JSC0300,江苏省,320000,徐州市,320300,0516-87792226,0516-87798977,34.284240,117.237743,华东大区
广汽埃安徐州高新体验中心,徐州高新技术产业园开发区北京南路291号,JSC0200,江苏省,320000,徐州市,320300,0516-83388811,0516-83388822,34.212670,117.290580,华东大区
广汽埃安徐州晟速展示中心,徐州市古楼区经济技术开发区徐海路8号环球港,JSC0300-2,江苏省,320000,徐州市,320300,0516-80802616,0516-80802619,34.270821,117.267822,华东大区
广汽埃安徐州香山新沂吾悦展示中心,江苏省徐州市新沂市S323(大桥西路)（新沂吾悦广场）,JSC0300-1,江苏省,320000,徐州市,320300,,,34.364639,118.333709,华东大区
广汽埃安溧阳吾悦展示中心,江苏省常州市溧阳市天目湖大道77号溧阳吾悦广场 1032-A 铺位,JSD3000-1,江苏省,320000,常州市,320400,0519-86527996,0519-86951818,31.410382,119.469958,华东大区
广汽埃安常州常澄金坛新天地展示中心,常州市金坛区县府路2号（金坛新天地）,JSD0100-2,江苏省,320000,常州市,320400,,,31.745559,119.583389,华东大区
广汽埃安常州常澄武进万达展示中心,常州市武进区花园街301号武进万达广场,JSD0100-1,江苏省,320000,常州市,320400,,,31.729425,119.944074,华东大区
广汽埃安常州新北体验中心,常州市新北区薛家镇顺园路88-20号,JSD0200,江苏省,320000,常州市,320400,0519-85281818,0519-85280708,31.861366,119.939834,华东大区
广汽埃安常州武进汽车城展示中心,常州市武进区武进汽车城星火路D区8号,JSD3000,江苏省,320000,常州市,320400,0519-83606666,0519-86951818,31.698342,119.970661,华东大区
广汽埃安常州常澄体验中心,常州市新北区通江中路613号,JSD0100,江苏省,320000,常州市,320400,0519-89882888,0519-89869888,31.846045,119.988813,华东大区
广汽埃安苏州木渎体验中心,苏州市吴中区木渎镇珠江南路999号3幢南侧一层 ,JSE3000,江苏省,320000,苏州市,320500,400-868-3916,0512-66018288,31.263916,120.545373,华东大区
广汽埃安苏州高新体验中心,苏州高新区马运路168号,JSE0200,江苏省,320000,苏州市,320500,0512-66615111,0512-66617111,31.325252,120.565065,华东大区
广汽埃安苏州工业园张家港吾悦展示中心,苏州市张家港市杨舍镇金港大道338号（吾悦广场）,JSE3200-2,江苏省,320000,苏州市,320500,,,31.838512,120.542916,华东大区
广汽埃安苏州吴江爱琴海展示中心,苏州市吴江区松陵镇夏蓉街1298号爱琴海广场1层,JSE3300-1,江苏省,320000,苏州市,320500,18556881718,0512-63689222,31.142515,120.619109,华东大区
广汽埃安苏州张家港体验中心,江苏省苏州市张家港市杨舍镇农联村张杨公路489号,JSE0100,江苏省,320000,苏州市,320500,0512-58621888,0512-58199899,31.872020,120.585100,华东大区
广汽埃安苏州相城体验中心,苏州市相城区太阳路2250号,JSE0400,江苏省,320000,苏州市,320500,0512-66225999,0512-66225666,31.417653,120.640077,华东大区
广汽埃安苏州吴江体验中心,苏州市吴江区五方路78号,JSE3300,江苏省,320000,苏州市,320500,,,31.107574,120.678566,华东大区
广汽埃安苏州工业园体验中心,苏州工业园区群星三路18号地铁3号线通园路站往南50米,JSE3200,江苏省,320000,苏州市,320500,0512-67163999,0512-67169777,31.273707,120.676368,华东大区
广汽埃安苏州苏虹路体验中心,江苏省苏州市苏州工业园区苏虹中路399号,JSE0600,江苏省,320000,苏州市,320500,0512-65883586,0512-65883519,31.338779,120.710414,华东大区
广汽埃安常熟东风路体验中心,常熟市汽车城长城路5号1幢,JSE3400,江苏省,320000,苏州市,320500,18962367096,18962367036,31.640323,120.799381,华东大区
广汽埃安昆山城西体验中心,昆山市城北西路2022号1号房,JSE3100,江苏省,320000,苏州市,320500,0512-55114111,18913283813,31.431867,120.910085,华东大区
广汽埃安苏州昆山体验中心,江苏省苏州昆山市玉山镇新南中路99号,JSE0300,江苏省,320000,苏州市,320500,0512-50361000,0512-57517005,31.342928,120.966119,华东大区
广汽埃安苏州太仓体验中心,太仓市经济开发区太平北路111号7-B幢1-02室、1-03室、2-01室、2-02室,JSE0500,江苏省,320000,苏州市,320500,0512-53588801,0512-53588806,31.482112,121.102867,华东大区
广汽埃安常熟东风路凤凰城展示中心,苏州市常熟市闽江东路盛世名门青城山路店东南侧约160米（凤凰城）,JSE3400-1,江苏省,320000,常熟市,320581,18962367036,18962367036,31.673015,120.778233,华东大区
广汽埃安如皋车城体验中心,如皋市如城街道解放西路115号1号楼,JSF0300,江苏省,320000,南通市,320600,0513-87989088,0513- 87591099,32.365510,120.548374,华东大区
广汽埃安南通崇川体验中心,南通市崇川区城港路128号,JSF3100,江苏省,320000,南通市,320600,0513-83521111,0513-83571111,32.039094,120.818582,华东大区
广汽埃安南通钟秀体验中心,江苏省南通市崇川区钟秀街道五一路99号3幢101室,JSF0400,江苏省,320000,南通市,320600,0513-55016888,0513-89126999,32.020541,120.883162,华东大区
广汽埃安南通启东体验中心,启东市城北工业园区兴龙东路666号,JSF0200,江苏省,320000,南通市,320600,0513-83250666,0513-83252666,31.835686,121.686450,华东大区
广汽埃安连云港海州体验中心,连云港市海州区迎宾大道8号,JSG3000,江苏省,320000,连云港市,320700,0518-85772729,0518-85772729,34.553901,119.227594,华东大区
广汽埃安连云港新浦体验中心,江苏省连云港市海州区解放东路299-6号,JSG0100,江苏省,320000,连云港市,320700,0518-85772729,0518-85918899,34.647597,119.195474,华东大区
广汽埃安连云港赣榆香港路展示中心,连云港市赣榆区香港路3号,JSG3000-1,江苏省,320000,连云港市,320700,0518-85918899,0518-85918899,34.823244,119.126542,华东大区
广汽埃安淮安淮阴体验中心,江苏省淮安市淮阴区钱江路96号,JSH0100,江苏省,320000,淮安市,320800,,,33.659890,119.033765,华东大区
广汽埃安淮安清江浦体验中心,淮安市清江浦区清河新区旺旺路28-5号广汽埃安店,JSH3000,江苏省,320000,淮安市,320800,0517-84269888,0517-83181515,33.611834,119.112928,华东大区
广汽埃安淮安清江浦涟水吾悦展示中心,淮安市涟水县涟水吾悦广场,JSH3000-2,江苏省,320000,淮安市,320800,0517 82883116,0517 82663116,33.784101,119.305697,华东大区
广汽埃安盐城开元体验中心,盐城市亭湖区开放大道670号,JSJ3000,江苏省,320000,盐城市,320900,0515-80556666,0515-83136999,33.460859,120.094470,华东大区
广汽埃安盐城盐都展示中心,盐城市盐都区新区刘朋村永宁国际汽车城1幢2039室、1幢2040室、1幢2041室（B）,JSJ3100,江苏省,320000,盐城市,320900,0515-80998816,0515-89968816,33.333458,120.140618,华东大区
广汽埃安盐城开元万达展示中心,盐城市盐都区西环路88号万达广场1063商铺,JSJ3000-1,江苏省,320000,盐城市,320900,0515-88090888,0515-88090888,33.365806,120.134326,华东大区
广汽埃安盐城盐都吾悦展示中心,盐城市盐都区海洋路216号吾悦广场一楼1058,JSJ3100-1,江苏省,320000,盐城市,320900,80998816,89968816,33.312272,120.152565,华东大区
广汽埃安扬州邗江体验中心,扬州市邗江区扬力路16号,JSK3000,江苏省,320000,扬州市,321000,,,32.351947,119.383838,华东大区
广汽埃安扬州汽车城展示中心,扬州市扬子江北路1111号,JSK3000-1,江苏省,320000,扬州市,321000,0514-87861955,,32.446334,119.386447,华东大区
广汽埃安扬州江都万象汇展示中心,扬州市文昌中路606号（扬州万象汇）,JSK0100-1,江苏省,320000,扬州市,321000,,,32.401385,119.431837,华东大区
广汽埃安扬州江都体验中心,扬州市江都区仙女镇长江东路311号江都汽车产业园10幢,JSK0100,江苏省,320000,扬州市,321000,0514-86998022,0514-86998021,32.437781,119.611308,华东大区
广汽埃安镇江丁卯体验中心,镇江丁卯桥路288号,JSL3000,江苏省,320000,镇江市,321100,0511-88880178,0511-88880178,32.179592,119.512921,华东大区
广汽埃安泰州医药高新体验中心,泰州市海陵区国际汽车城99幢,JSM3000,江苏省,320000,泰州市,321200,0523-81562888,0523-86858111,32.422406,119.904361,华东大区
广汽埃安泰州海姜万达展示中心,泰州市海陵区济川东路228号（万达广场）,JSM0100-1,江苏省,320000,泰州市,321200,,,32.477707,119.923663,华东大区
广汽埃安泰州海陵泰兴万达展示中心,泰州市泰兴市鼓楼北路333号（泰兴万达）,JSM3000-2,江苏省,320000,泰州市,321200,,,32.187943,120.008859,华东大区
广汽埃安泰州泰兴体验中心,泰兴市东三环东侧、振兴路北侧,JSM0300,江苏省,320000,泰州市,321200,0523-89706666,0523-89708888,32.197633,120.048708,华东大区
广汽埃安泰州海姜体验中心,江苏省泰州市姜堰区梁徐街道双登科工园内988号,JSM0100,江苏省,320000,泰州市,321200,0523-89690699,0523-88866009,32.483870,120.123119,华北一区
广汽埃安泰州靖江体验中心,靖江市中洲西路国际汽贸城,JSM0200,江苏省,320000,泰州市,321200,052384900678,052384800678,32.005049,120.234195,华东大区
广汽埃安宿迁宿城体验中心,宿迁市宿城区经济开发区振兴大道东侧316号,JSN0100,江苏省,320000,宿迁市,321300,0527-88838888,0527-88881999       ,33.910480,118.248872,华东大区
广汽埃安宿迁宿城吾悦展示中心,江苏省宿迁市宿城新区青海湖西路与黄海路交汇处（吾悦广场）,JSN0100-1,江苏省,320000,宿迁市,321300,,,33.949913,118.246178,华东大区
广汽埃安宿迁宿豫体验中心,江苏省宿迁市宿豫区天山路18号,JSN0200,江苏省,320000,宿迁市,321300,0527-84288882,0527-84288885,33.974527,118.340351,华东大区
广汽埃安宿迁沭阳体验中心,宿迁市沭阳县恒广汽车生活广场2#、3#幢2#-111号,JSN0300,江苏省,320000,宿迁市,321300,0527-88889700,13515296626,34.094245,118.805471,华东大区
广汽埃安杭州城南青山湖宝龙展示中心,杭州市临安区青山湖街道科技大道2588号杭州青山湖宝龙广场,ZJA0700-1,浙江省,330000,杭州市,330100,0571-823 78879,,30.257454,119.828201,华东大区
广汽埃安杭州西溪富阳万达展示中心,杭州市富阳区金桥北路990号（富阳万达）,ZJA0500-2,浙江省,330000,杭州市,330100,,,30.092007,119.928138,华东大区
广汽埃安杭州石祥富阳展示中心,杭州市富阳区恩波大道1192-1194号,ZJA0200-1,浙江省,330000,杭州市,330100,,,30.080727,119.949248,华东大区
广汽埃安杭州萧山未来科技展示中心,杭州市余杭区余杭塘路2855号（科技城宝龙广场）,ZJA3000-2,浙江省,330000,杭州市,330100,,,30.285953,119.994727,华东大区
广汽埃安杭州凌波西嘉广场展示中心,杭州市余杭区五常街道联胜路6号西嘉广场1楼,ZJA0400-2,浙江省,330000,杭州市,330100,0571-88179679,,30.250810,120.035830,华东大区
广汽埃安杭州奥体西湖展示中心,杭州市西湖区凌波路1号金色水岸商务楼1号楼107,ZJA0400-3,浙江省,330000,杭州市,330100,0571-88015815,0571-88015913,30.284500,120.059690,华东大区
广汽埃安杭州西溪体验中心,杭州市西湖区西溪路978号,ZJA0500,浙江省,330000,杭州市,330100,0571-85357551,0571-86937729,30.252374,120.070978,华东大区
广汽埃安杭州城北体验中心,浙江省杭州市余杭区莫干山路1830号,ZJA0600,浙江省,330000,杭州市,330100,0571-88763588,0571-88765050,30.366470,120.085260,华东大区
广汽埃安杭州城南金地展示中心,杭州市余杭区古墩路1333号金地广场,ZJA0700-2,浙江省,330000,杭州市,330100,,,30.345600,120.088559,华东大区
广汽埃安杭州北站体验中心,浙江省杭州市拱墅区石祥路507号东边一楼,ZJA0800,浙江省,330000,杭州市,330100,0571-88831116,0571-88174000,30.329980,120.125465,华东大区
广汽埃安杭州凌波黄龙万科展示中心,杭州市西湖区学院路77号黄龙国际K-Lab商场1楼,ZJA0400-1,浙江省,330000,杭州市,330100,0571-86778615,,30.281910,120.135520,华东大区
广汽埃安杭州城北上亿广场展示中心,杭州市临平区崇贤街道崇杭路（上亿广场）,ZJA0600-1,浙江省,330000,杭州市,330100,,,30.389350,120.147420,华东大区
广汽埃安杭州北站水晶城展示中心,杭州市拱墅区上塘路458号水晶城购物中心L1-109（水晶城）,ZJA0800-1,浙江省,330000,杭州市,330100,,,30.309745,120.149513,华东大区
广汽埃安杭州石祥城北新天地展示中心,杭州市拱墅区长浜路718号（城北新天地）,ZJA0200-3,浙江省,330000,杭州市,330100,,,30.328440,120.185759,华东大区
广汽埃安杭州501城市广场展示中心,杭州市江干区景昙路9号杭州大厦501城市广场一楼101-29店铺,ZJA0500-1,浙江省,330000,杭州市,330100,17706818053,17706818053,30.265575,120.210305,华东大区
广汽埃安杭州石祥体验中心,浙江省杭州市石祥东路1576号,ZJA0200,浙江省,330000,杭州市,330100,0571-88290333,0571-88767676,30.341278,120.221611,华东大区
广汽埃安杭州奥体体验中心,杭州市萧山区滨康路55号,ZJA0400,浙江省,330000,杭州市,330100,0571-87910801,0571-87918318,30.187978,120.235122,华东大区
广汽埃安杭州城南体验中心,杭州市萧山区蜀山街道亚太路188号,ZJA0700,浙江省,330000,杭州市,330100,0571-82212221,0571-82682200,30.110860,120.246076,华东大区
广汽埃安杭州萧山展示中心,浙江省杭州市萧山区宁围街道浙江世纪汽车市场3幢24号二层,ZJA3000,浙江省,330000,杭州市,330100,18967188816,13396715918,30.209666,120.296450,华东大区
广汽埃安杭州萧山钱塘银泰展示中心,杭州市钱塘区海达南路397号（银泰百货）,ZJA3000-1,浙江省,330000,杭州市,330100,13757104437,,30.304859,120.332067,华东大区
广汽埃安杭州城东体验中心,浙江省杭州市钱塘区白杨街道11号大街26号15幢-8,ZJA0900,浙江省,330000,杭州市,330100,0571-89362688,0571-89362699,30.296564,120.360138,华东大区
广汽埃安宁波余姚体验中心,浙江省余姚市世南西路1979号,ZJB0300,浙江省,330000,宁波市,330200,0574-62797666,0574-62695999,30.041605,121.118648,华东大区
广汽埃安余姚众安广场展示中心,浙江省余姚市新建北路217号众安广场1楼1F-1030,ZJB0300-1,浙江省,330000,宁波市,330200,0574-62797666,,30.081092,121.166299,华东大区
广汽埃安宁波慈溪体验中心,浙江省慈溪市逍林镇新园村汽贸大道598号,ZJB0600,浙江省,330000,宁波市,330200,0574-58888888,0574-59999999,30.176883,121.323265,华东大区
广汽埃安宁波西部海曙印象城展示中心,浙江省宁波市海曙区印象城L1-26,ZJB3000-2,浙江省,330000,宁波市,330200,0574-81859593,0574-81859593,29.901980,121.484141,华东大区
广汽埃安宁波鄞州潘火江北恒一商超展示中心,宁波市江北区长兴东路368号（恒一江北广场）,ZJB0100-3,浙江省,330000,宁波市,330200,,,29.935162,121.509237,华东大区
广汽埃安宁波西部体验中心,浙江省宁波市海曙区鄞县大道西段777号,ZJB3000,浙江省,330000,宁波市,330200,			,,29.827495,121.512233,华东大区
广汽埃安宁波宁海体验中心,浙江省宁波市宁海县梅林街道平安西路26-1号,ZJB0400,浙江省,330000,宁波市,330200,,,29.364810,121.473460,华东大区
广汽埃安宁波海曙体验中心,浙江省宁波市海曙区高鑫广场1楼644-112B商铺,ZJB0200,浙江省,330000,宁波市,330200,0574-87520603,0574-87202293,29.897778,121.521389,华东大区
广汽埃安宁波鄞州潘火恒一广场展示中心,浙江省宁波市海曙区海曙恒一广场1楼1F109,ZJB0100-1,浙江省,330000,宁波市,330200,,,29.856800,121.520773,华东大区
广汽埃安宁波滨江明州里展示中心,宁波市鄞州区四明西路7号（明州里）,ZJB0500-2,浙江省,330000,宁波市,330200,0574-86010000,0574-86190000,29.832600,121.548727,华东大区
广汽埃安宁波海曙鄞州万达展示中心,宁波市鄞州区钟公庙街道四明中路999号（鄞州万达）,ZJB0200-2,浙江省,330000,宁波市,330200,,,29.832228,121.552203,华东大区
广汽埃安宁波西部恒一展示中心,宁波市海曙区大沙泥街100号恒一城市广场,ZJB3000-3,浙江省,330000,宁波市,330200,,,29.871809,121.559196,华东大区
广汽埃安宁波鄞州体验中心,浙江省宁波市鄞州区下应北路628号,ZJB0100,浙江省,330000,宁波市,330200,0574-28810888,0574-28819595,29.825729,121.602417,华东大区
广汽埃安宁波西部宏泰展示中心,浙江省宁波市鄞州区宁穿路1462号宏泰广场1楼051-054,ZJB3000-1,浙江省,330000,宁波市,330200,,,29.865217,121.619383,华东大区
广汽埃安宁波滨江体验中心,浙江省宁波市北仑区小港街道纬十路585号2幢1层2号,ZJB0500,浙江省,330000,宁波市,330200,0574-86868008,0574-86868618,29.911375,121.688204,华东大区
广汽埃安宁波滨江北仑银泰展示中心,宁波市北仑区中河路399号（北仑银泰）,ZJB0500-1,浙江省,330000,宁波市,330200,,,29.901815,121.838090,华南二区
广汽埃安宁波西部象山万达展示中心,宁波象山县丹南路与谷西路交叉口万达广场,ZJB3000-4,浙江省,330000,宁波市,330200,,,29.466383,121.887927,华东大区
广汽埃安温州苍南体验中心,浙江省苍南县灵溪镇苍南大道与通福路交叉路口（东南边）第一幢,ZJC0600,浙江省,330000,温州市,330300,0577-68729888,0577-68729555,27.541773,120.442880,华东大区
广汽埃安温州永嘉领悦展示中心,温州市永嘉县瓯北街道双塔路1699号领悦广场一层中庭1008店铺,ZJC0200-2,浙江省,330000,温州市,330300,15858505014,,28.045329,120.647460,华东大区
广汽埃安温州瓯海体验中心,浙江省温州市瓯海区娄桥街道永庆街瓯融·瓯海国际汽车城2号,ZJC0500,浙江省,330000,温州市,330300,0577-65511666,0577-65515666,27.967528,120.630847,华东大区
广汽埃安温州市中体验中心,浙江省温州市鹿城区温州大道2881号,ZJC0100,浙江省,330000,温州市,330300,0577-88251999,0577-89990588,27.987899,120.666890,华东大区
广汽埃安温州永嘉展示中心,温州市永嘉县黄田大道奥康集团正对面,ZJC0100-4,浙江省,330000,温州市,330300,0577-88908555,0577-89990588,28.072184,120.694477,华东大区
广汽埃安温州平阳万达展示中心,温州市平阳县万达广场,ZJC0200-1,浙江省,330000,温州市,330300,,,27.592745,120.579643,华东大区
广汽埃安温州凯能时代广场展示中心,温州市鹿城区车站大道288号（时代广场）,ZJC0100-3,浙江省,330000,温州市,330300,,,28.004128,120.690925,华东大区
广汽埃安温州市瑞安安阳体验中心,浙江省温州市瑞安市安阳街道祥瑞社区瑞温路506号B1区,ZJC0300,浙江省,330000,温州市,330300,0577-66618555,0577- 66610866,27.789574,120.672569,华东大区
广汽埃安温州龙湾体验中心,浙江省温州市龙湾区蒲州街道温州大道265号第三幢第一层1-4间,ZJC0200,浙江省,330000,温州市,330300,0577-86856688,0577-86356688,27.978797,120.747700,华东大区
广汽埃安温州瓯海龙湾万达展示中心,温州市龙湾区永定路1188号万达广场,ZJC0500-1,浙江省,330000,温州市,330300,,,27.926415,120.818112,华北二区
广汽埃安温州乐成体验中心,浙江省温州市乐清市城东街道坝头村宁康东路538-2号,ZJC0400,浙江省,330000,温州市,330300,0577-62268899,0577-62595967,28.127689,120.998619,华东大区
广汽埃安温州乐清江南里展示中心,浙江省温州市乐清市凌云路66号乐清江南里F1,ZJC0100-2,浙江省,330000,温州市,330300,,,28.107993,121.014880,华东大区
广汽埃安嘉兴庆南体验中心,浙江省嘉兴市桐乡市庆丰南路899号,ZJF0400,浙江省,330000,嘉兴市,330400,0573-88610030,0573-88610050,30.610253,120.558672,华东大区
广汽埃安嘉兴南湖海宁西田城展示中心,浙江省嘉兴市海宁市联合路97号（西田城）,ZJF3000-2,浙江省,330000,嘉兴市,330400,,,30.525553,120.689963,华东大区
广汽埃安嘉兴嘉杭体验中心,浙江省嘉兴市经济技术开发区城南南路西（浙江康桥康嘉汽车有限公司内维护中心一楼-3）,ZJF0200,浙江省,330000,嘉兴市,330400,0573-82795888,0573-82698685,30.729585,120.726341,华东大区
广汽埃安嘉兴南湖中环展示中心,嘉兴市中环南路999号汽车商贸园5号,ZJF3000-3,浙江省,330000,嘉兴市,330400,,,30.748884,120.737879,华东大区
广汽埃安嘉兴嘉杭星河展示中心,嘉兴市南湖区庄前路303号  嘉兴星河COCOCity,ZJF0200-1,浙江省,330000,嘉兴市,330400,,,30.724602,120.752934,华东大区
广汽埃安嘉兴南湖体验中心,浙江省嘉兴市南湖区东栅街道汽车商贸园沽翠路东侧、文贤路南侧1号展厅,ZJF3000,浙江省,330000,嘉兴市,330400,0573-82681116,0573-82681116,30.726071,120.773124,华东大区
广汽埃安平湖诚信海盐吾悦展示中心,嘉兴市海盐县枣园西路与大曲路交叉口（吾悦广场）,ZJF0300-1,浙江省,330000,嘉兴市,330400,,,30.532415,120.931061,华东大区
广汽埃安平湖长胜体验中心,浙江省嘉兴市平湖市当湖街道毓秀路371号,ZJF0300,浙江省,330000,嘉兴市,330400,15967308839,13757327985,30.681442,121.047203,华东大区
广汽埃安湖州长兴体验中心,浙江省湖州市长兴县李家巷镇章浜村,ZJE0100,浙江省,330000,湖州市,330500,18505728002,18505728003,30.983125,119.963641,华东大区
广汽埃安湖州菰城吾悦展示中心,浙江省湖州市太湖路与金田路交叉口吾悦广场1楼 1046号铺位,ZJE3000-1,浙江省,330000,湖州市,330500,0572-2102106,,30.916877,120.107542,华东大区
广汽埃安湖州吴兴体验中心,湖州市吴兴区江南车城A区3-5号,ZJE3000,浙江省,330000,湖州市,330500,0572-2228833,0572-2228833,30.587520,120.125480,华东大区
广汽埃安诸暨陶朱体验中心,浙江省诸暨市陶朱街道王家湖路38号西侧营业房1--4层,ZJD0100,浙江省,330000,绍兴市,330600,0575-88880505,0575-88880508,29.745161,120.199336,华东大区
广汽埃安诸暨陶朱高湖万达展示中心,绍兴市诸暨市浣东街道高湖东路69号（高湖万达）,ZJD0100-1,浙江省,330000,绍兴市,330600,,,29.723665,120.283404,华东大区
广汽埃安绍兴越城世贸展示中心,绍兴市越城区胜利东路360号世茂广场,ZJD0200-1,浙江省,330000,绍兴市,330600,0575-81108700,0575-81108700,30.009622,120.602264,华东大区
广汽埃安绍兴越城体验中心,浙江省绍兴市越城区康宁路102号,ZJD0200,浙江省,330000,绍兴市,330600,0575-88226668,0575-88226696,30.093253,120.612861,华东大区
广汽埃安绍兴上虞体验中心,浙江省绍兴市上虞区小越街道汽车市场轿车“4S”区块5号地块,ZJD0300,浙江省,330000,绍兴市,330600,82631616,82635656,30.064035,120.921010,华东大区
广汽埃安金华金东体验中心,浙江省金华市金东区赤松镇汽车城北三路（车管所对面）,ZJG0200,浙江省,330000,金华市,330700,0579-82081359,0579-82081286,29.150644,119.694466,华东大区
广汽埃安金华公路港体验中心,浙江省金华市金东区塘雅镇金义快速路5555号4号车间,ZJG0400,浙江省,330000,金华市,330700,0579-91727777,0579-82028777,29.194513,119.828827,华东大区
广汽埃安永康三匹马体验中心,浙江省金华市永康市西城街道九铃西路1013号西面展厅8-13间,ZJG0300,浙江省,330000,金华市,330700,0579-87096669,0579-87096667,28.914926,120.017336,华东大区
广汽埃安义乌五洲展示中心,浙江省义乌市经发大道218号（大德药厂里）,ZJG3000,浙江省,330000,金华市,330700,0579-85926668,0579-85266669,29.294188,120.066101,华东大区
广汽埃安东阳白芸体验中心,浙江省金华市东阳市白云街道望江社区望江北路199号8栋一楼,ZJG0100,浙江省,330000,金华市,330700,0579-86731868,0579-86731808,29.294676,120.228994,华东大区
广汽埃安衢州正鑫体验中心,浙江省衢州市浙西大道109号3区1幢1号,ZJH0100,浙江省,330000,衢州市,330800,0570-8056229,15057055666,28.936890,118.900341,华东大区
广汽埃安舟山群岛新区宝龙展示中心,浙江省舟山市定海区定沈路699号（舟山宝龙广场）,ZJL3000,浙江省,330000,舟山市,330900,0580-2922333,0580-2915566,29.998477,122.216145,华东大区
广汽埃安台州临海体验中心,浙江省台州市临海市江南街道靖江南路181号,ZJJ0300,浙江省,330000,台州市,331000,0576-85758088,0576-85759088,28.824539,121.157214,华东大区
广汽埃安台州黄岩体验中心,浙江省台州市黄岩区西城街道二环西路288号,ZJJ0400,浙江省,330000,台州市,331000,0576-84011888,0576-84681555,28.643225,121.255101,华东大区
广汽埃安台州温岭玉环吾悦展示中心,台州市玉环双港路8号吾悦广场,ZJJ0100-1,浙江省,330000,台州市,331000,,,28.120151,121.234864,华东大区
广汽埃安台州路桥体验中心,路桥区迎宾大道浙江方林汽车城B826,ZJJ0200,浙江省,330000,台州市,331000,0576-80235858,0576-82452988,28.560370,121.395474,华东大区
广汽埃安台州椒江东环体验中心,浙江省台州市椒江区洪家街道洪西路1号一期G幢8101,ZJJ0500,浙江省,330000,台州市,331000,0576-88785111,0576-88209666,28.621210,121.416700,华东大区
广汽埃安台州温岭体验中心,浙江省台州市温岭市城东街道曙光东路6号,ZJJ0100,浙江省,330000,台州市,331000,0576-86229588,0576-86625222,28.399637,121.384457,华东大区
广汽埃安丽水莲都体验中心,浙江省丽水市莲都区岩泉汽车市场4S区地块2#楼,ZJK0100,浙江省,330000,丽水市,331100,0578-2219898,0578-2219868,28.480186,119.963575,华东大区
广汽埃安合肥肥西旭辉广场展示中心,肥西县派河大道与翡翠路交口旭辉广场,AHA3000-2,安徽省,340000,合肥市,340100,0551-65232722,0551-65232722,31.742539,117.166627,华东大区
广汽埃安合肥经开区体验中心,安徽省合肥市经济技术开发区金寨路与紫云路交口东南角往南120米,AHA0300,安徽省,340000,合肥市,340100,0551-63438808,0551-63648808,31.751451,117.199510,华东大区
广汽埃安合肥经开政务银泰展示中心,合肥市蜀山区荷叶地街道绿怡居社区潜山路190号合肥银泰城,AHA0300-5,安徽省,340000,合肥市,340100,,,31.824118,117.239153,华东大区
广汽埃安合肥滨湖体验中心,安徽省合肥市经济技术开发区宿松路6938号5#设备生产车间,AHA0400,安徽省,340000,合肥市,340100,0551-68596677,0551-68595577,31.735939,117.273096,华东大区
广汽埃安合肥蜀山唯品会展示中心,合肥政务区金寨路811号安粮唯品会城市奥莱一楼,AHA3100-1,安徽省,340000,合肥市,340100,0551-62992262,15385182121,31.824018,117.259756,华东大区
广汽埃安合肥包河方圆荟展示中心,合肥市包河区滨湖新区徽州大道5558号方圆荟1楼,AHA3100-4,安徽省,340000,合肥市,340100,0551-63630288,0551-63630288,31.749306,117.294853,华东大区
广汽埃安合肥经开北城万达展示中心,合肥市长丰县阜阳北路与金峰路交叉口东北侧（北城万达）,AHA0300-3,安徽省,340000,合肥市,340100,,,31.975728,117.268350,华东大区
广汽埃安合肥庐阳体验中心,合肥市双凤经济技术开发区淮南路宝湾国际汽车城L7号店,AHA3100,安徽省,340000,合肥市,340100,0551-63630288,18156063056、18119601076,31.946428,117.302861,华东大区
广汽埃安合肥包河体验中心,合肥市包河区长春街与天津路交口,AHA3000,安徽省,340000,合肥市,340100,0551-65232722,0551-65232722,31.803485,117.356183,华东大区
广汽埃安合肥包河瑶海保利展示中心,合肥市瑶海区新安江路与郎溪路交口瑶海保利广场,AHA3000-3,安徽省,340000,合肥市,340100,,,31.860824,117.352933,华东大区
广汽埃安合肥经开瑶海万达展示中心,合肥市瑶海区临泉东路277号（瑶海万达）,AHA0300-1,安徽省,340000,合肥市,340100,,,31.881925,117.358038,华东大区
广汽埃安合肥龙湖展示中心,合肥市瑶海区王岗路与长江东路交叉口（龙湖天街）,AHA3100-2,安徽省,340000,合肥市,340100,0551-63630288,15385182121,31.873199,117.396849,华东大区
广汽埃安合肥经开肥东吾悦展示中心,中国安徽省合肥市肥东新城吾悦广场(长江东路南,AHA0300-4,安徽省,340000,合肥市,340100,,,31.878097,117.462623,华东大区
广汽埃安合肥经开巢湖万达展示中心,安徽省合肥市巢湖市东塘路93-27号（巢湖万达）,AHA0300-2,安徽省,340000,合肥市,340100,,,31.615163,117.889369,华东大区
广汽埃安芜湖鸠江展示中心,安徽省芜湖市鸠江区官陡街道南翔万商车都A座,AHB3000,安徽省,340000,芜湖市,340200,18297526325,18297526325,31.406138,118.385794,华东大区
广汽埃安芜湖鸠江正嘉广场展示中心,芜湖市鸠江区海晏路与政通路路口正嘉广场1F109,AHB3000-2,安徽省,340000,芜湖市,340200,,,31.357829,118.449235,华东大区
广汽埃安蚌埠皖北汽车城展示中心,安徽省蚌埠市迎宾大道国际汽车城1号,AHC3000,安徽省,340000,蚌埠市,340300,0552-3029055,0552-3010086,32.872570,117.322484,华东大区
广汽埃安蚌埠金鑫吾悦展示中心,蚌埠市蚌山区解放路680号（吾悦广场）,AHC3000-1,安徽省,340000,蚌埠市,340300,,,32.938691,117.396331,华东大区
广汽埃安淮南田家庵展示中心,安徽省淮南市田家庵区国庆中路68号万达广场1F-A,AHD3000,安徽省,340000,淮南市,340400,,,32.656884,117.038703,华东大区
广汽埃安马鞍山雨山体验中心,马鞍山市雨山区采石街道九华西路1369号,AHE0100,安徽省,340000,马鞍山市,340500,0555-8339666,0555-8331369,31.661271,118.485103,华东大区
广汽埃安淮北相山体验中心,安徽省淮北市相山区任圩街道瑞骑路17号,AHF0100,安徽省,340000,淮北市,340600,0561-3118888,0561-3023888,33.933155,116.804202,华东大区
广汽埃安淮北金象吾悦展示中心,淮北市杜集区龙山路（吾悦广场）,AHF0100-1,安徽省,340000,淮北市,340600,,,33.991781,116.841729,华东大区
广汽埃安铜陵铜官体验中心,安徽省铜陵市铜官区狮子山国际汽车城4S店集群8号,AHG0100,安徽省,340000,铜陵市,340700,0562-6861122,0562-6861115,30.940853,117.909655,华东大区
广汽埃安安庆大观体验中心,安徽省安庆市大观区集贤北路173号,AHH0200,安徽省,340000,安庆市,340800,0556-5307007,0556-5305060,30.548156,117.044393,华东大区
广汽埃安安庆北城体验中心,安徽省安庆市宜秀区石塘湖路10号英德利国际汽车城三期17栋,AHH0100,安徽省,340000,安庆市,340800,0556-5566333,0556-5919777,30.530960,117.063600,华东大区
广汽埃安黄山高新体验中心,安徽省黄山高新技术产业开发区梅林大道62-7号,AHJ0100,安徽省,340000,黄山市,341000,0559-2598999,0559-2539595,29.771485,118.259948,华东大区
广汽埃安阜阳吾悦展示中心,阜阳颍州区淮河路与阜南路交口吾悦广场一楼,AHK3100,安徽省,340000,阜阳市,341200,,,32.882570,115.790128,华东大区
广汽埃安阜阳开发区体验中心,安徽省阜阳市开发区腾飞路116号阜诚汽车销售有限公司展厅101室,AHK0100,安徽省,340000,阜阳市,341200,0558-7117111,0558-7127000,32.846287,115.870927,华东大区
广汽埃安宿州白马体验中心,宿州市埇桥区经济开发区西昌南路东侧(白马商城向南600米),AHL3000,安徽省,340000,宿州市,341300,,,33.599062,116.970804,华东大区
广汽埃安六安东三十铺万达展示中心,六安市金安区皋城路与八公山北路交汇处（万达广场）,AHN3000-1,安徽省,340000,六安市,341500,,,31.763255,116.503166,华东大区
广汽埃安六安长江路展示中心,六安市承接产业转移集中示范园区,AHN3000,安徽省,340000,六安市,341500,18154196861,0564-3615599,31.774854,116.620364,华东大区
广汽埃安亳州远景高新万达展示中心,亳州市谯城区杜仲路与希夷大道交叉口高新万达,AHS0100,安徽省,340000,亳州市,341600,,,33.835459,115.786047,华东大区
广汽埃安池州贵池体验中心,安徽省池州市贵池区汽车集聚园J地块,AHR0100,安徽省,340000,池州市,341700,18856688688,18856688788,30.626295,117.543975,华东大区
广汽埃安宣城宣州体验中心,安徽省宣城市飞彩办事处鸿越大道20号,AHP0100,安徽省,340000,宣城市,341800,0563-3037888,0563-3037333,30.937563,118.731963,华东大区
广汽埃安福州南台岛体验中心,福建省福州市仓山区建新镇金岩路广汽埃安福建南台岛体验中心（天翔体育文创园对面）,FJA0200,福建省,350000,福州市,350100,0591-83357799,0591-88397799,26.059617,119.253979,华东大区
广汽埃安福州南海高新万达展示中心,福州市高新区旗山大道万达广场,FJA0300-1,福建省,350000,福州市,350100,,,26.001944,119.233880,华东大区
广汽埃安福州晋安体验中心,福建省福州市晋安区新店镇审知路1-3号,FJA0500,福建省,350000,福州市,350100,0591-28060333,0591-28066555,26.146097,119.309043,华东大区
广汽埃安福州仓山爱琴海展示中心,福州市仓山区金山街道浦上大道198号（爱琴海）,FJA0100-5,福建省,350000,福州市,350100,,,26.046722,119.285900,华东大区
广汽埃安福州闽侯万象九宜城展示中心,福州市台江区二环中路691号万象九宜城,FJA0400-1,福建省,350000,福州市,350100,,,26.070796,119.297241,华东大区
广汽埃安福州奥体体验中心,福州市仓山区齐安路772号广汽埃安体验中心,FJA0300,福建省,350000,福州市,350100,0591-28367888,0591-28363999,26.003922,119.298557,华东大区
广汽埃安福州仓山世欧展示中心,福建省福州市晋安区长河路88号（世欧广场）,FJA0100-2,福建省,350000,福州市,350100,,,26.076815,119.333226,华东大区
广汽埃安福州台江万达展示中心,福州市台江区万达广场2号门（星巴克旁）福州市台江区万达广场2号门（星巴克旁）,FJA0200-1,福建省,350000,福州市,350100,18059708193,18059708193,26.054645,119.338147,华东大区
广汽埃安福州奥体宜家展示中心,福州市晋安区福马路788号宜家福州商场L1-035,FJA0300-2,福建省,350000,福州市,350100,,,26.071282,119.373150,华东大区
广汽埃安福州仓山体验中心,福州市仓山区高旺路6号,FJA0100,福建省,350000,福州市,350100,0591-83980266,0591-83503932,26.024954,119.353795,华东大区
广汽埃安福州福清体验中心,福州市福清市石竹街道清荣大道与福融路交叉口西150米（福清埃安体验中心）,FJA0600,福建省,350000,福州市,350100,0591-85367499,0591-85367499,25.724729,119.336495,华东大区
广汽埃安福州仓山连江万星展示中心,福建省福州市连江县丹凤路41号（万星广场）,FJA0100-4,福建省,350000,福州市,350100,,,26.217432,119.556711,华东大区
广汽埃安福州仓山福清万达展示中心,福建省福州市福和路9号（福清福和万达）,FJA0100-3,福建省,350000,福州市,350100,,,25.726912,119.358527,华东大区
广汽埃安福州闽侯体验中心,福建省福州市闽侯县尚干镇祥通路11-5号,FJA0400,福建省,350000,福州市,350100,59122252111,59122263688,40.479813,115.991051,华东大区
广汽埃安厦门集美体验中心,厦门市集美区后溪镇天水路503号106,FJD0500,福建省,350000,厦门市,350200,05923215588,05923215599,24.639230,118.066060,华东大区
广汽埃安厦门同安体验中心,厦门市同安区集安路695-3号,FJD0400,福建省,350000,厦门市,350200,0592-7893335,0592-7893337,24.708968,118.144890,华东大区
广汽埃安厦门高崎体验中心,中国（福建）自由贸易试验区厦门片区高崎北路436号金绿物流城1F-C区,FJD0300,福建省,350000,厦门市,350200,0592-5808966,0592-5800866,24.546840,118.115800,华东大区
广汽埃安厦门高奇罗宾森展示中心,厦门市思明区厦禾路899号（罗宾森广场）,FJD0300-1,福建省,350000,厦门市,350200,,,24.474916,118.119239,华东大区
广汽埃安厦门金湖路体验中心,厦门市湖里区金湖路11-13号,FJD0200,福建省,350000,厦门市,350200,0592-5865698,0592-5865695,24.514369,118.147829,华东大区
广汽埃安莆田荔城体验中心,福建省莆田市荔城区西天尾镇城涵西大道2188号,FJB0100,福建省,350000,莆田市,350300,,,25.478616,119.058680,华东大区
广汽埃安三明三元体验中心,三明市三元区新市北路乾龙新村231号8号1区展厅,FJG0100,福建省,350000,三明市,350400,0598-8211666,0598-8298777,26.280594,117.653855,华东大区
广汽埃安泉州南环路体验中心,福建省泉州市鲤城区常泰街道五星社区南环路924号旭辉创业园2号楼1楼,FJC0100,福建省,350000,泉州市,350500,0595-24660788,0595-24660788,24.913160,118.543589,华东大区
广汽埃安泉州经开体验中心,福建省泉州市鲤城区安泰路26号,FJC0200,福建省,350000,泉州市,350500,0595-22357766,0595-22357786,24.876192,118.551327,华东大区
广汽埃安泉州南安中骏世界城展示中心,福建省泉州市南安市美林江北大道40号中骏世界城一楼M135,FJC3100-1,福建省,350000,泉州市,350500,18659079556,0595-22459999,24.682754,118.441936,华东大区
广汽埃安泉州鲤城南安中骏世界展示中心,福建省泉州市南安市水头镇海一路1号中骏世界城M128,FJC0100-1,福建省,350000,泉州市,350500,,,24.682754,118.441936,华东大区
广汽埃安泉州晋江体验中心,福建省泉州市晋江市罗山街道缺塘社区和平南路171号,FJC3100,福建省,350000,泉州市,350500,18659079556,15985996422,24.784648,118.575521,华东大区
广汽埃安泉州石狮体验中心,福建省石狮市狮城大道582号,FJC0300,福建省,350000,泉州市,350500,0595-88882022,0595-88882023,24.747995,118.609070,华东大区
广汽埃安漳州龙文体验中心,福建省漳州市龙文区迎宾大道360号（吉马国际汽车城）A6-4-5号,FJE3000,福建省,350000,漳州市,350600,0596-2101777,0596-2104999,24.501514,117.744016,华东大区
广汽埃安漳州龙文台商万达展示中心,福建省漳州市龙海区角美镇锦江大道2号（台商万达）,FJE3000-1,福建省,350000,漳州市,350600,0596-2101777,0596-2104999,24.508335,117.896584,华东大区
广汽埃安南平建瓯体验中心,福建省建瓯市东安路2-13、2-14号,FJH0100,福建省,350000,南平市,350700,0599-3863999,0599-3863399,27.054882,118.366300,华东大区
广汽埃安龙岩新罗展示中心,龙岩市新罗区龙门镇物流大道210号,FJF3000,福建省,350000,龙岩市,350800,0597-2362666,0597-2361666,25.101608,116.954640,华东大区
广汽埃安宁德蕉城体验中心,福建省宁德市蕉城区金涵畲族乡国道路101号茶厂21幢101室-1号,FJJ0100,福建省,350000,宁德市,350900,0593-2339001,0593-2339002,26.694163,119.527838,华东大区
广汽埃安南昌西湖万达展示中心,南昌市西湖区云锦路西湖万达广场,JXA0300-1,江西省,360000,南昌市,360100,13879111270,,28.638693,115.865584,华南二区
广汽埃安南昌城东王府井展示中心,南昌市青云谱区洪城路188号（王府井）,JXA0400-1,江西省,360000,南昌市,360100,,,28.660733,115.911673,中西大区
广汽埃安南昌高开体验中心,江西省南昌市青山湖区高新大道688号罗万工业园3号厂房,JXA0300,江西省,360000,南昌市,360100,19307009722,0791-86317060,28.700257,115.965524,华东大区
广汽埃安南昌青山湖万达展示中心,江西省南昌市青山湖区京东南大道1666号（青山湖万达广场）,JXA0200-1,江西省,360000,南昌市,360100,18797917225,18797917225,28.648857,115.968717,华南二区
广汽埃安南昌城东体验中心,江西省南昌市青山湖区京东大道366号,JXA0400,江西省,360000,南昌市,360100,0791-88575050,0791-88307199,28.701404,115.979196,华南二区
广汽埃安南昌城南体验中心,南昌市青山湖区高新南大道4288号,JXA0200,江西省,360000,南昌市,360100,0791-88387668,0791-88399668,28.603445,115.964157,华南二区
广汽埃安九江九瑞体验中心,江西省九江市柴桑区港口镇304省道汽车大市场A1号,JXG0200,江西省,360000,九江市,360400,0792-8609888,0792-8609666,29.726780,115.799710,华南二区
广汽埃安赣州南康展示中心,赣州市南康区龙岭镇赣南汽车城B-33地块,JXB3000,江西省,360000,赣州市,360700,0797-6669789,0797-6659789,25.740030,114.827226,华南二区
广汽埃安赣州章贡体验中心,赣州市章贡区沙石镇吉埠村奥特莱斯对面广汽埃安4S店,JXB0100,江西省,360000,赣州市,360700,0797-8166033,0797-5553618,25.814910,114.963945,华南二区
广汽埃安赣州经开体验中心,江西省赣州市经济技术开发区迎宾大道22号广汽埃安经开店,JXB0200,江西省,360000,赣州市,360700,0797-8258588,0797-8389599,25.415633,114.925079,华南二区
广汽埃安吉安吉州体验中心,江西省吉安市吉州区钓源大道2号凯旋国际商业城1号楼06、2号楼02,JXD0100,江西省,360000,吉安市,360800,07968300186,07968300186,27.118747,114.910194,中西大区
广汽埃安吉安青原体验中心,江西省吉安市青原区汽车产业园1号地块内,JXD0200,江西省,360000,吉安市,360800,0796-8117568,0796-8103906,27.135517,115.049116,中西大区
广汽埃安宜春润达广场展示中心,江西省宜春市袁州区宜春南路136号润达国际9栋,JXC3000,江西省,360000,宜春市,360900,0795-3588566,0795-3583566,27.801315,114.384160,华南二区
广汽埃安上饶广信体验中心,江西省上饶市广信区三清山西大道58号月亮湾汽车城,JXE0100,江西省,360000,上饶市,361100,0793-6162555,0793-6162777,28.462135,117.908186,华南二区
广汽埃安上饶广信吾悦展示中心,上饶市广信区凤凰西大道与旭日南大道交汇处(吾悦广场),JXE0100-1,江西省,360000,上饶市,361100,,,28.441516,117.915587,华南二区
广汽埃安上饶信州体验中心,江西省上饶市信州区上饶大道18号赣东北汽车园地块17号楼房(面向上饶大道一侧),JXE0200,江西省,360000,上饶市,361100,0793-6098888,0793-6160777,28.410287,117.960670,中西大区
广汽埃安济南槐荫经十路体验中心,山东省济南市槐荫区经十西路3566号院内3号,SDA0400,山东省,370000,济南市,370100,0531-87115858,0531-87195858,36.647339,116.855092,华北一区
广汽埃安济南明星体验中心,山东省济南市槐荫区经十路28438号,SDA0300,山东省,370000,济南市,370100,0531-87561188,0531-87568811,36.656777,116.923455,华北一区
广汽埃安济南槐荫弘阳广场展示中心,济南市槐荫区兴福寺路海亮艺术华府-西区西侧约110米,SDA0400-2,山东省,370000,济南市,370100,,,36.680096,116.919236,华北二区
广汽埃安济南西部体验中心,济南市槐荫区匡山汽车大世界东区东临41号,SDA0200,山东省,370000,济南市,370100,0531-87299777,0531-87512666,36.696483,116.941011,华北一区
广汽埃安济南历城体验中心,山东省济南市历城区北园大街43号,SDA0500,山东省,370000,济南市,370100,0531-88678989/88678979,0531-88678975,36.704702,117.063806,华北一区
广汽埃安济南槐荫万虹展示中心,山东省济南市历城区工业北路60号（万虹广场）,SDA0400-1,山东省,370000,济南市,370100,15315562421,,36.719492,117.126755,华北一区
广汽埃安济南莱芜高新体验中心,山东省济南市莱芜高新区汇源东大街68号,SDA0600,山东省,370000,济南市,370100,0531-76160007,0531-78516000,36.202421,117.735871,华北一区
广汽埃安济南章丘明星体验中心,山东省济南市章丘区双山街道世纪大道1617号-1号,SDA0700,山东省,370000,济南市,370100,0531-80957000,0531-80950909,36.699840,117.502286,华北二区
广汽埃安青岛西海岸体验中心,山东省青岛市黄岛区海西中路105号,SDB0200,山东省,370000,青岛市,370200,0532-88159888,0532-88159000,35.880511,119.957474,华北二区
广汽埃安青岛黄岛体验中心,山东省青岛市西海岸新区江山中路181号北区,SDB0500,山东省,370000,青岛市,370200,0532-86768688,0532-68057866,36.014029,120.167340,华北一区
广汽埃安青岛即墨胶州展示中心,青岛市胶州市兰州东路523号,SDB0700-3,山东省,370000,青岛市,370200,0532-83279111,0532-83299111,36.292155,120.058061,华北一区
广汽埃安青岛平度体验中心,山东省青岛市平度市李园街道办事处柳州路301号,SDB0400,山东省,370000,青岛市,370200,0532-88376178,0532-88376179,36.781592,119.921319,华北一区
广汽埃安青岛市北CBD万达展示中心,青岛市市北区敦化路街道延吉路116号（CBD万达）,SDB0200-1,山东省,370000,青岛市,370200,,,36.101212,120.389922,华北一区
广汽埃安青岛市北体验中心,山东省青岛市市北区长沙路49号,SDB0100,山东省,370000,青岛市,370200,0532-58582277,0532-58582266,36.137440,120.394051,华北一区
广汽埃安青岛北金茂览秀城商超展示中心,山东省青岛市城阳区宝源路1号（金茂览秀城),SDB0100-3,山东省,370000,青岛市,370200,,,36.269828,120.317747,华北二区
广汽埃安青岛崂山体验中心,青岛市崂山区海尔路20号,SDB0300,山东省,370000,青岛市,370200,,,36.139674,120.436735,华北一区
广汽埃安青岛李沧体验中心,山东省青岛市李沧区重庆中路650号,SDB0600,山东省,370000,青岛市,370200,0532-68983111,0532-87638555,36.189516,120.409919,华北一区
广汽埃安青岛即墨城阳展示中心,山东省青岛市城阳区黑龙江中路399号,SDB0700-2,山东省,370000,青岛市,370200,,,36.268243,120.425890,华北一区
广汽埃安青岛城阳青特万达展示中心,青岛市城阳区正阳中路117号1F-1008,SDB0100-2,山东省,370000,青岛市,370200,0532-58582277,0532-58582277,36.311831,120.429843,华北一区
广汽埃安青岛鼎圣永泰体验中心,青岛市即墨市烟青路（墨城路）212号,SDB3000,山东省,370000,青岛市,370200,,,36.348648,120.441228,华北一区
广汽埃安青岛即墨体验中心,山东省青岛市即墨区环秀街道烟青路小韩村212号,SDB0700,山东省,370000,青岛市,370200,0532-87202567,0532-87203567,36.368066,120.457337,华北一区
广汽埃安淄博经开区荣盛广场展示中心,山东省淄博市张店区华光路288号荣盛广场,SDC3000-1,山东省,370000,淄博市,370300,,,36.830512,118.007936,华北一区
广汽埃安淄博市张店展示中心,山东省淄博市张店区山泉路61号,SDC3000,山东省,370000,淄博市,370300,0533-2713120,0533-2716153,36.784551,118.049392,华北大区
广汽埃安淄博高新万达展示中心,淄博市张店区中润大道17号（淄博万达）,SDC0100-1,山东省,370000,淄博市,370300,,,36.844798,118.018109,华北一区
广汽埃安淄博张店体验中心,山东省淄博市张店区金晶大道261号,SDC0200,山东省,370000,淄博市,370300,0533-3588999,0533-3588969,36.835960,118.074291,华北一区
广汽埃安淄博高新体验中心,山东省淄博市桓台县柳泉北路1877号天齐汽车博览园1号院内1-1展厅,SDC0100,山东省,370000,淄博市,370300,0533-6277666,0533-7965666,36.910646,118.074887,华北一区
广汽埃安滕州龙泉路体验中心,山东省枣庄市滕州市善南街道龙泉南路机动车检测中心南668米东侧,SDD0100,山东省,370000,枣庄市,370400,0632—5536888,15553720007,35.048532,117.204391,华北一区
广汽埃安枣庄星汇展示中心,山东省枣庄高新区张范街道北于红绿灯300米路北        ,SDD3000,山东省,370000,枣庄市,370400,13062002062,0632-7137888,34.837229,117.477357,华北一区
广汽埃安东营东城展示中心,山东省东营市垦利区郝家镇北二路1号,SDE3000,山东省,370000,东营市,370500,0546-7666667,0546-8280000,37.480000,118.420000,华北大区
广汽埃安东营东城万达展示中心,山东省东营市东营区莒州路29号东城万达1063号,SDE3000-2,山东省,370000,东营市,370500,0546-7666667,13793970133,37.450127,118.699845,华北一区
广汽埃安烟台东陌堂体验中心,山东省烟台市福山区机场路597号,SDF0100,山东省,370000,烟台市,370600,0535-6681333,0535-6103333,37.421307,121.362155,华北一区
广汽埃安烟台幸福体验中心,山东省烟台市芝罘区幸福南路8号,SDF0200,山东省,370000,烟台市,370600,0535-2922588,0535-2922599,37.566586,121.337830,华北一区
广汽埃安寿光文家体验中心,寿光市文家街道文家庄村南（风神集团鼎泰汽车园内）,SDG0500,山东省,370000,潍坊市,370700,0536-2236777,0536-2233111,36.532281,118.413505,华北一区
广汽埃安青州益都泰华展示中心,潍坊市青州市昭德南路3088号青州泰华城,SDG3000-1,山东省,370000,潍坊市,370700,,,36.690233,118.520959,华北一区
广汽埃安青州益都体验中心,山东省潍坊市青州市经济开发区玲珑山北路2869号,SDG3000,山东省,370000,潍坊市,370700,15662572689,15662572689,36.741514,118.489656,华北一区
广汽埃安潍坊潍城体验中心,山东省潍坊市潍城区经济开发区北宫西街与殷大路交汇南100米路西,SDG0300,山东省,370000,潍坊市,370700,0536-8660668,0536-8660669,36.723450,118.993044,华北一区
广汽埃安潍坊奎文体验中心,潍坊市潍州路399号,SDG0200,山东省,370000,潍坊市,370700,0536-8828578,0536-2081996,36.660748,119.136306,华北大区
广汽埃安潍坊潍城展示中心,潍坊市奎文区东风东街泰华假日广场,SDG0300-1,山东省,370000,潍坊市,370700,,,36.710677,119.105495,华北一区
广汽埃安潍坊寒亭体验中心,潍坊市寒亭区潍县北路与通亭街交叉口东南角1号楼101室,SDG0400,山东省,370000,潍坊市,370700,0536-7360666,0536-7360789,36.763397,119.192793,华北一区
广汽埃安济宁美恒体验中心,山东省济宁市任城区美恒汽车博览城内广汽埃安展示中心,SDH0200,山东省,370000,济宁市,370800,,,35.369531,116.527763,华北一区
广汽埃安济宁金宇展示中心,山东省济宁市任城区105国道路西金宇汽配城,SDH3000,山东省,370000,济宁市,370800,0537-2065777,0537-2192777,35.455088,116.550973,华北大区
广汽埃安济宁高新体验中心,山东省济宁市高新区柳行街道东外环路东、崇文大道南东艺工业园内东1号厂区,SDH0100,山东省,370000,济宁市,370800,,,35.426846,116.673796,华北一区
广汽埃安泰安岱岳体验中心,山东省泰安市岱岳区天平街道泰山国际汽车城211号,SDJ0100,山东省,370000,泰安市,370900,0538-8572888,0538-8572688,36.159088,117.039841,华东大区
广汽埃安泰安高新体验中心,泰安高新区龙潭路交运汽车园内,SDJ0200,山东省,370000,泰安市,370900,0538-5030111,0538-5032111,36.146275,117.121992,华北二区
广汽埃安威海环翠体验中心,威海市温泉镇金蚂蚁汽车广场33号,SDK3000,山东省,370000,威海市,371000,0631-5907000,0631-5916333,37.367246,122.138045,华北一区
广汽埃安威海环翠珠海路展示中心,山东省威海市环翠区珠海路665-1号,SDK3000-2,山东省,370000,威海市,371000,,,37.411239,122.150012,华北一区
广汽埃安威海环翠威高展示中心,威海市环翠区新威路17号（威高广场）,SDK3000-3,山东省,370000,威海市,371000,,,37.504678,122.122458,华北一区
广汽埃安日照经开体验中心,山东省日照市经济开发区和阳南路与大连路交汇处路西10米,SDL0100,山东省,370000,日照市,371100,0633-8870088,0633-8680088,35.378753,119.431167,华北一区
广汽埃安临沂罗庄体验中心,山东省临沂市罗庄区盛庄街道沂河路与湖东路交汇处华东二手车市场院内,SDQ0200,山东省,370000,临沂市,371300,0539-8262118,0539-8262119,35.026920,118.298363,华北一区
广汽埃安临沂兰山体验中心,山东省临沂市兰山区双岭路与西中环路交汇南800米路东远东新能源汽车市场,SDQ0400,山东省,370000,临沂市,371300,0539-2522566,0539-2522199,35.119766,118.252108,华北一区
广汽埃安临沂河东兰山展示中心,临沂市兰山区陶然路与商城路交汇西100米路南,SDQ0300-1,山东省,370000,临沂市,371300,,,35.037520,118.318160,华北一区
广汽埃安临沂鲁南汽车城展示中心,临沂市兰山区聚才路与蒙山大道交汇处北30米路西鲁南汽车城40号展厅,SDQ3000-4,山东省,370000,临沂市,371300,15854960057,0539-2059555,35.098834,118.313949,华北一区
广汽埃安临沂沂河路体验中心,临沂市罗庄区沂河路与沂州路交汇处向西200米路南（麦德龙超市西南）,SDQ3000,山东省,370000,临沂市,371300,0539-8966555,0539-2059555,35.022043,118.359139,华北一区
广汽埃安临沂滨河万达展示中心,山东省临沂市兰山区蒙山大道与滨河路交叉口西南滨河万达1009号,SDQ3000-2,山东省,370000,临沂市,371300,15192868507,0539-2059555,35.117608,118.317519,华北一区
广汽埃安临沂上海路万达展示中心,临沂市兰山区上海路与孝河路交汇处万达广场,SDQ3000-1,山东省,370000,临沂市,371300,15725970018,0539-2059555,35.111872,118.360637,华北一区
广汽埃安临沂河东体验中心,山东省临沂市河东区九曲街道温泉路与北京路交汇西北侧写字楼一楼,SDQ0300,山东省,370000,临沂市,371300,0539-6587777,0539-6587777,35.101320,118.433860,华北一区
广汽埃安德州长河体验中心,山东省德州市经济开发区长河街道办事处新河东路1366号,SDN0200,山东省,370000,德州市,371400,0534-2376999,0534-2566066,37.454593,116.369658,华北二区
广汽埃安德州城区体验中心,德州市经济开发区晶华大道,SDN0100,山东省,370000,德州市,371400,0534-7058016,0534-7058017,37.453357,116.385237,华北大区
广汽埃安聊城东昌府体验中心,聊城市光岳南路116号金羊汽车城院内1排5号楼,SDP0300,山东省,370000,聊城市,371500,0635-8535777,0635-8536700,36.424690,116.015249,华北一区
广汽埃安聊城经开体验中心,山东省聊城市光岳路江北汽车城院内,SDP0100,山东省,370000,聊城市,371500,0635-2920635,0635-2920635,36.486360,116.038719,华北一区
广汽埃安聊城东昌路体验中心,山东省聊城市开发区东城街道办事处东昌路北泰山路西（万达汽车园内2号）,SDP0200,山东省,370000,聊城市,371500,0635-2116118,0635-2119776,36.464655,116.075143,华北一区
广汽埃安滨州西区体验中心,山东省滨州市滨城区长江一路渤海24路路西,SDM0200,山东省,370000,滨州市,371600,0543-2212333,0543-2191033,37.369866,117.930049,华北一区
广汽埃安滨州滨城体验中心,山东省滨州市滨城区渤海五路1111号铂焱汽车城沿街商铺3号,SDM0100,山东省,370000,滨州市,371600,0543-3017888,0543-3017999,37.451325,118.005363,华北一区
广汽埃安菏泽黄河东路体验中心,山东省菏泽市黄河东路588号,SDR0100,山东省,370000,菏泽市,371700,0530-2073888,0530-2073999,35.155900,115.334000,华北大区
广汽埃安菏泽高新体验中心,山东省菏泽市高新区万福街道办事处昆明路2999号中汇国际汽车园内,SDR0200,山东省,370000,菏泽市,371700,0530-5536111,0530-5162111,35.286232,115.428741,华北一区
广汽埃安菏泽定陶体验中心,山东省菏泽市定陶区杜堂镇范阳路汽车小镇内车管所南侧东数第四间,SDR0300,山东省,370000,菏泽市,371700,0530-6273399,0530-6272299,35.117281,115.594772,华北一区
广汽埃安菏泽高新银座展示中心,菏泽市长城路与人民路交汇处东北角（银座和谐广场）,SDR0200-1,山东省,370000,菏泽市,371700,,,35.279703,115.507232,华北一区
广汽埃安郑州航海新密中强光年展示中心,郑州市新密市西大街新密市城区（中强光年城市广场）,HAA0200-3,河南省,410000,郑州市,410100,,,34.542546,113.367674,中西大区
广汽埃安郑州中原荥阳吾悦展示中心,郑州市荥阳市郑上路与荥泽大道交汇处西北侧（荥阳吾悦）,HAA0700-2,河南省,410000,郑州市,410100,,,34.790913,113.431651,中西大区
广汽埃安郑州城西体验中心,郑州市中原区中原西环与西四环交汇处河南大中原国际汽车城C区16号,HAA0400,河南省,410000,郑州市,410100,0371-60655300,0371-65699911,34.759028,113.497609,中西大区
广汽埃安郑州高新郑大展示中心,郑州市高新区科学大道红叶路东南角万科广场1F30,HAA0200-2,河南省,410000,郑州市,410100,53362578,53362690,34.813301,113.531465,中西大区
广汽埃安郑州中原体验中心,郑州市中原区中原西路125号,HAA0700,河南省,410000,郑州市,410100,0371-65778666,0371-66682999,34.753475,113.595650,中西大区
广汽埃安郑州二七体验中心,河南省郑州市二七区航海中路与淮南街交汇处向西50米,HAA0120,河南省,410000,郑州市,410100,0371-66785888,0371-66895999,34.726296,113.639615,中西大区
广汽埃安郑州中原区朗悦新悦荟展示中心,郑州市中原区长椿路与红桦街交叉口购物中心一楼,HAA0600-1,河南省,410000,郑州市,410100,,,34.836188,113.542957,中西大区
广汽埃安郑州铭达锦艺城王府井展示中心,郑州市中原区桐柏路与棉纺路交叉口（锦艺城王府井）,HAA0400-1,河南省,410000,郑州市,410100,,,34.768523,113.634848,中西大区
广汽埃安郑州管城体验中心,郑州市管城区十八里河镇大王庄村文治路与鼎尚街交叉口西南角,HAA0600,河南省,410000,郑州市,410100,15890057576,15093257500,34.696414,113.729119,中西大区
广汽埃安郑州中原大融城展示中心,郑州市管城回族区人民路与东太康路交汇处(city大融城),HAA0700-1,河南省,410000,郑州市,410100,0371-86587666,,34.759757,113.677867,中西大区
广汽埃安郑州瀚海海尚展示中心,郑州市金水区丰庆路与东风路交汇处瀚海海尚购物中心一楼入口处,HAA0600-2,河南省,410000,郑州市,410100,,,34.807240,113.652736,中西大区
广汽埃安郑州国基路展示中心,郑州市金水区国基路与丰庆路交叉口西南角YOYOPARK商超一层,HAA0500-1,河南省,410000,郑州市,410100,0371-55008266,0371-55008266,34.819393,113.647858,中西大区
广汽埃安郑州福塔体验中心,郑州市中州大道与经北六路向东600米（中福汽车旁）,HAA0200,河南省,410000,郑州市,410100,0371-53666986,0371-53666986,34.732350,113.735306,中西大区
广汽埃安郑州北环体验中心,河南省郑州市金水区东风路街道园田路19号江山商务广场1层6号、2层6号,HAA0110,河南省,410000,郑州市,410100,0371-67633555,0371-53362690,34.815946,113.657911,中西大区
广汽埃安郑州大玉米展示中心,郑州市商务外环路与通泰路向东交叉口永威木色购物公园一楼,HAA0200-1,河南省,410000,郑州市,410100,53362579,53362690,34.773339,113.737803,中西大区
广汽埃安郑州金水体验中心,郑州市金水区晨旭路68号中州车汇广场2号馆,HAA0900,河南省,410000,郑州市,410100,0371-65325500,0371-65325511,34.806008,113.707193,中西大区
广汽埃安郑州城东体验中心,河南自贸试验区郑州片区（郑东）商都路南、博学路西郑州威佳汽车园A区02号,HAA0800,河南省,410000,郑州市,410100,0371-55520588,0371-55520599,34.738875,113.790463,中西大区
广汽埃安郑州省汽贸体验中心,郑州市花园北路开元路河南汽车贸易中心院内（省汽贸）,HAA0500,河南省,410000,郑州市,410100,0371-55008266,0371-55036665,34.865700,113.674500,中西大区
广汽埃安开封集英街展示中心,开封市龙亭区魏都路与集英街交叉口路南,HAB3000,河南省,410000,开封市,410200,18837826788,0371-22733999,34.821949,114.300505,中西大区
广汽埃安洛阳杜预街展示中心,洛阳市牡丹大道与杜预街交叉口西200米新能源汽车城,HAC3000,河南省,410000,洛阳市,410300,0379-65281566,0379-80881337,34.568725,112.390377,中西大区
广汽埃安洛阳洛龙科技园展示中心,洛阳市洛龙区科技园园西大道洛阳众德慧汽车市场开发有限公司院内办公楼A（1-3）层,HAC3200,河南省,410000,洛阳市,410300,0379-69937999,0379-69938999,34.577242,112.388632,中西大区
广汽埃安洛阳洛泷中弘范特展示中心,洛阳市涧西区武汉路与乐业路交叉路口东南侧（中弘范特区购物中心）,HAC3000-1,河南省,410000,洛阳市,410300,,,34.668671,112.371611,中西大区
广汽埃安洛阳南昌路王府井展示中心,河南省洛阳市涧西区南昌路王府井购物中心一层东门,HAC3200-1,河南省,410000,洛阳市,410300,0379-69937999,0379-69938999,34.650278,112.415648,中西大区
广汽埃安洛阳廛河展示中心,洛阳市瀍河回族区九都东路名车苑汽车广场13号,HAC3100,河南省,410000,洛阳市,410300,13837997265,15837976286,34.688404,112.514586,中西大区
广汽埃安平顶山高新体验中心,河南省平顶山市高新区许南路与建设路交叉口西50米路北,HAD0200,河南省,410000,平顶山市,410400,（0375）2181666,（0375）3682666,33.775875,113.212736,中西大区
广汽埃安平顶山南环体验中心,河南省平顶山市叶县洪庄杨镇张集村建设路东段高速收费站西2公里路南,HAD0100,河南省,410000,平顶山市,410400,18037383029,17335208778,33.726231,113.493438,中西大区
广汽埃安安阳泰祥路万达展示中心,安阳市文峰区中华路与文明大道交会处南100路东（万达广场2号门）,HAE0100-3,河南省,410000,安阳市,410500,,,36.086076,114.386289,中西大区
广汽埃安安阳泰祥路豫北展示中心,安阳市弦歌大道与光明路交叉口豫北汽车市场,HAE0100-2,河南省,410000,安阳市,410500,,,36.058727,114.418340,中西大区
广汽埃安安阳泰祥路体验中心,安阳市殷都区邺城大道与泰祥路交叉口北50路西,HAE0100,河南省,410000,安阳市,410500,0372-3785678,0372-3781111						,36.155539,114.327100,中西大区
广汽埃安新乡南环展示中心,河南省新乡市新飞大道与南环路交叉口西北角南一排一号,HAG3000,河南省,410000,新乡市,410700,03732021666,03732021999,35.259421,113.898591,中西大区
广汽埃安新乡金穗体验中心,河南省新乡市红旗区金穗大道与新东大道交叉口向东200路南,HAG0200,河南省,410000,新乡市,410700,03735213888,03735918886,35.277346,113.987106,中西大区
广汽埃安长垣山海体验中心,河南省新乡市长垣市南蒲金色阳光汽车城内12号,HAG0100,河南省,410000,新乡市,410700,0373-8170666,0373-8170777,35.182054,114.693051,中西大区
广汽埃安焦作示范区体验中心,河南省焦作市城乡一体化示范区迎宾路南富源汽车城内,HAH0100,河南省,410000,焦作市,410800,0391-3558222,0391-3556222,35.161520,113.270310,中西大区
广汽埃安焦作宏达体验中心,河南省焦作市示范区迎宾路555号宏达名车城,HAH0200,河南省,410000,焦作市,410800,0391-3388555,0391-8821266,35.204120,113.258983,中西大区
广汽埃安濮阳西环体验中心,河南省濮阳市中原路与濮水路交叉口南200米路东,HAJ0100,河南省,410000,濮阳市,410900,0393-7682888,0393-7683888,35.784322,114.984237,中西大区
广汽埃安濮阳东环恒丰展示中心,濮阳市华龙区任丘路（恒丰购物公园）,HAJ3100-1,河南省,410000,濮阳市,410900,,,35.782446,115.068314,中西大区
广汽埃安濮阳市龙都瑞璞汽车小镇展示中心,河南省濮阳市濮阳县清河头乡龙都瑞璞汽车小镇3号展厅,HAJ3100,河南省,410000,濮阳市,410900,0393-6902888,0393-6903888,35.761446,115.122414,中西大区
广汽埃安许昌魏都区体验中心,许昌市魏都区延安路与陈庄街交叉口向西200米路南,HAK0100,河南省,410000,许昌市,411000,0374-8560777,0374-8560777,34.059598,113.800131,中西大区
广汽埃安漯河源汇体验中心,河南省漯河市源汇区漯舞路与107国道交叉口西600米路北,HAL3100,河南省,410000,漯河市,411100,03955890588,03955890599,33.556293,114.000131,中西大区
广汽埃安漯河汽贸物流城展示中心,漯河市源汇区湘江路西段众汇汽车广场,HAL3000,河南省,410000,漯河市,411100,,,33.566498,114.037832,中西大区
广汽埃安南阳卧龙体验中心,河南省南阳市卧龙区靳岗街道信臣西路西兰营社区兰营桥向西500米靳岗法院西隔壁,HAR0100,河南省,410000,南阳市,411300,63521118,63521119,33.039937,112.501241,中西大区
广汽埃安南阳信臣体验中心,河南省南阳市卧龙区七里园乡信臣路与南都路交叉口东北角46号,HAR0200,河南省,410000,南阳市,411300,0377-66027888,0377-60920110,33.035936,112.557361,中西大区
广汽埃安商丘中原车城展示中心,河南省商丘市梁园区金桥路与新兴路交叉口东188米路南,HAN3000,河南省,410000,商丘市,411400,0370-2896999,0370-2375556,34.453114,115.603685,中西大区
广汽埃安商丘梁园区帝壹茂展示中心,商丘市宜兴西路与神火大道交叉口往西100米路南,HAN3000-1,河南省,410000,商丘市,411400,,,34.439538,115.661582,中西大区
广汽埃安商丘港汇体验中心,河南省商丘市梁园区陇海路与凯旋路交叉口港汇万达1066号,HAN0100,河南省,410000,商丘市,411400,0370-3163999,0370-3555616,34.453346,115.652303,中西大区
广汽埃安信阳南京路展示中心,河南省信阳市平桥区南京大道东段大柏树东200米路南,HAS3000,河南省,410000,信阳市,411500,0376-386888,0376-3889922,32.130690,114.161940,中西大区
广汽埃安周口川汇区展示中心,河南省周口市川汇区太清路与昆仑路交叉口东300米路南宏源精品汽车城院内,HAP3100,河南省,410000,周口市,411600,0394-8172222,19913300007,33.655608,114.682645,中西大区
广汽埃安驻马店金山园体验中心,河南省驻马店市文明大道与古吕路交叉口东北角999号,HAQ0100,河南省,410000,驻马店市,411700,0396-2867666,0396-2867999,33.066060,114.016654,中西大区
广汽埃安驻马店开源展示中心,河南省驻马店市驿城区开源大道与兴业大道交叉口金龙科技园内第一排,HAQ3100,河南省,410000,驻马店市,411700,0396-2992688,0396-2992688,33.018349,114.075076,中西大区
广汽埃安武汉后湖经开万达展示中心,武汉市经济技术开发区东风大道111号 经开万达广场1号门1039号展厅,HBA0600-1,湖北省,420000,武汉市,420100,,,30.511644,114.179601,中西大区
广汽埃安武汉江岸黄金口展示中心,武汉市汉阳区黄金口都市工业园（平塘路）永安堂172号3栋D2区1-2-1号,HBA0300-1,湖北省,420000,武汉市,420100,,,30.567880,114.175020,中西大区
广汽埃安武汉关南荟聚展示中心,武汉市硚口区长宜路1号武汉荟聚中心,HBA0500-3,湖北省,420000,武汉市,420100,,,30.623928,114.173828,中西大区
广汽埃安武汉汉阳体验中心,武汉市汉阳区隆祥街18号贤良大厦一楼,HBA3000,湖北省,420000,武汉市,420100,,,30.554480,114.204429,中西大区
广汽埃安武汉洪山体验中心,武汉市洪山区红霞村东瑞华中汽车城B4号,HBA0400,湖北省,420000,武汉市,420100,027-50760886,13098871891,30.431313,114.264362,中西大区
广汽埃安武汉江腾广场展示中心,湖北省武汉市汉阳区马鹦路江腾广场A座1楼,HBA0400-1,湖北省,420000,武汉市,420100,18771999108,,30.543761,114.261718,中西大区
广汽埃安武汉菱角湖万达展示中心,湖北省武汉市江汉区唐家墩5号菱角湖万达广场2号门A059号,HBA3000-2,湖北省,420000,武汉市,420100,,,30.616323,114.276636,中西大区
广汽埃安武汉江岸体验中心,武汉市江岸区经济开发区黄浦科技园,HBA0300,湖北省,420000,武汉市,420100,,,30.631140,114.282450,中西大区
广汽埃安武汉关南M+购物中心展示中心,武汉市江汉区江汉路187号 M+购物中心,HBA0500-2,湖北省,420000,武汉市,420100,,,30.589253,114.292892,中西大区
广汽埃安武汉盘龙城万达展示中心,武汉市盘龙城经济开发区万达广场2号门1楼 1016号,HBA0300-2,湖北省,420000,武汉市,420100,,,30.694480,114.305020,中西大区
广汽埃安武汉后湖体验中心,武汉市江岸区丹水池街道解放大道2731号,HBA0600,湖北省,420000,武汉市,420100,027-82907088,027-82923787,30.660424,114.339505,中西大区
广汽埃安武汉光谷体验中心,武汉市江夏区东湖新技术开发区大学园路38号,HBA0200,湖北省,420000,武汉市,420100,027-81389088,027-86696488,30.446043,114.391706,中西大区
广汽埃安武汉关南光谷天地展示中心,武汉市东湖高新技术开发区关山大道519号光谷天地,HBA0500-1,湖北省,420000,武汉市,420100,,,30.475790,114.410150,中西大区
广汽埃安武汉关南体验中心,武汉东湖新技术开发区高新二路41号关南工业园1号厂房1层,HBA0500,湖北省,420000,武汉市,420100,027-65520700,027-65521112,30.481220,114.435460,中西大区
广汽埃安黄石发展体验中心,湖北省黄石市下陆区发展大道135号,HBB0100,湖北省,420000,黄石市,420200,0714-6537666,0714-6513833,30.216339,114.988203,中西大区
广汽埃安十堰汉江体验中心,湖北省十堰市张湾区汉江路街道北京北路99号19幢2-068,HBC0100,湖北省,420000,十堰市,420300,0719-8486866,18772214785,32.668814,110.813840,中西大区
广汽埃安宜昌伍家岗体验中心,宜昌市伍家岗区伍家乡东艳路48号,HBE0100,湖北省,420000,宜昌市,420500,0717-6613233,0717-7801333,30.670337,111.379274,中西大区
广汽埃安襄阳金源展示中心,湖北省襄阳市襄州区钻石大道特9号（钻石大道与车城南路交汇处）,HBF3000,湖北省,420000,襄阳市,420600,0710-2699929,0710-2699989,32.102766,112.194942,中西大区
广汽埃安孝感仙女湖展示中心,湖北省孝感市孝南区澴川路325号,HBK3000,湖北省,420000,孝感市,420900,0712-2557577,0712-2598333,30.911561,113.977142,中西大区
广汽埃安荆州竹叶山埃安体验中心,湖北省荆州市荆州区郢城镇荆州大道竹叶山车世界C9-106A,HBD0100,湖北省,420000,荆州市,421000,0716-8398666,0716-8398005,30.389983,112.205214,中西大区
广汽埃安随州季梁体验中心,随州市高新区季梁大道与编钟大道交汇处,HBS0100,湖北省,420000,随州市,421300,19171781659,18062199118,31.711926,113.421411,中西大区
广汽埃安恩施金桂体验中心,湖北省恩施市金桂大道188号花果山汽贸城,HBQ0100,湖北省,420000,恩施土家族苗族自治州,422800,0718-8900158,0718-8900258,30.353318,109.495827,中西大区
广汽埃安长沙岳麓体验中心,长沙市岳麓区东驰路麓谷汽车世界E07号,HNA0900,湖南省,430000,长沙市,430100,0731-89777987,0731-87977977,28.209255,112.867999,华南二区
广汽埃安长沙含浦体验中心,湖南省长沙市岳麓区含浦大道与云栖路交汇处往北800米长沙九城含浦埃安店,HNA0800,湖南省,430000,长沙市,430100,0731-85222182,0731-85222182,28.149219,112.921278,华南二区
广汽埃安长沙河西凯德壹展示中心,湖南省长沙市岳麓区茶子山东路112号凯德壹中心,HNA0100-4,湖南省,430000,长沙市,430100,,,28.247507,112.962700,华南二区
广汽埃安长沙开福体验中心,长沙市开福区秀峰街道开福大道358号,HNA0300,湖南省,430000,长沙市,430100,0731-85815889,0731-85817889,28.306888,112.988594,华南二区
广汽埃安长沙西泽富兴时代展示中心,长沙市开福区芙蓉中路一段303号（CFC富兴时代广场）,HNA0600-1,湖南省,430000,长沙市,430100,,,28.223769,112.982287,华南二区
广汽埃安长沙佳兆业展示中心,长沙市芙蓉区五一大道318号佳兆业广场G层L107号铺,HNA0300-2,湖南省,430000,长沙市,430100,0731-85815889,0731-85815889,28.200655,113.006172,华南二区
广汽埃安长沙天心体验中心,长沙市天心区雀园路64号,HNA0200,湖南省,430000,长沙市,430100,0731-88785555,0731-88785566,28.091909,113.006865,华南二区
广汽埃安长沙高桥体验中心,长沙市雨花区黎托街道长沙大道558号,HNA0500,湖南省,430000,长沙市,430100,,,28.175280,113.047843,华南二区
广汽埃安长沙星沙体验中心,长沙县中南汽车世界J区15栋,HNA0100,湖南省,430000,长沙市,430100,0731-86678088,0731-86679088,28.241568,113.075772,华南二区
广汽埃安长沙芙蓉体验中心,湖南省长沙市芙蓉区隆平高科技园远大二路702号,HNA0700,湖南省,430000,长沙市,430100,0731-84637888,0731-84285666,28.209780,113.087998,华南二区
广汽埃安株洲天元展示中心,湖南省株洲市天元区栗雨街道广汽路110号株洲汽博园形象店B-102栋,HNB3000,湖南省,430000,株洲市,430200,0731-22022226,0731-22022229,27.825240,113.062995,华南二区
广汽埃安湘潭九华体验中心,湖南省湘潭市湘潭经开区和平街道湘望路10号,HNC3000,湖南省,430000,湘潭市,430300,,,27.942894,112.941474,华南二区
广汽埃安衡阳石鼓中亿体验中心,湖南省衡阳市石鼓区松木乡朝阳村朝阳组（107国道西侧）,HND0200,湖南省,430000,衡阳市,430400,18075898291,18674785566,26.946155,112.602656,华南二区
广汽埃安衡阳杨柳体验中心,衡阳市蒸湘区西外环路杨柳汽贸城,HND0100,湖南省,430000,衡阳市,430400,0734-8456555,0734-8293321,26.873682,112.575758,华南二区
广汽埃安衡阳铭典酃湖万达展示中心,衡阳市珠晖区衡州大道50号（酃湖万达）,HND0100-1,湖南省,430000,衡阳市,430400,,,26.890232,112.656361,华南二区
广汽埃安邵阳世纪展示中心,湖南省邵阳市双清区邵阳大道东联接线交叉口北京现代邵阳天娇4S店,HNE3100,湖南省,430000,邵阳市,430500,0739-5276669,0739-5276669,27.259923,111.566602,华南二区
广汽埃安岳阳经开区展示中心,岳阳经济技术开发区屈原路18号岳阳经济技术开发区屈原路18号,HNF3000,湖南省,430000,岳阳市,430600,0730-8193988,0730-8836988,29.374400,113.176554,华南二区
广汽埃安常德经开万达展示中心,常德市武陵区南坪街道沙港社区皂果路1099号（万达广场）,HNJ0100-1,湖南省,430000,常德市,430700,,,29.060832,111.674981,华南二区
广汽埃安常德武陵展示中心,湖南省常德市武陵区龙港路与三星路交汇处正东方向74米,HNJ3000,湖南省,430000,常德市,430700,0736-7258699,18975626219,29.074209,111.682450,华南一区
广汽埃安常德经开体验中心,湖南省常德经济技术开发区樟木桥街道常安社区 常德大道569号,HNJ0100,湖南省,430000,常德市,430700,0736-7328898,0736-7328877,28.927306,111.722636,华南二区
广汽埃安益阳赫山展示中心,湖南省益阳市赫山区十洲路赫山税务局南侧,HNH3000,湖南省,430000,益阳市,430900,0737-4432333,0737-4432111,28.579499,112.397565,华南二区
广汽埃安郴州北湖体验中心,郴州市北湖区万华汽车城品牌汽车专卖店区18栋,HNL0100,湖南省,430000,郴州市,431000,0735-2916777,400-181-0800,25.751026,112.960881,华南大区
广汽埃安郴州生源时代展示中心,郴州市苏仙区八一北路（生源时代广场）,HNL0100-2,湖南省,430000,郴州市,431000,,,25.800111,113.042616,华南二区
广汽埃安郴州苏仙体验中心,湖南省郴州市苏仙区王仙岭街道郴州大道1018号1栋,HNL0200,湖南省,430000,郴州市,431000,0735-2629999,0735-2328826,25.778776,113.075275,华南二区
广汽埃安永州潇湘展示中心,湖南省永州市零陵区接履桥街道永州大道旁（潇湘汽车城内领克4S店旁）,HNM3000,湖南省,430000,永州市,431100,,,26.299146,111.638807,华南二区
广汽埃安怀化鹤城展示中心,湖南省怀化市鹤城区湖天大道与南环路交汇处万达广场1F-AB商铺,HNN3000,湖南省,430000,怀化市,431200,17398719338,0745-2336555,27.526199,109.993280,华南二区
广汽埃安娄底中南体验中心,湖南省娄底市娄星区万宝镇芭蕉村中南汽车城内,HNK0100,湖南省,430000,娄底市,431300,0738-7170777,0738-8266399,27.665203,112.025249,华南二区
广汽埃安广州花都体验中心,广州市花都区芙蓉大道东边村小学路口花城汽车广场内,GDA0200,广东省,440000,广州市,440100,020-86991222,020-36833133,23.442289,113.229728,华南一区
广汽埃安广州花都天河城展示中心,广州市花都区迎宾大道173号-天河城奥莱公园1F1041铺,GDA0200-1,广东省,440000,广州市,440100,020-86991222,,23.387447,113.260917,华南一区
广汽埃安广州白云广花展示中心,广州市白云区广花二路32号,GDA0200-2,广东省,440000,广州市,440100,020-36889363,020-36889365,23.265732,113.256174,华南一区
广汽埃安广州白云广从体验中心,广州市白云区钟落潭镇广从七路32号2栋101室,GDA0900,广东省,440000,广州市,440100,18922255266,020-36368866,23.365732,113.389900,华南一区
广汽埃安广州从化体验中心,广州市从化区江埔街环市东路566号102铺,GDA0130,广东省,440000,广州市,440100,020-86659660,020-86659626,23.554495,113.614618,华南一区
广汽埃安广州白云广从龙归万民展示中心,广州市白云区鹤龙四路99号（龙归万民广场）,GDA0900-1,广东省,440000,广州市,440100,,,23.293389,113.307558,华南一区
广汽埃安广州新捷嘉禾展示中心,广东省广州市白云区鹤龙二路85号（嘉禾金铂天地）,GDA0700-1,广东省,440000,广州市,440100,,,23.245179,113.287584,华南一区
广汽埃安广州白云体验中心,广州市白云区广从一路162号枫兴汽车城内,GDA0400,广东省,440000,广州市,440100,2086490039,2031237942,23.262118,113.325014,华南一区
广汽埃安广州黄埔金沙洲永旺展示中心,广州市白云区沙凤三路1号金沙洲永旺梦乐城120号商铺,GDA0150-1,广东省,440000,广州市,440100,,,23.156102,113.201331,华南一区
广汽埃安广州白云广物体验中心,广州市白云区机场路888号（广物园区内）,GDA0700,广东省,440000,广州市,440100,400-668-3838,18102201493,23.111600,113.152400,华南一区
广汽埃安广州新捷百信展示中心,广州市白云区机场路1399号（百信广场）,GDA0700-2,广东省,440000,广州市,440100,,,23.200582,113.268220,华南一区
广汽埃安广州白云万达展示中心,广州市白云区云城东路501号万达广场(白云店),GDA0400-2,广东省,440000,广州市,440100,,,23.177643,113.271904,华南一区
广汽埃安广州悦汇城展示中心,广州市荔湾区西湾路150号一层1A013号,GDA3500-1,广东省,440000,广州市,440100,,,23.155698,113.249271,华南一区
广汽埃安广州白云下塘西体验中心,广州市白云区景泰街下塘西路614号首层自编3-4号,GDA0190,广东省,440000,广州市,440100,020-66821388,020-66822833,23.162419,113.278382,华南一区
广汽埃安广州天河广州大道展示中心,广州市越秀区广州大道北197号,GDA0500-5,广东省,440000,广州市,440100,,,23.204752,113.333422,华南一区
广汽埃安广州白云梅花园体验中心,广州市白云区京溪街道梅园路6号,GDA0110,广东省,440000,广州市,440100,15989282814,18588700521,23.135340,113.271430,华南一区
广汽埃安广州梅花园中华广场展示中心,广州市越秀区中山三路33号中华广场,GDA0110-1,广东省,440000,广州市,440100,,,23.128580,113.277251,华南一区
广汽埃安广州荔湾体验中心,广州市荔湾区龙溪大道293号之一,GDA3500,广东省,440000,广州市,440100,020-81192237,020-81600550,23.075702,113.218813,华南一区
广汽埃安广州天河体验中心,广州市天河区天源路1202号（植物园地铁站C出口）,GDA0500,广东省,440000,广州市,440100,020 8852 1008,020 8852 6638,23.198746,113.376091,华南一区
广汽埃安广州天河广园东方宝泰展示中心,广州市林和中路63号（东方宝泰购物中心）,GDA0140-2,广东省,440000,广州市,440100,,,23.153693,113.331331,华南一区
广汽埃安广州黄埔鱼珠广百商超展示中心,广州市海珠区宝岗大道498号广百新一城1-26号铺,GDA0300-2,广东省,440000,广州市,440100,,,23.096895,113.260801,华南一区
广汽埃安广州天河广园绿地缤纷城展示中心,广州市黄埔区九龙大道南80米（绿地缤纷城）,GDA0140-1,广东省,440000,广州市,440100,,,23.330183,113.555814,华南一区
广汽埃安正佳广场体验中心,广州市天河区天河路228号正佳广场西南街（近西门） 1F-1C075-78号,GDA3300,广东省,440000,广州市,440100,,,23.137856,113.333631,华南一区
广汽埃安天河花城汇展示中心,广东省广州市天河区黄埔大道西74号花城汇北广场负一楼,GDA3600-2,广东省,440000,广州市,440100,020-32612395,020-89099805,23.127765,113.330831,华南一区
广汽埃安广州海珠丽影展示中心,广州市海珠区新港中路352号（丽影广场）,GDA3600-3,广东省,440000,广州市,440100,,,23.101548,113.328397,华南一区
广汽埃安广州天河广园体验中心,广州市天河区车陂西路396号5栋101房,GDA0140,广东省,440000,广州市,440100,020-37882118,13829700351,23.143798,113.388541,华南一区
广汽埃安广州海珠体验中心,广州市海珠区新源街29号,GDA3600,广东省,440000,广州市,440100,020-32612395,020-89099810,23.077080,113.311920,华南一区
广汽埃安广州天河东圃体验中心,广州市天河区珠村西横路2号,GDA0160,广东省,440000,广州市,440100,020-89853366,020-89851716,23.127206,113.423986,华南一区
广汽埃安广州南站体验中心,广州市番禺区钟村街谢村谢石公路66号A座,GDA0170,广东省,440000,广州市,440100,13430252431,13719088541,23.006552,113.280340,华南一区
广汽埃安广州黄埔体验中心,广州市黄埔区科学城南云五路8号17号102,GDA0150,广东省,440000,广州市,440100,020-32015082,020-32015057,23.147360,113.459855,华南一区
广汽埃安广州黄埔鱼珠体验中心,广州市黄埔区鱼珠街道茅岗路748号,GDA0300,广东省,440000,广州市,440100,020-89853366,020-82039336,23.123709,113.444866,华南一区
广汽埃安番禺大石万民城展示中心,广州市番禺区大石105国道561号1026铺,GDA0800-2,广东省,440000,广州市,440100,19102096982,,23.019112,113.319452,华南一区
广汽埃安广州番禺大道展示中心,广州市番禺区大石街迎宾路大石段179号,GDA0800-1,广东省,440000,广州市,440100,13642648981,,23.021822,113.342925,华南一区
广汽埃安广州白云萝岗万达展示中心,广州市黄埔区开创大道萝岗万达,GDA0400-3,广东省,440000,广州市,440100,,,23.160188,113.532369,华南一区
广汽埃安广州长蔚番禺万达展示中心,广州市番禺区兴南大道368号（番禺万达）,GDA0100-5,广东省,440000,广州市,440100,,,23.012715,113.354842,华南一区
广汽埃安广州番禺南村展示中心,广州市番禺区兴南大道566号,GDA0100-1,广东省,440000,广州市,440100,020-85821259,,23.021404,113.376722,华南一区
广汽埃安广州第一体验中心,广州市番禺区东环街番禺大道北515号西侧105之二,GDA0100,广东省,440000,广州市,440100,020-84809868,020-84809866,22.980973,113.367790,华南一区
广汽埃安广州增城体验中心,广州市增城区新塘镇南安村广深大道西306号,GDA0120,广东省,440000,广州市,440100,020-82989499,,23.119995,113.565502,华南一区
广汽埃安广州黄埔黄埔万达展示中心,广州市黄埔区南岗街道康南社区康富路16号（南岗万达）,GDA0150-3,广东省,440000,广州市,440100,,,23.102083,113.545300,华南一区
广汽埃安广州新塘展示中心,广州市增城新塘镇荔新公路5号,GDA0500-3,广东省,440000,广州市,440100,,,23.142801,113.618277,华南一区
广汽埃安广州番禺广场体验中心,广州番禺区桥南街番禺大道北1590号A座南边一层、二层,GDA0800,广东省,440000,广州市,440100,13609070604,13609070604,22.923034,113.401649,华南一区
广汽埃安广州番禺亚运城展示中心,广州市番禺区石楼镇康体路43号（亚运城广场）,GDA0100-4,广东省,440000,广州市,440100,,,22.947686,113.483535,华南一区
广汽埃安广州南沙展示中心,广州市南沙区黄阁镇番中公路黄阁段25号,GDA0100-2,广东省,440000,广州市,440100,,,22.833256,113.515182,华南一区
广汽埃安广州南沙体验中心,广州市南沙区珠江街新广一路29号,GDA0180,广东省,440000,广州市,440100,13302277722,13302277722,22.740344,113.517375,华南一区
广汽埃安韶关武江体验中心,广东省韶关市武江区沐溪大道158号西马克液压厂一期,GDF0100,广东省,440000,韶关市,440200,0751-8863838,0751-8863636,24.778598,113.524058,华南二区
广汽埃安韶关浈江展示中心,韶关市浈江区韶南大道七公里东侧,GDF3000,广东省,440000,韶关市,440200,0751-8883818,0751-8883818,24.778123,113.596458,华南二区
广汽埃安深圳松岗体验中心,深圳市宝安区松岗街道潭头社区芙蓉路21号101,GDB0210,广东省,440000,深圳市,440300,13121999177,18128870657,22.753356,113.849334,华南一区
广汽埃安深圳龙华宝安沙井展示中心,深圳市宝安区沙井街道107国道242号,GDB0100-1,广东省,440000,深圳市,440300,,,22.741950,113.852410,华南二区
广汽埃安深圳宝安同泰展示中心,广东省深圳市宝安区福海街道同泰时代广场 L1 层19-20 号,GDB0110-2,广东省,440000,深圳市,440300,,,22.684840,113.811080,华南二区
广汽埃安深圳光明城体验中心,深圳市光明区马田街道石围社区石围油麻岗工业区浓望工业园第一栋101,GDB0150,广东省,440000,深圳市,440300,0755-27107777,0755-27100707,22.749209,113.897420,华南二区
广汽埃安深圳宝安体验中心,深圳市宝安区福永凤凰加油站旁杰鹏商业广场B栋一楼,GDB0110,广东省,440000,深圳市,440300,0755-88898609,0755-88898905,22.701410,113.839630,华南二区
广汽埃安深圳福永体验中心,深圳市宝安区福永街道福围社区107国道旁怀德银山大厦负101,GDB0170,广东省,440000,深圳市,440300,0755-23201818,0755-23202828,22.654435,113.835232,华南二区
广汽埃安深圳航城体验中心,深圳市宝安区107国道黄田大门右侧一层(鸿丰华互联网创意园一楼),GDB0400,广东省,440000,深圳市,440300,0755-29756688,0755-27170599,22.632397,113.854361,华南二区
广汽埃安深圳福田西乡天虹展示中心,深圳市宝安区西乡大道1019号（西乡天虹）,GDB0200-2,广东省,440000,深圳市,440300,,,22.580997,113.871095,华南二区
广汽埃安深圳南山云城万科里展示中心,深圳市南山区打石二路云城万科里,GDB0500-1,广东省,440000,深圳市,440300,0755-28957666,0755-89458612,22.342800,113.563600,华南二区
广汽埃安深圳龙华体验中心,深圳市龙华新区清龙路1号,GDB0100,广东省,440000,深圳市,440300,0755-28055666,0755-29525333,22.673252,114.028448,华南二区
广汽埃安深圳观澜体验中心,深圳市龙华区观湖街道新田社区环观南路72号-1号,GDB0220,广东省,440000,深圳市,440300,0755-83702266,0755-23739582,22.709677,114.101003,华南二区
广汽埃安深圳南山体验中心,深圳市南山区南头街道安乐社区深南大道11041号嘉进隆前海汽车城A07栋1层,GDB0130,广东省,440000,深圳市,440300,13316523530,0755-26654375,22.553948,113.912212,华南一区
广汽埃安深圳航城龙华红山展示中心,深圳市龙华区红木街（红山6979商业中心）,GDB0400-2,广东省,440000,深圳市,440300,,,22.627458,114.031874,华南二区
广汽埃安深圳福田星河WorldToera展示中心,深圳市龙岗区雅宝路1号（星河WorldToera）,GDB0200-3,广东省,440000,深圳市,440300,,,22.610814,114.065904,华南二区
广汽埃安深圳坂田体验中心,深圳市龙岗区南湾街道上李朗社区平吉大道平朗路9号万国城A座1F-A16,GDB0120,广东省,440000,深圳市,440300,17722840182,0755-28683658,22.658917,114.137246,华南二区
广汽埃安深圳北环体验中心,深圳市福田区梅林街道梅京社区北环大道7028号日产东风裕朋和吉利专营店车行101,GDB0180,广东省,440000,深圳市,440300,15219497855,18938997681,22.566399,114.042360,华南二区
广汽埃安深圳龙岗星河ico展示中心,深圳市龙岗区龙城街道紫薇社区清林中路31号金基吉祥广场一层L1S-38-39,GDB0140-1,广东省,440000,深圳市,440300,0755-28625882,0755-28626008,22.725040,114.244030,华南二区
广汽埃安深圳福田东海缤纷天地展示中心,广东省深圳市福田区香蜜湖街道东海社区深南大道7888号（东海缤纷天地）,GDB0100-3,广东省,440000,深圳市,440300,0755-28055666,0755-29525333,22.542472,114.026210,华南二区
广汽埃安深圳福田体验中心,深圳市福田区梅林东路5号广仁大楼一层至二层,GDB0200,广东省,440000,深圳市,440300,0755-33228829,0755-33228829,22.568239,114.070936,华南二区
广汽埃安深圳佳兆业展示中心,深圳市龙岗区布吉木棉湾地铁站B出口佳兆业广场一楼中庭旁,GDB0900-2,广东省,440000,深圳市,440300,19129318943,,22.612840,114.137387,华南二区
广汽埃安深圳罗湖体验中心,深圳市罗湖区草埔地铁店B出口通利华大厦一楼,GDB0900,广东省,440000,深圳市,440300,0755-25649018,0755-25674002,22.590834,114.122832,华南二区
广汽埃安深圳福田皇庭展示中心,深圳市福田区福华三路118号皇庭广场L2-65号,GDB0140-2,广东省,440000,深圳市,440300,0755-28625882,0755-08686008,22.539280,114.066400,华南二区
广汽埃安深圳龙岗体验中心,深圳市龙岗区横岗镇信义汽车城16C,GDB0140,广东省,440000,深圳市,440300,0755-28625882,0755-28625882,22.673310,114.229440,华南二区
广汽埃安深圳龙城体验中心,广东省深圳市龙岗区植物园路144号百世汽车城2栋A座 (广汽埃安店),GDB0190,广东省,440000,深圳市,440300,0755-28957666,0755-85209919,22.709908,114.275430,华南二区
广汽埃安深圳莲塘体验中心,深圳市罗湖区莲塘街道鹏兴社区鹏兴路2号鹏基工业区705栋一层南门,GDB0160,广东省,440000,深圳市,440300,0755-2511 7999,0755-2511 7222,22.565038,114.170320,华南二区
广汽埃安深圳坪山体验中心,深圳市坪山新区比亚迪路同富裕工业区6栋,GDB0500,广东省,440000,深圳市,440300,0755-28957666,0755-89369482,22.417000,114.215700,华南二区
广汽埃安深圳坪山湾畔mall展示中心,深圳市龙岗区坂田街道坂雪岗大道与永香路交汇处一楼1012号商铺（湾畔MALL）,GDB0500-3,广东省,440000,深圳市,440300,,,22.372300,114.355000,华南二区
广汽埃安珠海斗门大信店展示中心,地址珠海市斗门区井岸镇中兴中路大信新都汇1楼中庭27号铺位,GDC3000-2,广东省,440000,珠海市,440400,0756-8658080,,22.221554,113.304134,华南一区
广汽埃安珠海香洲体验中心,珠海市香洲区华宇路323号（金明产业园）,GDC3000,广东省,440000,珠海市,440400,0756-8658080,0756-8602991,22.295079,113.490183,华南一区
广汽埃安珠海香洲上冲展示中心,珠海市上冲国际名车城华威路1-3#6-7厂房,GDC3000-3,广东省,440000,珠海市,440400,0756-8658080,0756-8602991,22.294312,113.502201,华南一区
广汽埃安珠海香洲屏西中立展示中心,广东省珠海市香洲区梅华西路911号中立信汽车展销中心b区,GDC0100-1,广东省,440000,珠海市,440400,,,22.280718,113.525056,华南一区
广汽埃安珠海香洲屏西体验中心,广东省珠海市香洲区南屏屏西三路1号华科汽车城内,GDC0100,广东省,440000,珠海市,440400,0756-8188388,0756-8188988,22.214372,113.463933,华南一区
广汽埃安珠海金湾体验中心,珠海金湾区红旗镇珠海大道6698号 3 号 厂房1楼106,GDC3100,广东省,440000,珠海市,440400,0756-7686134,0756-7686134,22.122214,113.337711,华南一区
广汽埃安珠海金湾华发展示中心,珠海市金湾区金泓路金湾中心河湿地公园北侧约190米（金湾华发商都）,GDC3100-1,广东省,440000,珠海市,440400,0756-8656262,0756-3982288,22.119741,113.367716,华南一区
广汽埃安汕头潮南体验中心,汕头市潮南区峡山街道练南村白坟洋324国道旁中汇汽车城A幢首层A03,GDD0100,广东省,440000,汕头市,440500,0754-88099888,0754-88056166,23.248348,116.456228,华南二区
广汽埃安汕头金平万达展示中心,广东省汕头市金平区潮汕路61号 万达广场1F层1079号商铺,GDD3100,广东省,440000,汕头市,440500,13417133360,13417133360,23.381436,116.682439,华南二区
广汽埃安汕头龙湖体验中心,广东省汕头市龙湖区金鸿公路与青年路交叉口东北,GDD3000,广东省,440000,汕头市,440500,0754-88884448,0754-88884448,23.359090,116.688530,华南二区
广汽埃安佛山三水体验中心,佛山市三水区云东海街道南丰大道26号A座首层二号商铺,GDE0120,广东省,440000,佛山市,440600,0757-83698699,0757-83698799,23.213650,112.925829,华南一区
广汽埃安佛山三水万达展示中心,佛山市三水区南丰大道13号三水万达,GDE0400-1,广东省,440000,佛山市,440600,0757-66886789,0757-66861015,23.184281,112.910704,华南一区
广汽埃安佛山南海长华星河展示中心,佛山市南海区狮山镇博爱路68号（长华星河COCO CITY首层022A铺),GDE0400-2,广东省,440000,佛山市,440600,,,23.127186,113.005297,华南一区
广汽埃安佛山南海狮山体验中心,佛山市南海区狮山镇穆院村委会“陶洞岗”之一佛山骏耀汽车内自编之一（住所申报）,GDE0150,广东省,440000,佛山市,440600,0757-86692828,0757-86669281,23.131151,113.021576,华南一区
广汽埃安佛山里水体验中心,佛山市南海里水一环辅路流潮大道,GDE0300,广东省,440000,佛山市,440600,0757-63508885,0757-63508885,23.199768,113.180520,华南一区
广汽埃安佛山南海罗村体验中心,广东省佛山市南海区狮山镇罗村大道2-3号（奔达汽车城3-4座）,GDE0140,广东省,440000,佛山市,440600,,,23.052603,113.055292,华南一区
广汽埃安佛山时利和南海万达展示中心,佛山市南海区建设大道中12号万达广场F11033铺,GDE0900-2,广东省,440000,佛山市,440600,,,23.145768,113.203468,华南一区
广汽埃安佛山石湾西樵展示中心,佛山市南海区樵高路吉水村西塱楼E座21-28,GDE0200-1,广东省,440000,佛山市,440600,,,22.954003,112.974314,华南一区
广汽埃安佛山南海体验中心,佛山市南海区桂城海八路谢叠大桥东侧,GDE0900,广东省,440000,佛山市,440600,,,23.074831,113.138197,华南一区
广汽埃安佛山南海里水高明展示中心,佛山市高明区荷城街道荷香路123号,GDE0300-3,广东省,440000,佛山市,440600,,,22.886642,112.892912,华南一区
广汽埃安佛山南海大沥体验中心,佛山市南海区大沥镇盐步穗盐西路118号臻盛车博汇广场A3馆106号铺,GDE0130,广东省,440000,佛山市,440600,13689513672,18898720067,23.093594,113.172000,华南一区
广汽埃安佛山禅城南庄同心荟展示中心,佛山市禅城区人民西路13号（同心荟）,GDE0400-3,广东省,440000,佛山市,440600,,,23.037546,113.111095,华南一区
广汽埃安佛山南庄体验中心,佛山市禅城区南庄樵乐公路（吉利大道西）吉利工业园斜对面厂房自编之二,GDE0400,广东省,440000,佛山市,440600,0757-66886789,0757-66861015,22.960118,113.037107,华南一区
广汽埃安佛山大道体验中心,佛山市禅城区佛山大道中番村牌坊侧广汽大厦,GDE0200,广东省,440000,佛山市,440600,0757-83939929,0757-83939931,23.003801,113.107199,华南一区
广汽埃安佛山石湾南海展示中心,佛山市南海区佛山一环与佛平路交汇处长兴名车城内,GDE0200-2,广东省,440000,佛山市,440600,,,23.041095,113.180271,华南一区
广汽埃安佛山顺德陈村美的万达展示中心,佛山市顺德区南霞新路9号(顺德美的万达）,GDE0700-1,广东省,440000,佛山市,440600,,,22.969025,113.182185,华南一区
广汽埃安佛山顺德陈村体验中心,广东省佛山市顺德区陈村镇南涌社区105国道陈村段6号之二,GDE0700,广东省,440000,佛山市,440600,,,22.949244,113.250931,华南一区
广汽埃安佛山大良体验中心,广东省佛山市顺德区105国道大良新滘路口西侧之一,GDE0800,广东省,440000,佛山市,440600,,,22.850393,113.236032,华南一区
广汽埃安佛山时利和顺德大融城展示中心,佛山市顺德区大良街道近良社区南国东路30号大融城,GDE0900-1,广东省,440000,佛山市,440600,,,22.829276,113.267669,华南一区
广汽埃安佛山顺德容桂中海骏达展示中心,佛山市顺德区容桂街道桂洲大道中海骏达广场,GDE0110-1,广东省,440000,佛山市,440600,,,22.764700,113.282950,华南一区
广汽埃安佛山顺德容桂体验中心,广东省佛山市顺德区容桂街道南区社区天河北路西侧南区工业小区9号地首层之四,GDE0110,广东省,440000,佛山市,440600,0757-28888160,0757-28888260,22.757170,113.311530,华南一区
广汽埃安江门蓬江鹤山展示中心,江门市鹤山市雅瑶镇陈山佛开高速路口旁,GDJ3000-3,广东省,440000,江门市,440700,,,22.798373,113.021286,华南一区
广汽埃安江门开平体验中心,开平市水口镇红进村委会神冲村路段北边1号铺位,GDJ0200,广东省,440000,江门市,440700,0750-2292688,0750-2299219,22.391481,112.707031,华南一区
广汽埃安江门蓬江体验中心,江门市蓬江区建设三路166号,GDJ3000,广东省,440000,江门市,440700,0750-3550888,0750-3286810,22.636169,113.064772,华南一区
广汽埃安江门蓬江五邑展示中心,江门市蓬江区江门万达广场5幢113室,GDJ3000-1,广东省,440000,江门市,440700,0750-3550888,0750-3550888,22.617684,113.085914,华南一区
广汽埃安江门新会体验中心,江门市新会区会城冈州大道西9号（新会海关西侧）,GDJ0100,广东省,440000,江门市,440700,0750-6680888,0750-6680999,22.516913,113.017784,华南一区
广汽埃安江门江海体验中心,江门市江海区礼乐利生车城广汽埃安4S店（江门市江海区银帆路2号10幢之二）,GDJ3100,广东省,440000,江门市,440700,0750-3633188,0750-3986868,22.552547,113.076145,华南一区
广汽埃安江门蓬江江海万达展示中心,江门市江海区金瓯路198号4栋江门江海万达广场室内步行街1F层1060号商铺,GDJ3000-2,广东省,440000,江门市,440700,,,22.560265,113.122125,华南一区
广汽埃安江门江海台山万达展示中心,江门市台山市凤凰大道与陈宜禧路交汇处东南侧（台山万达）,GDJ3100-2,广东省,440000,江门市,440700,,,22.235041,112.820178,华南一区
广汽埃安湛江麻章粤西展示中心,湛江市麻章区瑞云北路101号粤西国际车城2号商铺,GDG3000-1,广东省,440000,湛江市,440800,‭0759-3353388‬,0759-3279110,21.297788,110.322934,华南一区
广汽埃安湛江海田体验中心,广东省湛江市赤坎区东盛路7号湛江海田国际车城S17-9商铺,GDG3100,广东省,440000,湛江市,440800,0759-2729939	,0759-3107888	,21.276720,110.365550,华南一区
广汽埃安湛江麻章体验中心,湛江市麻章区瑞云南路6号,GDG3000,广东省,440000,湛江市,440800,,,21.257331,110.351631,华南一区
广汽埃安茂名印象汇展示中心,茂名市茂南区西粤中路8号（印象汇文化广场）,GDK3100-1,广东省,440000,茂名市,440900,,,21.666483,110.949210,华南二区
广汽埃安茂名小悦体验中心,茂名市茂南区茂名大道新世纪学校斜对面,GDK3100,广东省,440000,茂名市,440900,0668-2391268,0668-2921268,21.653449,110.954301,华南一区
广汽埃安茂名小悦茂水展示中心,茂名市茂南开发区工业区茂水路239号,GDK3100-2,广东省,440000,茂名市,440900,,,21.633251,110.921976,华南一区
广汽埃安茂名茂南茂水体验中心,茂名市茂南开发区工业加工区（茂水路239号大院）2号楼103室,GDK0100,广东省,440000,茂名市,440900,0668-3332693,0668-2851036,21.633251,110.921976,华南一区
广汽埃安茂名电白排河体验中心,茂名市茂南区茂名大道排河路口广物汽车城埃安店,GDK0200,广东省,440000,茂名市,440900,3939788,2088813,21.619201,110.967937,华南一区
广汽埃安肇庆大洲体验中心,肇庆市端州区太和北路1号太和公馆E幢首层第1卡,GDH0200,广东省,440000,肇庆市,441200,0758-2288999,0758-2288999,23.080400,112.439067,华南一区
广汽埃安肇庆端州体验中心,肇庆市端州区114区肇庆大道南侧之三,GDH0100,广东省,440000,肇庆市,441200,0758-2108099,0758-2322980,23.100315,112.498997,华南一区
广汽埃安惠州惠博体验中心,惠州市惠博大道金山汽车城二街20号B,GDL0200,广东省,440000,惠州市,441300,0752-2534588,0752-2534576,23.137983,114.404632,华南二区
广汽埃安惠州江北体验中心,惠州市惠城区江北60号小区钢铁结构房2号,GDL0500,广东省,440000,惠州市,441300,0752-2818399,0752-2818622,23.115848,114.421147,华南二区
广汽埃安惠州惠南仲恺展示中心,惠州市仲恺高新区仲恺汽车城内B8铺位,GDL0400-2,广东省,440000,惠州市,441300,,,23.016381,114.337974,华南二区
广汽埃安惠州水口体验中心,惠州市惠城区水口镇龙湖商业街 52 号(水口新能源汽车大市场 A 栋),GDL0600,广东省,440000,惠州市,441300,0752-2286866,18927332856,23.105306,114.449188,华南二区
广汽埃安惠州惠博汇乐城展示中心,惠州市惠城区惠州市惠城区三环东路汇乐城购物中心L121-L122商铺（汇乐城）,GDL0200-1,广东省,440000,惠州市,441300,,,23.102926,114.454542,华南二区
广汽埃安惠州惠南体验中心,惠州市惠南大道福长岭丽群汽车城1号,GDL0400,广东省,440000,惠州市,441300,0752-2787838,0752-2277256,23.007642,114.447138,华南二区
广汽埃安惠州惠阳体验中心,惠州市惠阳区淡水金秋路4号,GDL0300,广东省,440000,惠州市,441300,0752-3768889,0752-3768399,22.874979,114.480978,华南二区
广汽埃安梅州环市西路五华展示中心,梅州市五华县水寨镇水寨大道新水安路（长安加油站南侧）,GDM0100-3,广东省,440000,梅州市,441400,,,23.923859,115.767530,华南二区
广汽埃安梅州环市西路体验中心,梅州市梅江区西郊办黄塘村联合中学路口往南60米,GDM0100,广东省,440000,梅州市,441400,0753-2315888,0753-2315888,24.317750,116.095773,华南二区
广汽埃安梅州梅江展示中心,梅州市梅江区梅塘东路45号,GDM3000,广东省,440000,梅州市,441400,0753-2332230,0753-2331111,24.271631,116.111182,华南二区
广汽埃安梅州环市西路东山新天地展示中心,梅州市梅江区东山教育基地学海路东山新天地G层,GDM0100-2,广东省,440000,梅州市,441400,,,24.302442,116.145843,华南二区
广汽埃安梅州环市西路万达展示中心,梅州市金燕大道万达广场一楼1037铺（万达广场）,GDM0100-1,广东省,440000,梅州市,441400,,,24.277643,116.142183,华南二区
广汽埃安汕尾城区海丰天虹展示中心,汕尾市海丰县宏通路与228国道交叉口西北100米（海丰天虹）,GDN0100-1,广东省,440000,汕尾市,441500,,,22.961827,115.354462,华南二区
广汽埃安汕尾城区体验中心,汕尾市城区红草镇埔边村海汕公路南侧场地,GDN0100,广东省,440000,汕尾市,441500,0660-3446666,0660-3216999,22.831327,115.375385,华南二区
广汽埃安河源万达展示中心,河源市东源县广场大道万达商业广场步行街1F层,GDP3000-1,广东省,440000,河源市,441600,,,23.778700,114.738800,华南二区
广汽埃安河源源城体验中心,河源市源城区明珠开发区河源大道西创业三路南-5（广汽埃安河源源城体验中心）,GDP3000,广东省,440000,河源市,441600,0762-3361111,0762-3361666,23.695840,114.684820,华南二区
广汽埃安河源江东体验中心,广东省河源市江东新区超然汽车城入口右侧,GDP0100,广东省,440000,河源市,441600,0762-3115838,0762-3179838,23.701350,114.721695,华南二区
广汽埃安阳江城南新城时代展示中心,阳江市江城区新江北路与创业路交叉口（新达城时代广场）,GDQ0100-1,广东省,440000,阳江市,441700,,,21.875270,111.947919,华南一区
广汽埃安阳江江城体验中心,阳江市漠江中路广银汽车城a一栋,GDQ3000,广东省,440000,阳江市,441700,,,21.866480,111.946401,华南一区
广汽埃安阳江江城盈信展示中心,阳江市江城区东风三路88号盈信广场商业中心1层126号铺之1017号,GDQ3000-1,广东省,440000,阳江市,441700,0662-2228222,0662-3232999,21.869422,112.001278,华南一区
广汽埃安阳江城南体验中心,阳江市江城区高凉路南侧（广汽丰田阳江溢源城南右侧）,GDQ0100,广东省,440000,阳江市,441700,0662-2236888,0662-2888338,21.850454,112.003967,华南一区
广汽埃安清远清新北站体验中心,清远市清新区太和镇清新大道29号清远市城北汽车客运站客运大楼首层104办公室,GDR0100,广东省,440000,清远市,441800,0763-5206886,0763-5206899,23.729037,113.009443,华南二区
广汽埃安清远清城体验中心,广东省清远市清城区广清大道横荷众合力汽车城内A01号,GDR3000,广东省,440000,清远市,441800,0763-3538333,0763-3532333,23.660039,113.065947,华南二区
广汽埃安东莞高埗大广体验中心,广东省东莞市高埗镇高昌路8号111室,GDS0600,广东省,440000,东莞市,441900,15818447383,0769-89601990,23.100000,113.720000,华南一区
广汽埃安东莞万江体验中心,广东省东莞市万江街道泰新路29号101室,GDS0110,广东省,440000,东莞市,441900,0769-22705666,0769-22709198,23.045829,113.722152,华南二区
广汽埃安东莞南城体验中心,广东省东莞市南城街道周溪路1号101室,GDS0900,广东省,440000,东莞市,441900,0769-86228808,0769-86228809,22.998525,113.723528,华南二区
广汽埃安东莞厚街体验中心,东莞市厚街镇莞太路厚街段162号,GDS0200,广东省,440000,东莞市,441900,18575371195,18770818791,22.972812,113.704633,华南二区
广汽埃安东莞厚街蜂汇广场展示中心,东莞市南城区宏二路1号（蜂汇广场）,GDS0200-2,广东省,440000,东莞市,441900,,,22.988404,113.728293,华南二区
广汽埃安东莞石排体验中心,广东省东莞市石排镇石排大道西103号103室,GDS0500,广东省,440000,东莞市,441900,0769-86999988,0769-86999988,23.103637,113.892391,华南二区
广汽埃安东莞莞樟体验中心,东莞市寮步镇莞樟路和环城路交界志诚车行内广汽埃安东莞寮步莞樟体验中心,GDS0120,广东省,440000,东莞市,441900,0769-82222707,0769-82222701,23.027367,113.809686,华南二区
广汽埃安东莞东城体验中心,东莞市东城街道莞长路63号埃安体验中心,GDS0800,广东省,440000,东莞市,441900,0769-22289898,0769-22289898,22.988749,113.780516,华南二区
广汽埃安东莞虎门体验中心,广东省东莞市莞太路厚街段676号骏业大厦1楼,GDS0400,广东省,440000,东莞市,441900,0769-82689388,0769-82689388,22.882202,113.667693,华南二区
广汽埃安东莞寮步体验中心,东莞市寮步镇国际汽车城（香市路38号101室）,GDS0100,广东省,440000,东莞市,441900,0769-38807668,0769-38807668,23.009470,113.858482,华南二区
广汽埃安东莞虎门天虹展示中心,东莞市连升中路虎门天虹购物中心,GDS0400-1,广东省,440000,东莞市,441900,,,22.814921,113.693615,华南二区
广汽埃安东莞寮步南城展示中心,东莞市南城区南城街道周溪路1号101室,GDS0100-1,广东省,440000,东莞市,441900,0769-38807668,,22.590000,113.420000,华南二区
广汽埃安东莞常朗大岭山展示中心,东莞市大岭山镇莲峰新路6号越秀龙光智谷一层,GDS3000-4,广东省,440000,东莞市,441900,,,22.893783,113.846548,华南二区
广汽埃安东莞常朗体验中心,东莞市常平镇常朗路158号,GDS3000,广东省,440000,东莞市,441900,15015487070,13318727039,22.957161,113.958354,华南二区
广汽埃安东莞常平天虹展示中心,东莞市常平镇振兴路天虹购物中心一楼中庭,GDS0300-1,广东省,440000,东莞市,441900,13690192007,,22.970000,113.990000,华南二区
广汽埃安东莞常朗大朗展示中心,东莞市大朗镇富民中路613号,GDS3000-3,广东省,440000,东莞市,441900,,,22.928312,113.948631,华南二区
广汽埃安东莞长安体验中心,广东省东莞市长安镇长安振安东路1103号3号楼109室,GDS0300,广东省,440000,东莞市,441900,0769-81582012,18107592972,22.806287,113.829318,华南二区
广汽埃安东莞寮步塘厦展示中心,东莞市塘厦镇林村林东二路9号101室,GDS0100-3,广东省,440000,东莞市,441900,,,22.840553,114.100850,华南二区
广汽埃安东莞塘厦体验中心,广东省东莞市塘厦镇林村林东二路9号102室,GDS0700,广东省,440000,东莞市,441900,0769-21996018,0769-21996018,22.842590,114.103390,华南二区
广汽埃安东莞寮步万科展示中心,东城西路与旗峰路交汇处（万科城市广场）,GDS0100-2,广东省,440000,东莞市,441900,,,40.075589,116.317721,华南二区
广汽埃安中山小榄百汇展示中心,中山市小榄镇北秀路43号（百汇时代广场）,GDT3000-1,广东省,440000,中山市,442000,,,22.688097,113.224936,华南一区
广汽埃安中山小榄菊城展示中心,中山市小榄镇菊城大道西176号A7栋首层8卡,GDT3000-3,广东省,440000,中山市,442000,,,22.669078,113.253355,华南一区
广汽埃安中山小榄体验中心,中山市小榄镇永宁菊城大道西176号A1幢,GDT3000,广东省,440000,中山市,442000,0760-22266388,0760-22269758,22.651670,113.230755,华南一区
广汽埃安中山石岐体验中心,中山市西区彩虹大道27号,GDT0100,广东省,440000,中山市,442000,18022138501,18938709470,22.552570,113.358638,华南一区
广汽埃安中山石岐兴中展示中心,中山市石岐区凤鸣路1号（兴中广场B1座B1-1F-04号）,GDT0100-1,广东省,440000,中山市,442000,,,22.530576,113.373584,华南一区
广汽埃安中山东区大信新都汇展示中心,中山市永安一路18号附近大信新都汇,GDT3100-1,广东省,440000,中山市,442000,,,22.511927,113.359649,华南一区
广汽埃安中山东区展示中心,中山市东区长江北路361号,GDT3100,广东省,440000,中山市,442000,0760-28169589,0760-28169589,22.520041,113.404991,华南一区
广汽埃安中山南区城南体验中心,中山市南区城南四路7号,GDT0300,广东省,440000,中山市,442000,076087856396,076087856346,22.471007,113.353813,华南一区
广汽埃安中山高新火炬体验中心,广东省中山市火炬开发区江陵西路36号之三,GDT0200,广东省,440000,中山市,442000,0760-89888168,0760-89888268,22.528693,113.445985,华南一区
广汽埃安潮州潮安体验中心,潮州市潮安区浮洋镇潮汕公路乌洋路段,GDU3000,广东省,440000,潮州市,445100,0768-6802888,0768-5219333,23.597970,116.598602,华南二区
广汽埃安揭阳榕城展示中心,揭阳市榕城区榕东街道梅兜村揭阳大道和进贤门大道交汇处,GDV3000,广东省,440000,揭阳市,445200,0663-8666695,0663-8666625,23.542647,116.396784,华南二区
广汽埃安揭阳普宁体验中心,普宁市流沙东街道大华溪村广汕公路大华溪路段北侧,GDV0100,广东省,440000,揭阳市,445200,0663-2439888,0663-2708988,23.300879,116.214801,华南二区
广汽埃安云浮高峰体验中心,云浮市云城区高峰街东方村委（地号：02-02-0226）中国燃气对面,GDW0200,广东省,440000,云浮市,445300,,,22.950893,112.038517,华南一区
广汽埃安云浮宏祺新世纪展示中心,云浮市云城区环市中路188号（新世纪广场）,GDW0100-1,广东省,440000,云浮市,445300,,,22.933327,112.017562,华南一区
广汽埃安云浮云城体验中心,云浮市云城区云城街道罗沙稔塘村324国道边（01-18-0178）,GDW0100,广东省,440000,云浮市,445300,0766-8930038,0766-8930038,22.953642,112.063131,华南一区
广汽埃安南宁科兴安吉万达展示中心,南宁市西乡塘区高新大道55号（安吉万达）,GXA3100-2,广西壮族自治区,450000,南宁市,450100,,,22.875276,108.298857,华南一区
广汽埃安南宁薄荷叶展示中心,南宁市西乡塘区秀厢路天雹段5号07号门面,GXA3100,广西壮族自治区,450000,南宁市,450100,0771-3857001,0771-3231124,22.867427,108.322135,华南一区
广汽埃安南宁薄荷叶青秀万达商超展示中心,广西南宁市青秀区东葛路118号青秀万达广场1楼1012铺面,GXA3100-1,广西壮族自治区,450000,南宁市,450100,13877134465,,22.836695,108.376681,华南一区
广汽埃安南宁江南体验中心,广西壮族自治区南宁市江南区沙井大道92号,GXA0400,广西壮族自治区,450000,南宁市,450100,0771-3110996,0771-3110993,22.785512,108.258999,华南一区
广汽埃安南宁经开体验中心,广西壮族自治区南宁市江南区白沙大道55号B栋4-6号,GXA0100,广西壮族自治区,450000,南宁市,450100,0771-5883555,0771-5885095,22.776600,108.306600,华南一区
广汽埃安南宁广福万达茂展示中心,南宁市邕宁区良堤路6号（万达茂）,GXA0300-1,广西壮族自治区,450000,南宁市,450100,,,22.773832,108.438769,华南一区
广汽埃安南宁五象体验中心,中国（广西）自由贸易试验区南宁片区平乐大道19号建工大厦2号楼一层和负一层夹层,GXA0300,广西壮族自治区,450000,南宁市,450100,0771-3228686,0771-4988395,22.758025,108.389579,华南一区
广汽埃安南宁良庆体验中心,中国（广西）自由贸易试验区南宁片区东风路50号五象汽车生活广场C座,GXA0500,广西壮族自治区,450000,南宁市,450100,0771-4330868,0771-4353717,22.729043,108.355218,华南一区
广汽埃安柳州柳南体验中心,柳州市柳南区柳太路11-1号,GXB0100,广西壮族自治区,450000,柳州市,450200,0772-8253917,0772-8253917,24.334273,109.372555,华南一区
广汽埃安柳州柳南柳太保利展示中心,广西壮族自治区柳州市柳北区白沙路2号（保利广场）,GXB0100-1,广西壮族自治区,450000,柳州市,450200,,,24.343370,109.422371,华南一区
广汽埃安柳州西江万达展示中心,柳州市柳南区柳邕路263号柳南万达广场室内步行街1F层1025A号商铺,GXB3000-1,广西壮族自治区,450000,柳州市,450200,0772-2818186,0772-2818186,24.293174,109.398804,华南一区
广汽埃安桂林临桂体验中心,桂林市临桂区真龙汽车城新车管所北侧,GXC3000,广西壮族自治区,450000,桂林市,450300,0773-7978388,,25.276241,110.179164,华南一区
广汽埃安桂林灵川展示中心,广西壮族自治区桂林市八里街永业汽车城A2-6,GXC3000-2,广西壮族自治区,450000,桂林市,450300,0773-7978388,暂无,25.351069,110.302332,华南一区
广汽埃安临桂吾悦展示中心,桂林市临桂区临桂大道9号（吾悦广场）,GXC3000-1,广西壮族自治区,450000,桂林市,450300,0773-7978388,,25.253414,110.175443,华南一区
广汽埃安梧州长洲体验中心,广西梧州市长洲区长洲镇竹湾路5号,GXD0100,广西壮族自治区,450000,梧州市,450400,0774-3932288,18377456969,23.464309,111.267835,华南一区
广汽埃安北海海城体验中心,广西壮族自治区北海市海城区北部湾东路116号,GXE0100,广西壮族自治区,450000,北海市,450500,0779-2286001,0779-2286010,21.506491,109.175351,华南一区
广汽埃安钦州扬帆体验中心,钦州市钦南区扬帆大道东面、钦州市中金商贸有限公司用地南面综合城内,GXN0100,广西壮族自治区,450000,钦州市,450700,18578913723,13877796488,21.980938,108.644488,华南一区
广汽埃安贵港港北体验中心,广西壮族自治区贵港市港北区根竹乡江口村（南方混凝土搅拌站西面）,GXR0100,广西壮族自治区,450000,贵港市,450800,19875374446,19875374446,23.115671,109.552260,华南一区
广汽埃安贵港佳信汇吾悦展示中心,贵港市港北区金港大道与和平路交叉口西南侧（贵港吾悦广场）,GXR0100-1,广西壮族自治区,450000,贵港市,450800,,,23.096597,109.608322,华南一区
广汽埃安玉林万达展示中心,广西玉林市金玉路338号万达广场,GXK3000,广西壮族自治区,450000,玉林市,450900,0775-2336767,0775-2336222,22.641231,110.186594,华南一区
广汽埃安百色右江展示中心,广西百色市右江区大旺路1-3号南百汽车城5、7、8号商铺,GXL3000,广西壮族自治区,450000,百色市,451000,0776-2808886,0776-2222338,23.858738,106.669843,华南一区
广汽埃安海口南海远大购物展示中心,海口市秀英区长滨四路7号（远大购物中心北馆）,HIA0100-4,海南省,460000,海口市,460100,,,20.053444,110.198416,华南一区
广汽埃安海口美兰恩祥展示中心,海南省海口市秀英区美林路5号王府井恩祥生活广场,HIA0200-1,海南省,460000,海口市,460100,,,20.020020,110.262460,华南一区
广汽埃安海口秀英体验中心,海南省海口市秀英区椰海大道370号安骅大厦,HIA0300,海南省,460000,海口市,460100,0898-66771168,17886717696,19.977828,110.173429,华南一区
广汽埃安海口南海体验中心,海南省海口市南海大道113号,HIA0100,海南省,460000,海口市,460100,0898-66803235,0898-66800527,20.002045,110.306325,华南大区
广汽埃安海口保税展示中心,海南省海口市龙华区南海大道168号保税区戊号路高信汽车城,HIA0100-1,海南省,460000,海口市,460100,0898-66803235,0898-66800527,19.998572,110.306383,华南一区
广汽埃安海口秀英万达展示中心,海南省海口市秀英区海榆中线29号万达广场一楼A1008铺,HIA0300-1,海南省,460000,海口市,460100,0898-68614672,,19.986318,110.285779,华南一区
广汽埃安海口南海琼山大道展示中心,海口市江东新区琼山大道192号,HIA0100-2,海南省,460000,海口市,460100,0898-66803235,0898-66800527,20.020527,110.408445,华南一区
广汽埃安海口美兰体验中心,海南省海口市美兰区琼山大道232号,HIA0200,海南省,460000,海口市,460100,0898-68623366,0898-68623366,19.997890,110.418510,华南一区
广汽埃安海口南海儋州展示中心,儋州市那大镇中兴大道14号,HIA0100-5,海南省,460000,海口市,460100,,,19.524341,109.592965,华南一区
广汽埃安海口南海万宁展示中心,海南省万宁市海榆东线华宏医院西侧,HIA0100-6,海南省,460000,海口市,460100,,,18.797775,110.384385,华南一区
广汽埃安三亚迎宾路展示中心,三亚市吉阳区迎宾路清平乐西郡1-5店铺,HIB0100-1,海南省,460000,三亚市,460200,0898-88818936,0898-88818957,18.288870,109.578911,华南一区
广汽埃安三亚吉阳体验中心,海南省三亚市吉阳区诚越汽车产业园4号馆埃安店,HIB0100,海南省,460000,三亚市,460200,0898-88225818,0898-88225865,18.283253,109.574377,华南一区
广汽埃安琼海展示中心,海南省琼海市玉海南路琼海国际汽车城内B4-1馆,HIA0200-2,海南省,460000,琼海市,469002,0898-62931668,0898-62931668,19.278726,110.482472,华南一区
广汽埃安重庆两江光环展示中心,重庆市渝北区湖彩路118号（光环购物公园）,CQA0100-7,重庆市,500000,重庆市,500100,,,29.718200,106.630700,中西大区
广汽埃安重庆渝北体验中心,重庆市北部新区金渝大道99号附2号汽博中心名车广场,CQA0100,重庆市,500000,重庆市,500100,023-88566988,023-86019188,29.648390,106.579343,中西大区
广汽埃安重庆礼嘉爱琴海展示中心,重庆市两江新区金开大道1003号金开爱琴海购物公园,CQA0200-2,重庆市,500000,重庆市,500100,023-67893866,,29.648169,106.554915,中西大区
广汽埃安重庆礼嘉体验中心,重庆两江新区康美街道金渝大道28号,CQA0200,重庆市,500000,重庆市,500100,023-67883866,023-67883868,29.672773,106.516028,中西大区
广汽埃安重庆新牌坊体验中心,重庆市两江新区天宫殿街道红锦大道561号1幢1-1部分,CQA0900,重庆市,500000,重庆市,500100,89181688,89181699,29.611181,106.525994,中西大区
广汽埃安重庆观音桥茂业天地展示中心,重庆江北建新北路16号茂业天地1F,CQA0200-1,重庆市,500000,重庆市,500100,67776099,,29.583910,106.537663,中西大区
广汽埃安重庆机场路体验中心,地址无误,CQA0600,重庆市,500000,重庆市,500100,023-65952200,023-65952211,29.569000,106.558430,中西大区
广汽埃安重庆高九路源著天街展示中心,重庆市江北区龙湖源著天街A馆L1-33,CQA0300-2,重庆市,500000,重庆市,500100,,,29.605415,106.495600,中西大区
广汽埃安重庆鹅岭悦荟展示中心,重庆市江北区红盛路37号重庆悦荟购物中心,CQA0700-1,重庆市,500000,重庆市,500100,,,29.576479,106.503788,中西大区
广汽埃安重庆鹅岭体验中心,重庆市渝中区两路口街道长江一路77号第一层1#、第四层1-1#、第四层1-2#、第四层1-3#,CQA0700,重庆市,500000,重庆市,500100,133302281189,18983956875,29.551836,106.535930,中西大区
广汽埃安重庆南坪协信星光展示中心,重庆南坪协信星光时代广场L3,CQA0100-3,重庆市,500000,重庆市,500100,023-88566988,023-86019188,29.528897,106.578201,中西大区
广汽埃安重庆二郎时代天街城展示中心,重庆市渝中区大坪龙湖时代天街C馆-UG层-20A,CQA0500-1,重庆市,500000,重庆市,500100,,,29.541670,106.519100,中西大区
广汽埃安重庆九龙坡体验中心,重庆市九龙坡区经纬大道1099号,CQA0300,重庆市,500000,重庆市,500100,023-68826333,023-68825333,29.550311,106.493831,中西大区
广汽埃安重庆南坪体验中心,重庆市南岸区南坪镇白鹤路工业园区1号金菱车世界联合厂房附37号,CQA0800,重庆市,500000,重庆市,500100,023-88323999,023-88323666,29.516797,106.564326,中西大区
广汽埃安重庆杨家坪西城天街展示中心,重庆市九龙坡区杨家坪街道龙湖西城天街X馆L1-33,CQA0300-1,重庆市,500000,重庆市,500100,,,29.516629,106.523791,中西大区
广汽埃安重庆二郎体验中心,重庆市九龙坡区二郎火炬大道101号,CQA0500,重庆市,500000,重庆市,500100,023- 88109898,023- 88109868,29.509780,106.474300,中西大区
广汽埃安重庆龙洲体验中心,重庆市巴南区八公里渝南分流道2897号1-1,CQA0400,重庆市,500000,重庆市,500100,023-62190606,023-62192277,29.467739,106.552040,中西大区
广汽埃安重庆两江璧山中央大街展示中心,重庆市璧山区红宇大道23号附162号,CQA0100-6,重庆市,500000,重庆市,500100,,,29.582299,106.229127,中西大区
广汽埃安重庆两江江津美邻汇展示中心,重庆市江津区德泽路21号金科美邻汇L1层124号,CQA0100-4,重庆市,500000,重庆市,500100,,,29.315922,106.261650,中西大区
广汽埃安重庆两江南川万达展示中心,重庆市南川区西城街道办事处渝南大道15号南川万达1A050,CQA0100-5,重庆市,500000,重庆市,500100,,,29.159817,107.090576,中西大区
广汽埃安重庆万州展示中心,重庆市万州区经开大道66号,CQA0100-1,重庆市,500000,重庆市,500100,023-58008189,023-86009718,30.742342,108.361128,中西大区
广汽埃安重庆万州北滨大道展示中心,万州区经开大道66号,CQA3000,重庆市,500000,重庆市,500100,18723772130,023-58008180,30.742342,108.361128,中西大区
广汽埃安重庆龙洲开州融创展示中心,重庆市开州区三中路东150米（融创假日国际）,CQA0400-1,重庆市,500000,重庆市,500100,,,31.188089,108.430734,中西大区
广汽埃安成都高新龙泉驿万达展示中心,四川省成都市龙泉驿区创业北路8号（龙泉驿万达） ,SCA0200-2,四川省,510000,成都市,510100,,,30.569163,104.267471,中西大区
广汽埃安成都龙泉驿体验中心,四川省成都经济技术开发区（龙泉驿区）南二路566号,SCA0600,四川省,510000,成都市,510100,028-67155009,028-61002089,30.559302,104.197541,中西大区
广汽埃安成都金牛凯德魅力城展示中心,成都市成华区万科路（凯德魅力城）,SCA0300-2,四川省,510000,成都市,510100,,,30.629564,104.149763,中西大区
广汽埃安成都成华体验中心,四川省成都市成华区东三环路二段85号,SCA0400,四川省,510000,成都市,510100,13408531577,028-85589013,30.691873,104.169360,中西大区
广汽埃安成都锦江体验中心,成都市锦江区皇经楼路汽车产业园,SCA0100,四川省,510000,成都市,510100,028-6873 8626,028-68738655,30.594846,104.116570,中西大区
广汽埃安成都长缘远大购物展示中心,成都市高新区天府大道南段255号（远大购物中心）,SCA0100-2,四川省,510000,成都市,510100,,,30.531565,104.068318,中西大区
广汽埃安成都金牛招商大魔方展示中心,成都市武侯区天府大道北段1777号（招商大魔方）,SCA0300-3,四川省,510000,成都市,510100,,,30.580270,104.077174,中西大区
广汽埃安成都新都旭辉展示中心,四川省成都市新都区育英路1088号新都旭辉广场1栋附115号,SCA0500-3,四川省,510000,成都市,510100,028-85615366,028-85615399,30.804758,104.184958,中西大区
广汽埃安成都长缘泛悦广场展示中心,成都市成华区昭觉寺南路160号（泛悦城市广场 ）,SCA0100-1,四川省,510000,成都市,510100,,,30.709832,104.108142,中西大区
广汽埃安成都机场路体验中心,成都市高新区新园南一路2号,SCA0200,四川省,510000,成都市,510100,028-85177979,028-67137979,30.603821,104.047106,中西大区
广汽埃安成都益新体验中心,成都市高新区火车南站西路1688号1栋1层1号,SCA0110,四川省,510000,成都市,510100,028-85189111,028-85178383,30.596195,104.035878,中西大区
广汽埃安成都成华保利大都汇展示中心,四川省成都市新都区大天路700号1楼15号 ,SCA0400-4,四川省,510000,成都市,510100,,,30.759081,104.081494,中西大区
广汽埃安成都北星体验中心,四川省成都市新都区大丰街道大天路1000号1栋1-3层01号,SCA0700,四川省,510000,成都市,510100,028-62237990,028-62237980,30.764958,104.071232,中西大区
广汽埃安成都武侯武兴体验中心,四川省成都市武侯区簇桥街道武兴路588号1栋1号,SCA0800,四川省,510000,成都市,510100,028-63283777,028-63283666,30.623477,103.977226,中西大区
广汽埃安成都空港体验中心,四川省成都市双流区东升街道商都路612号1栋1层2号,SCA0900,四川省,510000,成都市,510100,02885156600,02885156600,30.601303,103.945924,中西大区
广汽埃安成都城南成新蒲体验中心,四川省成都市双流区九江街道马家寺7组202号1栋1-1号,SCA0500,四川省,510000,成都市,510100,028-85615366,028-85615399,30.631445,103.957752,中西大区
广汽埃安青羊万达商超展示中心,青羊区日月大道一段978号,SCA0600-2,四川省,510000,成都市,510100,,,30.682280,103.978342,中西大区
广汽埃安成都羊西线体验中心,成都市金牛区蜀西路52号,SCA0300,四川省,510000,成都市,510100,028-82990000,028-82080088,30.724537,103.993587,中西大区
广汽埃安成都城南优品道展示中心,成都市双流区双楠大道白衣上街大道177号城南优品道商场C104商,SCA0500-1,四川省,510000,成都市,510100,028-85615366,028-85615399,30.601823,103.919222,中西大区
广汽埃安自贡贡井体验中心,自贡市贡井区工业开发区C2-02,SCC0100,四川省,510000,自贡市,510300,,,29.336223,104.755071,中西大区
广汽埃安自贡贡井万达展示中心,自贡市自流井区汇川路1699号（万达广场）,SCC0100-1,四川省,510000,自贡市,510300,,,29.331991,104.746369,中西大区
广汽埃安攀枝花花城体验中心,四川省攀枝花市仁和区天宇路83号,SCD0100,四川省,510000,攀枝花市,510400,0812-8880977,0812-6626698,26.534735,101.736544,中西大区
广汽埃安泸州纳溪体验中心,四川省泸州市纳溪区蓝安路三段237号,SCE0100,四川省,510000,泸州市,510500,0830-2886877,0830-2886233,28.832302,105.412802,中西大区
广汽埃安德阳旌阳万达展示中心,四川省德阳市旌阳区庐山北路一段8号德阳万达广场13号楼室内步行街1楼1037号,SCF3000,四川省,510000,德阳市,510600,0838-2538666,0838-2538666,31.164518,104.419079,中西大区
广汽埃安绵阳经开体验中心,四川省绵阳市经开区绵州大道中段6号,SCB0100,四川省,510000,绵阳市,510700,0816-2219111,0816-2219222,31.424063,104.779361,中西大区
广汽埃安绵阳车博汇体验中心,绵阳市高新区辽宁大道汽车博览园新能源汽车城1楼,SCB3100,四川省,510000,绵阳市,510700,0816-2111966,18190000944,31.470112,104.627157,中西大区
广汽埃安广元昭化体验中心,四川省广元市昭化区泉坝村一组,SCH0100,四川省,510000,广元市,510800,0839-3388868,0839-3388868,32.329618,105.969419,中西大区
广汽埃安遂宁高新体验中心,四川省遂宁市船山区中国西部现代物流港玫瑰大道288号,SCJ0100,四川省,510000,遂宁市,510900,,,30.461340,105.572362,中西大区
广汽埃安乐山市中环球中心展示中心,乐山市市中区凤凰路中段112号,SCL0100-1,四川省,510000,乐山市,511100,,,29.595649,103.752095,中西大区
广汽埃安乐山市中展示中心,乐山市市中区龙游路北段518号1幢,SCL0100,四川省,510000,乐山市,511100,,,29.618625,103.742287,中西大区
广汽埃安南充高坪王府井展示中心,四川省南充市高坪区航空港工业集中区林海北路东侧,SCR3000,四川省,510000,南充市,511300,0817-2762888,0817-2762888,30.780306,106.141895,中西大区
广汽埃安南充高坪王府井展示中心,广汽埃安南充高坪王府井五国风情街1-5广汽埃安,SCR3000-1,四川省,510000,南充市,511300,0817-2762888,0817-2762888,30.773749,106.094347,中西大区
广汽埃安眉山东坡体验中心,四川省眉山市东坡区经济开发区新区本草大道南段10号C4幢,SCZ0100,四川省,510000,眉山市,511400,028-35018688,028-35016111,30.048318,103.831788,中西大区
广汽埃安宜宾三江新区体验中心,四川省宜宾市临港经济技术开发区港园大道西段9号中国西南机械装备贸易城A4幢4单元,SCQ3000,四川省,510000,宜宾市,511500,0831-3600839,0831-8888602,28.815082,104.728953,中西大区
广汽埃安达州达川体验中心,四川省达州市达川区杨柳街道中青路14号,SCS3000,四川省,510000,达州市,511700,0818-2971333,0818-2129106,31.175153,107.510935,中西大区
广汽埃安巴中经开万达展示中心,巴中市巴州区秦巴大道西段与白塔路交叉口东北角（巴中万达）,SCY0100-1,四川省,510000,巴中市,511900,,,31.847742,106.783440,中西大区
广汽埃安巴中经开体验中心,巴中市经开区秦巴大道杨家沟段先锋汽车产业园埃安店,SCY0100,四川省,510000,巴中市,511900,0827-8631999,0827-8667755,31.854583,106.812693,中西大区
广汽埃安西昌富远时代广场展示中心,西昌市航天大道三段时代广场,SCW3000-1,四川省,510000,凉山彝族自治州,513400,,,27.884961,102.258282,中西大区
广汽埃安西昌机场路展示中心,四川省西昌市机场路一段5号,SCW3000,四川省,510000,凉山彝族自治州,513400,0834-2165566,0834-3282345,27.906525,102.215627,中西大区
广汽埃安贵阳观山湖汽车公园体验中心,贵州省贵阳市观山湖金阳街道林城西路248号,GZA0300,贵州省,520000,贵阳市,520100,,,26.649661,106.617653,华南一区
广汽埃安贵阳观山湖云岩万达展示中心,贵州省贵阳市云岩区新添大道南段302号(云岩万达),GZA0100-1,贵州省,520000,贵阳市,520100,,,26.623245,106.739509,华南一区
广汽埃安贵阳观山湖体验中心,贵州省贵阳市观山湖区野鸭乡新寨村218号,GZA0100,贵州省,520000,贵阳市,520100,0851-86300800,0851-86300500,26.610639,106.665913,华南一区
广汽埃安贵阳南环体验中心,贵州省贵阳市经济技术开发区平桥街道办事处西南环线与中曹司大桥交汇处贵阳信城汽车贸易有限公司汽贸中心2号展厅,GZA0200,贵州省,520000,贵阳市,520100,0851-85660020,0851-86854656,26.503539,106.682039,华南一区
广汽埃安贵阳花溪体验中心,贵阳市花溪区孟关乡汽车贸易城,GZA6000,贵州省,520000,贵阳市,520100,0851-83635888,0851-83713388,26.410058,106.754447,华南一区
广汽埃安遵义汇川体验中心,贵州省遵义市汇川区汽车商贸城,GZC3100,贵州省,520000,遵义市,520300,0851-28219000,0851-28622318,27.778803,106.922006,中西大区
广汽埃安遵义汇川吾悦展示中心,遵义市红花岗区忠庄镇共青大道1号（吾悦广场）,GZC3100-1,贵州省,520000,遵义市,520300,,,27.657612,106.891853,华南一区
广汽埃安安顺西秀体验中心,贵州省安顺市西秀区新安街道两六路旁跃骏汽车产业园内,GZG0100,贵州省,520000,安顺市,520400,18690785241,17685379741,26.285325,106.008221,中西大区
广汽埃安毕节七星关展示中心,贵州省毕节市七星关区麻园街道学院路91号东客站内,GZF3000,贵州省,520000,毕节市,520500,0857-8708867,0857-8253858,27.312197,105.308517,华南一区
广汽埃安铜仁碧江体验中心,贵州省铜仁市碧江区灯塔武陵山国际汽车城仁惠路8号,GZD0100,贵州省,520000,铜仁市,520600,0856-6972333,0856-6982333,27.443100,109.144500,华南一区
广汽埃安黔西南兴义体验中心,贵州省黔西南布依族苗族自治州兴义市坪东街道坪东西路35号,GZE0100,贵州省,520000,黔西南布依族苗族自治州,522300,0859-3818866,0859-3818866,25.556540,104.521602,华南一区
广汽埃安兴义良驹梦乐城商超展示中心,贵州省黔西南州兴义市碧云路与桔香路交汇处（梦乐城）,GZE0100-1,贵州省,520000,黔西南布依族苗族自治州,522300,,,25.113652,104.923367,中西大区
广汽埃安凯里经开国贸商超展示中心,贵州省黔东南苗族侗族自治州凯里市北京西路21号（国贸购物中心）,GZH0100-1,贵州省,520000,黔东南苗族侗族自治州,522600,,,26.587410,107.979634,中西大区
广汽埃安凯里经开体验中心,贵州省黔东南州凯里经济开发区金源西大道5号 经纬汽车城8栋8号(原斯柯达4S店),GZH0100,贵州省,520000,黔东南苗族侗族自治州,522600,0855-8316518,0855-8316928,26.525186,107.866263,华南一区
广汽埃安昆明盘龙体验中心,昆明市盘龙区北京路都市车迷,YNA0300,云南省,530000,昆明市,530100,0871-68052000,0871-68053900,25.078411,102.729300,华南一区
广汽埃安昆明长盈爱琴海展示中心,云南省昆明市盘龙区瑞鼎城爱情海B棺6号口,YNA3000-1,云南省,530000,昆明市,530100,,,25.058157,102.739882,华南一区
广汽埃安昆明英茂宜家商超展示中心,昆明市五华区王筇路168号宜家家居一层荟聚F2 宜家荟聚,YNA0200-1,云南省,530000,昆明市,530100,,,25.094404,102.671686,中西大区
广汽埃安昆明小屯体验中心,云南省昆明高新区二环西路西侧小屯汽车城内3号地,YNA0200,云南省,530000,昆明市,530100,0871-68329122,0871-68332922,25.080020,102.671805,华南一区
广汽埃安昆明西山大悦城展示中心,云南省昆明市西山区环城南路618号（大悦城）,YNA3200-1,云南省,530000,昆明市,530100,,,25.028683,102.720002,华南一区
广汽埃安昆明西山展示中心,云南省昆明市西山区大悦城C区14号门,YNA3200,云南省,530000,昆明市,530100,0871-63334818,0871-68323330,25.028310,102.694282,华南一区
广汽埃安昆明西山碧鸡呈贡吾悦展示中心,云南省昆明市呈贡区彩云中路299号（呈贡吾悦）,YNA0100-1,云南省,530000,昆明市,530100,,,24.901942,102.803782,华南一区
广汽埃安昆明西山碧鸡体验中心,云南省昆明市西山区碧鸡汽车博览园4-1号,YNA0100,云南省,530000,昆明市,530100,0871-65108777,0871-68400066,24.999007,102.631564,华南一区
广汽埃安昆明经开展示中心,云南省昆明市官渡区经开区管委会博旺路F10号,YNA3000,云南省,530000,昆明市,530100,0871-63181988,0871-63181984,24.576000,102.481900,华南一区
广汽埃安普洱思茅体验中心,云南省普洱市思茅区思茅街道北郊社区居民委员会德化路第三号路（北部商业区西侧）,YNJ0100,云南省,530000,昆明市,530100,0879-2826608,18987927929,22.829470,100.983709,中西大区
广汽埃安曲靖开发区体验中心,云南省曲靖市西城街道办事处学府路172号,YND0100,云南省,530000,曲靖市,530300,0874-3250398,0874-3258428,25.523708,103.764922,中西大区
广汽埃安玉溪驰瑞万达商超展示中心,玉溪市市红塔区棋阳路66号（万达广场）,YNF0100-1,云南省,530000,玉溪市,530400,,,24.358917,102.553363,中西大区
广汽埃安玉溪腾霄体验中心,云南省玉溪市高新区腾霄路4号,YNF0100,云南省,530000,玉溪市,530400,0877-2686888,0877-6982888,24.328641,102.530740,中西大区
广汽埃安红河蒙自体验中心,云南省红河州蒙自市经济技术开发区生物资源加工区（州一中斜对面）,YNG0100,云南省,530000,红河哈尼族彝族自治州,532500,0873-3806888,0873-3728666,23.363264,103.153810,中西大区
广汽埃安文山东文体验中心,云南省文山壮族苗族自治州文山市新平街道红旗社区城南亚太车城后门环城东路,YNH0100,云南省,530000,文山壮族苗族自治州,532600,0876-3062111,0876-3062119,23.362874,104.279242,中西大区
广汽埃安西双版纳景洪体验中心,云南省西双版纳傣族自治州景洪市景洪农场原三分场电影院旁,YNK0100,云南省,530000,西双版纳傣族自治州,532800,0691-6633336,0691-6633332,22.004981,100.789701,中西大区
广汽埃安大理埃安体验中心,满江关宾路以北菠萝江以西,YNL0100,云南省,530000,大理白族自治州,532900,0872-2318088,0872-2399778,25.616359,100.306373,华南一区
广汽埃安西安太华体验中心,陕西省西安市经济技术开发区凤城五路99号院内,SNA0300,陕西省,610000,西安市,610100,029-81318686,029-81319911,34.195500,108.554200,华北二区
广汽埃安西安南城体验中心,西安市长安区普新二路普洛斯西安高新产业园A5库,SNA3100,陕西省,610000,西安市,610100,029-81106966,17792593616,34.193055,108.831873,华北二区
广汽埃安西安南城立丰城展示中心,西安市雁塔区丈八东路与子午大道交叉口立丰城生活广场一层1-1027,SNA3100-1,陕西省,610000,西安市,610100,17792593616,17792593616,34.203707,108.910981,华北二区
广汽埃安西安南城兰岛展示中心,西安市雁塔区科技六路与白沙路十字交叉口（兰岛广场）,SNA3100-2,陕西省,610000,西安市,610100,,,34.216609,108.907862,华北二区
广汽埃安西安西环小寨银泰展示中心,西安市雁塔区小寨西路26号小寨银泰城,SNA0400-1,陕西省,610000,西安市,610100,,,34.229751,108.947087,华北二区
广汽埃安太白印象城展示中心,西安市碑林区二环南路西段155号太白印象城,SNA0100-4,陕西省,610000,西安市,610100,,,34.241074,108.928517,华北二区
广汽埃安西安浐灞盛安广场展示中心,陕西省西安市碑林区含光北路107号（盛安广场）,SNA0200-1,陕西省,610000,西安市,610100,,,34.243883,108.928497,华北二区
广汽埃安西安沣东新城体验中心,陕西省西安市未央区三桥天台西路55号,SNA0100,陕西省,610000,西安市,610100,029-85796777,029-85796777,34.287958,108.826497,华北二区
广汽埃安西安东环王府井展示中心,西安市碑林区长安北路188号王府井永安宁购物中心内,SNA3300-1,陕西省,610000,西安市,610100,,,34.248807,108.941401,华北二区
广汽埃安西安东城体验中心,陕西省西安市灞桥区东南三环交汇处东城高端汽车主题公园,SNA0500,陕西省,610000,西安市,610100,029-83510666,029-83510666,34.227632,109.062203,中西大区
广汽埃安西安太华鑫苑大都汇展示中心,西安市莲湖区丰禾路251号鑫苑大都汇购物中心,SNA0300-2,陕西省,610000,西安市,610100,,,34.287943,108.906163,中西大区
广汽埃安西安沣东新城民乐万达展示中心,西安市新城区解放路111号（民乐园万达）,SNA0100-5,陕西省,610000,西安市,610100,,,34.274440,108.970864,华南二区
广汽埃安西安西环体验中心,西安市西咸新区沣东新城西三环与石化大道十字向北200米路西,SNA0400,陕西省,610000,西安市,610100,029-89308931,029-89308835,34.330886,108.853919,华南二区
广汽埃安西安太华幸福林带展示中心,西安市新城区万寿中路59号（幸福林带）,SNA0300-1,陕西省,610000,西安市,610100,,,34.270840,109.022273,华北二区
广汽埃安西安未央展示中心,陕西省西安市未央区未央路盛龙广场一层南区1F1030号商铺,SNA0100-2,陕西省,610000,西安市,610100,029-85796777,029-85796777,34.305332,108.949203,华北二区
广汽埃安西安大明宫万达展示中心,西安市未央区太华北路369号（大明宫万达）,SNA0100-3,陕西省,610000,西安市,610100,029-85796777,029-85796777,34.321301,108.980340,华北二区
广汽埃安西安浐灞体验中心,陕西省西安市浐灞生态区东三环立交通源路1680号浐灞汽车主题公园以内6号,SNA0200,陕西省,610000,西安市,610100,,,34.306213,109.056996,华北二区
广汽埃安西咸沣西展示中心,陕西省咸阳市秦都区统一西路643号,SND3000-1,陕西省,610000,咸阳市,610400,029-33139355,029-33139355,34.305987,108.721693,华北二区
广汽埃安咸阳西咸展示中心,陕西省咸阳市秦都区北上召汽车产业园汽车大道十字西130米,SND3000,陕西省,610000,咸阳市,610400,029-33116769,029-33116602,34.372025,108.681939,华北二区
广汽埃安渭南高新体验中心,陕西省渭南市高新技术产业开发区乐天大街西段88号广汽西北物流配送园区3号展厅,SNE0100,陕西省,610000,渭南市,610500,18220932668,18220932668,34.499310,109.442673,华北二区
广汽埃安延安宝塔展示中心,延安市宝塔区南二十里铺柳树巷金领世家,SNJ3000,陕西省,610000,延安市,610600,0911-2860808,0911-8870770,36.517216,109.473929,华北二区
广汽埃安汉中天汉体验中心,陕西省汉中市汉台区铺镇西汉高速公路引道天汉智慧车城内A5号商铺,SNF0100,陕西省,610000,汉中市,610700,0916-2813882,19991382200,33.085634,107.117289,中西大区
广汽埃安榆林榆阳体验中心,陕西省榆林市榆阳区汽车产业园榆麻路88号,SNK0100,陕西省,610000,榆林市,610800,0912-3610999,0912-3610509,38.343139,109.873507,中西大区
广汽埃安兰州城关展示中心,甘肃省兰州市城关区北滨河东路88号（西北汽车商城内-2）,GSA3100,甘肃省,620000,兰州市,620100,0931-7650222,0931-7650222,36.074571,103.854381,华北二区
广汽埃安兰州盐场路兰州中心展示中心,广汽埃安兰州中心商超店,GSA3100-1,甘肃省,620000,兰州市,620100,,,36.075060,103.781369,华北二区
广汽埃安庆阳西峰体验中心,甘肃省庆阳市西峰区庆化大道81号,GSM0100,甘肃省,620000,庆阳市,621000,0934-6660688,0934-6660388,35.757027,107.630632,华北二区
广汽埃安西宁东川工业园展示中心,青海省西宁市东川工业园昆仑东路6号,QHA3000,青海省,630000,西宁市,630100,0971-8205332,0971-8227980,36.573809,101.865277,华北二区
广汽埃安银川贺兰工业园区展示中心,宁夏贺兰工业园区永胜西路1号,NXA3000,宁夏回族自治区,640000,银川市,640100,0951-8863777,0951-5086177,38.547455,106.325829,华北二区
广汽埃安乌鲁木齐新市展示中心,乌鲁木齐高新区（新市区）长春北路668号乌鲁木齐高新万达广场室内步行街1F层1018号商铺乌鲁木齐高新区（新市区）长春北路668号乌鲁木齐高新万达广场室内步行街1F层1018号商铺,XJA3000,新疆维吾尔自治区,650000,乌鲁木齐市,650100,0991-6870060,0991-6870060,43.916444,87.578730,华北二区
