address,cityName,cityCode,lat,lng,provinceName,provinceCode,storeCode,storeName,serviceMobile,storeTypeName,mobile
四川省成都市金牛区被三环路一段111号14栋1层101/102/103,成都市,510100,30.711411,104.022692,四川,510000,C951AAS01,小鹏汽车成都天府艺术公园体验中心,,体验中心,028-87500673
成都市金牛区一环路北三段1号1栋【1F】层【综合楼C-1F-D-B】号,成都市,510100,30.69,104.08,四川,510000,C951AAS03,小鹏汽车成都金牛万达体验中心,,体验中心,028-86736707
浙江省丽水市莲都区岩泉街道花园路16号万地广场【1】层【007A】号商铺,丽水市,331100,28.4622,119.925003,浙江,330000,RS3301100,小鹏汽车丽水万地广场体验中心,,体验中心,05782616880
北京市朝阳区西大望路甲22号院1号楼合生汇购物中心5层,北京市,110100,39.894001,116.478996,北京,110000,C911AOS02,小鹏汽车北京合生汇体验中心,,体验中心,01067722426
河南省开封市金明大道与魏都路交叉口向北200米博奥新能源汽车广场,开封市,410200,34.802892,114.314594,河南,410000,RS4101100,小鹏汽车开封博奥汽车城体验中心,,体验中心,0371-23313000
成都市郫都区创智北环路与创智东一路交口东140米一层龙湖蜀新天街1F-38,成都市,510100,30.79068,103.901495,四川,510000,RS5102021,小鹏汽车成都龙湖蜀新天街体验中心,,体验中心,028-60801690
厦门市思明区金山路7号宝龙一城二期2-3号楼第L1层M1-L1-008-2,厦门市,350200,24.486789,118.173725,福建,350000,C935DAS01,小鹏汽车厦门宝龙一城体验中心,,体验中心,05925535053
河北省衡水市桃城区育才南大街1033号爱琴海购物公园L1-03,衡水市,131100,37.717131,115.667904,河北,130000,RS1300700,小鹏汽车衡水爱琴海体验中心,,体验中心,0318-699 9992
深圳市福田区滨河大道9289号KK ONE 一楼 L162/163 小鹏汽车,深圳市,440300,22.528,114.027,广东,440000,S4454,小鹏汽车深圳KKONE体验中心,,体验中心,075582777072
江苏省常州市天宁区天宁吾悦广场1楼1042号,常州市,320400,31.7647,120.010002,江苏,320000,C932DAS01,小鹏汽车常州天宁吾悦广场体验中心,,体验中心,051988117188
河南省新乡市红旗区金穗大道宝龙广场一层014-015号,新乡市,410700,35.295127,113.921535,河南,410000,C941GAS01,小鹏汽车新乡宝龙广场体验中心,,体验中心,0373-3722288
上海市沪闵路7388号上海友谊南方商城1层1-003室,上海市,310100,31.1315,121.401001,上海,310000,C931AAS01,小鹏汽车上海百联南方体验中心,,体验中心,18301977489
广州市增城区新塘镇顺欣社区新福路9号万达广场1L-1060号,广州市,440100,23.152901,113.617996,广东,440000,S4459,小鹏汽车广州新塘万达广场体验中心,,体验中心,02083322914
双庆路8号万象城二期L1层C-141号,成都市,510100,30.6497,104.115997,四川,510000,S5108,小鹏汽车成都万象城体验中心,,体验中心,028-60801161
上海市浦东新区张杨路2389弄1-2号置汇旭辉广场S5-1F-33B号商铺,上海市,310100,31.241699,121.556,上海,310000,RS3102000,小鹏汽车上海LCM置汇旭辉广场体验中心,,体验中心,02150339720
福州市闽侯县高新万达广场一楼1050-1051商铺小鹏汽车展厅,福州市,350100,25.996401,119.226997,福建,350000,RS3502200,小鹏汽车福州高新万达广场体验中心,,体验中心,0591-83205670
上海市宝山区顾村镇丹霞山路50弄龙湖宝山天街1F-01号商铺,上海市,310100,31.359345,121.361529,上海,310000,RS3102300,小鹏汽车上海龙湖宝山天街体验中心,,体验中心,02136215816
广东省中山市小榄镇怡丰东路3号汇丰城L1-A1-5,中山市,442000,22.620701,113.264999,广东,440000,RS4408700,小鹏汽车中山小榄汇丰城体验中心,,体验中心,076089882899
宜春市袁州区万达广场一楼1031号店铺,宜春市,360900,27.8057,114.425003,江西,360000,RS3600400,小鹏汽车宜春万达广场体验中心,,体验中心,07953658886
苏州市工业园区中新大道东999号苏州奥林匹克体育中心奥体商业广场 L1-31/32,苏州市,320500,31.305201,120.749001,江苏,320000,C932EAS01,小鹏汽车苏州奥体商业广场体验中心,,体验中心,051283577099
郑州市金水区东风路与花园路交汇处正弘城独栋D4-101,郑州市,410100,34.797001,113.681999,河南,410000,C941AAS04,小鹏汽车郑州正弘城体验中心,,体验中心,037189996557
安徽省阜阳市开发区朝阳大道与汽贸路交叉口南侧2＃4S店,阜阳市,341200,32.843041,115.857939,安徽,340000,RS3400800,小鹏汽车阜阳朝阳大道销售服务中心,0558-7158808,体验和服务中心,0558- 6688018
文忠街333号万达广场1层1009号,眉山市,511400,30.0728,103.838997,四川,510000,RS5100700,小鹏汽车眉山万达广场体验中心,,体验中心,02837605252
佛山市南海区石龙南路与佛平四路交叉口南海环宇城一层L134B,佛山市,440600,23.0329,113.188004,广东,440000,C944E0S03,小鹏汽车佛山南海环宇城体验中心,,体验中心,0757-86259257
湖北省武汉市江汉区唐家墩路5号武汉菱角湖万达广场1F1-5，1-6A,武汉市,420100,30.610399,114.269997,湖北,420000,C942AOS02,小鹏汽车武汉菱角湖万达体验中心,,体验中心,02785535515
广东省佛山市顺德区东平裕和路110号爱琴海F1007&F1008,佛山市,440600,22.964436,113.130311,广东,440000,RS4401900,小鹏汽车佛山顺德爱琴海体验中心,,体验中心,0757-28831321
山东省临沂市河东区温泉路与北京东路交汇处远通汽车超市小鹏汽车,临沂市,371300,35.098301,118.429001,山东,370000,C937QAS01,小鹏汽车临沂北京东路销售服务中心,0539-8389899,体验和服务中心,05397675071
广东省佛山市禅城区魁奇一路9号新DNA购物中心首层126号商铺,佛山市,440600,22.9939,113.108002,广东,440000,C944EAS01,小鹏汽车佛山新DNA体验中心,,体验中心,13318398979
浙江省绍兴市解放南路777号金帝银泰城1幢1F93号,绍兴市,330600,29.985201,120.580002,浙江,330000,C933DAS01,小鹏汽车绍兴银泰城体验中心,,体验中心,057589106660
云龙山路与楠溪江东街交汇处河西天街-1F-21a,南京市,320100,31.9883,118.737999,江苏,320000,S3223,小鹏汽车南京龙湖河西天街体验中心,,体验中心,02586665836
武汉市东西湖区金银湖街环湖中路东、田园东路北A-3栋1层1室,武汉市,420100,30.673235,114.172438,湖北,420000,RS2202421,小鹏汽车武汉东西湖销售服务中心,18164020383,体验和服务中心,027-83217103
揭阳市榕城区榕东街道南厝社区临江南路888号L1-1021,揭阳市,445200,23.561701,116.397003,广东,440000,RS4401000,小鹏汽车揭阳万达广场体验中心,,体验中心,06638661288
江苏省常州市钟楼区棕榈路37号,常州市,320400,31.7873,119.886002,江苏,320000,RS3202601,小鹏汽车常州钟楼汽车城销售服务中心,0519-86668327,体验和服务中心,0519-8561 8327
"杭州市西湖区余杭塘路蒋墩路交汇口A-1F-06b,A-1F-07a号",杭州市,330100,30.294399,120.068001,浙江,330000,RS3304200,小鹏汽车杭州龙湖西溪天街体验中心,,体验中心,057186687968
上海市虹口区西江湾路388号虹口凯德龙之梦购物中心B01-02/03/04,上海市,310100,31.2707,121.477997,上海,310000,C931AAS02,小鹏汽车上海凯德龙之梦体验中心,,体验中心,02156982957
北京市朝阳区成寿寺路66号,北京市,110100,39.843102,116.445999,北京,110000,C911AOW01S,小鹏汽车北京成寿寺销售服务中心,010-87610266,体验和服务中心,01087669963
温州市瓯海区娄桥街道瓯融汽车产业园1号,温州市,330300,27.965861,120.629863,浙江,330000,C933CAS02,小鹏汽车温州瓯海国际汽车城销售服务中心,13353361551,体验和服务中心,057788815999
广东省肇庆市鼎湖区桃园路东16号肇庆鼎湖万达广场1F1035号商铺,肇庆市,441200,23.141199,112.563004,广东,440000,RS4409600,小鹏汽车肇庆万达广场体验中心,,体验中心,07582620666
湖南省长沙市开福区湘江中路589号万达广场室内步行街1F-07、08A号商铺,长沙市,430100,28.198299,112.970001,湖南,430000,C943AOS01,小鹏汽车长沙开福万达体验中心,,体验中心,073182275508
浙江省湖州市吴兴区吾悦广场1F-1032/10商铺小鹏汽车,湖州市,330500,30.910299,120.100998,浙江,330000,C933EOS01,小鹏汽车湖州吾悦广场体验中心,,体验中心,05722037506
广东省深圳市福田区沙头街道金城社区红树林路3号联合华鹏竹子林汽车城市展厅二层B3-1,深圳市,440300,22.530815,114.001218,广东,440000,RS4409723,小鹏汽车深圳竹子林体验中心,,体验中心,0755-23727251
吉林省长春市朝阳区延安大街99号欧亚新生活购物广场,长春市,220100,43.864101,125.306,吉林,220000,RS2200100,小鹏汽车长春欧亚新生活体验中心,,体验中心,043182887000
湖北省恩施市施州大道168号和润城一楼小鹏汽车体验中心,恩施土家族苗族自治州,422800,30.2969,109.484001,湖北,420000,RS4202000,小鹏汽车恩施和润城体验中心,,体验中心,07188208881
陕西省西安市未央区未央路170号CITYON熙地港L1-024&025,西安市,610100,34.338299,108.945,陕西,610000,RS6101200,小鹏汽车西安熙地港体验中心,,体验中心,02989299251
宁夏银川市贺兰县德胜工业园区恒安南街163号小鹏汽车,银川市,640100,38.542,106.321999,宁夏,640000,RS6400101,小鹏汽车银川德胜销售服务中心,0951-8639089,体验和服务中心,0951-8639086
浙江省温州市龙湾区高一路178号小鹏汽车展厅,温州市,330300,27.968194,120.723291,浙江,330000,C933CAS03,小鹏汽车温州龙湾销售服务中心,0577-85805866,体验和服务中心,057785620699
浙江省杭州市临平区荷禹路105号万宝城商场1楼A130铺位,杭州市,330100,30.432479,120.284624,浙江,330000,RS2204522,小鹏汽车杭州临平万宝城体验中心,,体验中心,0571-2826 0301
湖南省长沙市长沙县东四路与特立路489号长沙松雅湖新城吾悦广场1023铺,长沙市,430100,28.253099,113.100998,湖南,430000,C943AAS01,小鹏汽车长沙新城吾悦体验中心,,体验中心,4008315656
广东省佛山市禅城区祖庙大街2号岭南天地ZM201,佛山市,440600,23.029927,113.116275,广东,440000,RS4401300,小鹏汽车佛山岭南天地体验中心,,体验中心,0757-86259860
天津市滨海新区洞庭路4572号万达广场一层1052号,天津市,120100,39.015598,117.68,天津,120000,RS1200700,小鹏汽车天津滨海万达广场体验中心,,体验中心,02227110777
广州市番禺区福德路281号奥园广场1F层129、130号,广州市,440100,22.9244,113.358002,广东,440000,RS4407300,小鹏汽车广州番禺奥园广场体验中心,,体验中心,02084504655
"福建省泉州市晋江万达广场一楼1031A,1031B",泉州市,350500,24.818199,118.573997,福建,350000,RS3500200,小鹏汽车泉州晋江万达广场体验中心,,体验中心,059582082586
北京市大兴区荣华中路8号,北京市,110100,39.806198,116.501999,北京,110000,C911AOS07,小鹏汽车北京华联力宝体验中心,,体验中心,01067863831
广东省东莞市南城街道莞太路南城段233号,东莞市,441900,22.999766,113.730006,广东,440000,RS4409823,小鹏汽车东莞南城汽车城体验中心,,体验中心,0769-23304588
东莞市大朗镇富民中路与长顺大街交汇处碧桂园里悦里L1127-129,东莞市,441900,22.93394,113.926817,广东,440000,RS4410700,小鹏汽车东莞大朗里悦里体验中心,,体验中心,0769-83198222
东莞市虎门镇博涌社区连升北路388号虎门万达广场1F-1037B,东莞市,441900,22.834101,113.683998,广东,440000,C944SAS01,小鹏汽车东莞虎门万达广场体验中心,,体验中心,076928685688
重庆市南岸区江南大道28号南坪协信星光4F-018/019,重庆市,500100,29.523001,106.57,重庆,500000,RS5001100,小鹏汽车重庆南坪协信星光体验中心,,体验中心,02362320078
山东省济宁市高新区爱琴海购物公园一楼1033A1033B号商铺,济宁市,370800,35.423925,116.695033,山东,370000,RS3703400,小鹏汽车济宁爱琴海体验中心,,体验中心,0537-2377787
南京市建邺区江东中路南京建邺吾悦广场1层1022号商铺小鹏汽车,南京市,320100,32.037201,118.736,江苏,320000,RS3201000,小鹏汽车南京建邺吾悦广场体验中心,,体验中心,02583111909
上海市松江工业区美能达路316号,上海市,310100,31.0243,121.251999,上海,310000,RS3102401,小鹏汽车上海松江销售服务中心,021-57630612,体验和服务中心,02157631022
广东省广州市海珠区科韵南路133号自编1号,广州市,440100,23.0902,113.374001,广东,440000,C944AOW01S,小鹏汽车广州琶洲销售服务中心,020-31959569,体验和服务中心,020-22281196
湖南省长沙市岳麓区学士街道云栖路599号艾邦科技产业园1栋101号,长沙市,430100,28.141046,112.900037,湖南,430000,RS4301621,小鹏汽车长沙洋湖销售服务中心,0731-89780000,体验和服务中心,0731-89780000
上海市奉贤区金汇镇南行港路388号-1F-38铺,上海市,310100,30.968886,121.511153,上海,310000,RS3102900,小鹏汽车上海龙湖金汇天街体验中心,,体验中心,021-37519390
上海市静安区南京西路762号汇银大厦1楼C单元,上海市,310100,31.231199,121.462997,上海,310000,C931AOS07,小鹏汽车上海南京西路旗舰体验中心,,体验中心,021-37787517
南京市雨花台区应天大街619号南京虹悦城1F-W01,南京市,320100,32.009547,118.764209,江苏,320000,RS3203822,小鹏汽车南京江南虹悦城体验中心,,体验中心,025-85339606
陕西省西咸新区沣东新城吾悦广场1039/1052,咸阳市,610400,34.2537,108.822998,陕西,610000,RS6100900,小鹏汽车咸阳吾悦广场体验中心,,体验中心,02986382188
浙江省杭州市富阳区金桥北路990号万达广场一楼1072B&1073,杭州市,330100,30.089701,119.932999,浙江,330000,RS3303900,小鹏汽车杭州富阳万达广场体验中心,,体验中心,057186985801
浙江省台州市路桥区方林汽车城B828号,台州市,331000,28.554501,121.387001,浙江,330000,S3325,小鹏汽车台州方林汽车城体验中心,,体验中心,057682680777
海南省海口市龙华区迎宾大道18号新城吾悦广场1F，1025-1、1026-1铺位,海口市,460100,19.977317,110.337646,海南,460000,RS2200822,小鹏汽车海口吾悦广场体验中心,,体验中心,0898-66802045
广东省清远市清城区人民一路28号顺盈时代广场商业中心1-3号首层1250、1252号,清远市,441800,23.6758,113.066002,广东,440000,RS4408300,小鹏汽车清远顺盈时代广场体验中心,,体验中心,07633896960
深圳市龙华区观澜街道新澜社区观光路1319-4号201,深圳市,440300,22.723179,114.034598,广东,440000,RS4408501,小鹏汽车深圳观澜汽车城销售服务中心,0755-29536888,体验和服务中心,0755-29037888
福建省福州市鼓楼区杨桥中路277号,福州市,350100,26.0793,119.278,福建,350000,RS3501701,小鹏汽车福州鼓楼销售服务中心,18120908185,体验和服务中心,059183705107
江苏省连云港市海州区宁海华人华侨工业园迎宾大道3号,连云港市,320700,34.549187,119.227884,江苏,320000,RS3201700,小鹏汽车连云港瀛洲路销售服务中心,0518-85910166,体验和服务中心,0518-85910299
江苏省南京市浦口区大桥北路48号弘阳广场B1区1F-40C铺位,南京市,320100,32.137722,118.724649,江苏,320000,RS3201800,小鹏汽车南京弘阳广场体验中心,,体验中心,025-58881787
郑州市金水区金水东路80号新田360广场一楼西厅A125,郑州市,410100,34.7701,113.767998,河南,410000,C941AOM01,小鹏汽车郑州绿地新都会360体验中心,,体验中心,037186170656
辽宁省沈阳市铁西区北二西路20-1号小鹏汽车,沈阳市,210100,41.8176,123.346001,辽宁,210000,C921AOS01,小鹏汽车沈阳铁西销售服务中心,024-25863310,体验和服务中心,02425866810
武汉市江夏区藏龙岛九凤街1号金鑫龙腾汽车园,武汉市,420100,30.431499,114.414001,湖北,420000,RS4202201,小鹏汽车武汉光谷销售服务中心,18971250383,体验和服务中心,02759105803
江西省南昌市西湖区朝阳天虹商场1楼1024铺,南昌市,360100,28.6353,115.863998,江西,360000,RS3600500,小鹏汽车南昌朝阳天虹商场体验中心,,体验中心,079188860882
湖南省衡阳市蒸湘区蔡伦大道杨柳汽贸城小鹏园区,衡阳市,430400,26.872601,112.574997,湖南,430000,RS4300800,小鹏汽车衡阳杨柳汽贸城销售服务中心,,体验中心,07348256766
广东省中山市小榄镇坦背西二马路177号,中山市,442000,22.576694,113.322752,广东,440000,C944TAA01,小鹏汽车中山西区销售服务中心,0760-23231523,体验和服务中心,076088160163
上海市嘉定区南翔镇陈翔公路2299号印象城MEGA 01-21店铺,上海市,310100,31.304468,121.306317,上海,310000,C931AOM03,小鹏汽车上海印象城MeGa体验中心,,体验中心,021-59555712
重庆市渝北区两港大道圣聪路8号,重庆市,500100,29.647992,106.617068,重庆,500000,RS5001200,小鹏汽车重庆西南国际汽贸城销售服务中心,19123100439,体验和服务中心,023-86023123
广东省东莞市樟木头镇樟罗社区永宁街1号L1-122,东莞市,441900,22.904301,114.067001,广东,440000,RS4408600,小鹏汽车东莞樟木头天和CITY体验中心,,体验中心,076981280369
上海市闵行区七莘路1507号莘庄维璟印象城 01-015&016号,上海市,310100,31.130899,121.363998,上海,310000,RS3102500,小鹏汽车上海莘庄维璟印象城体验中心,,体验中心,02154153251
小河街道丽水路58号乐堤港 B04 1F 层 A196,杭州市,330100,30.305599,120.141998,浙江,330000,S3330,小鹏汽车杭州远洋乐堤港体验中心,,体验中心,057181955657
岳阳市城陵矶新港区联港路以西汽车城内,岳阳市,430600,29.4217,113.172997,湖南,430000,RS4301000,小鹏汽车岳阳临港汽车城销售服务中心,0730-8795666,体验和服务中心,07308695666
江苏省南通市崇川区北大街111号万象城购物中心1层-L146号商铺,南通市,320600,32.051601,120.859001,江苏,320000,RS3201400,小鹏汽车南通万象城体验中心,,体验中心,051385505188
福建省厦门市湖里区东港北路海上世界购物中心L1层L147号铺（2号门入口处）,厦门市,350200,24.489641,118.076024,福建,350000,RS3502122,小鹏汽车厦门海上世界体验中心,,体验中心,0592-5666135
深圳市宝安区沙井京基百纳购物广场L1层103号店面,深圳市,440300,22.727301,113.806,广东,440000,C944BAS03,小鹏汽车深圳宝安京基百纳体验中心,,体验中心,075527905052
四川省南充市高坪区江东大道中路五段(白塔公园旁)王府井购物中心1F-1,南充市,511300,30.787001,106.103996,四川,510000,RS5101400,小鹏汽车南充王府井体验中心,,体验中心,08173570588
贵州省贵阳市云岩区新添大道南段302号万达广场1F1031,贵阳市,520100,26.619125,106.742935,贵州,520000,RS5200300,小鹏汽车贵阳云岩万达广场体验中心,,体验中心,0851-86305056
河北省保定市莲池区东二环422号贺阳中学北行500米路西,保定市,130600,38.827761,115.535462,河北,130000,C913FAS01,小鹏汽车保定东二环销售服务中心,0312-2168303,体验和服务中心,0312-6663737
北京市房山区长阳镇龙湖熙悦天街B-1F-08,北京市,110100,39.7337,116.184998,北京,110000,S1117,小鹏汽车北京龙湖熙悦天街体验中心,,体验中心,01069366873
福州市仓山区胪安路与胪中路交叉路口阳光天地L1007,福州市,350100,25.986799,119.385002,福建,350000,RS3501200,小鹏汽车福州南站阳光天地体验中心,,体验中心,059187803316
山东省济宁市任城区太白东路55号,济宁市,370800,35.408298,116.603996,山东,370000,S3716,小鹏汽车济宁太白路万达广场体验中心,,体验中心,05372366066
江苏省扬州市邗江区京华城路168号京华城广场1F14012号铺位,扬州市,321000,32.38,119.37,江苏,320000,S3216,小鹏汽车扬州京华城体验中心,,体验中心,0514-83265995
山东省青岛市市南区山东路6号万象城二期CL107号,青岛市,370200,36.0672,120.377998,山东,370000,RS3702500,小鹏汽车青岛万象城体验中心,,体验中心,053280903232
四川省乐山市市中区万达广场662号1层1033A号,乐山市,511100,29.619801,103.737999,四川,510000,RS5101700,小鹏汽车乐山万达广场体验中心,,体验中心,08332097785
南宁市青秀区东葛路118号万达广场（南宁青秀店）1F-1019,南宁市,450100,22.83,108.37,广西,450000,RS4500600,小鹏汽车南宁青秀万达广场体验中心,,体验中心,0771-5648188
北京市大兴区欣宁街15号宜家荟聚一层01E150号,北京市,110100,39.7869,116.325996,北京,110000,RS1102400,小鹏汽车北京宜家荟聚体验中心,,体验中心,010-60204117
湖北省十堰市张湾区北京北路99号万达广场1B35,十堰市,420300,32.663101,110.806999,湖北,420000,RS4200600,小鹏汽车十堰万达广场体验中心,,体验中心,07198011801
解放南路278号中南城购物中心1F 1013号商铺,盐城市,320900,33.322498,120.181,江苏,320000,RS3200500,小鹏汽车盐城中南城体验中心,,体验中心,051588213151
浙江省台州市温岭市城西街道中华路728号银泰城1幢101室（1F001-2）,台州市,331000,28.392599,121.362,浙江,330000,RS3303000,小鹏汽车台州温岭银泰城体验中心,,体验中心,057682968111
福建省龙岩市新罗区曹溪街道双龙路1号万达广场1F-10及JY-CD-11,龙岩市,350800,25.056,117.022003,福建,350000,RS3501800,小鹏汽车龙岩万达广场体验中心,,体验中心,05972797999
北京市通州区黄船埠街2号楼2号院1层101-B118,北京市,110100,39.92962,116.664512,北京,110000,RS1102100,小鹏汽车北京远洋乐堤港体验中心,,体验中心,010-57794773
浙江省宁波市鄞州区中山东路2266号,宁波市,330200,29.853701,121.622002,浙江,330000,C933BOS02,小鹏汽车宁波东部银泰城体验中心,,体验中心,057428802882
北京市海淀区翠微路12号,北京市,110100,39.912138,116.303026,北京,110000,XL1100223,小鹏汽车北京翠微印象城卫星店,,体验中心,13701331002
湖北省荆州市荆州区北京西路508号荆州万达广场1层1008号商铺,荆州市,421000,30.3395,112.223999,湖北,420000,RS4202500,小鹏汽车荆州万达广场体验中心,,体验中心,07168211766
广东省珠海市金湾区华发商都A区1012铺位,珠海市,440400,22.113517,113.362503,广东,440000,C944CAS01,小鹏汽车珠海金湾体验中心,,体验中心,0756-7236869
云南省大理白族自治州大理市建设路与泰安路交叉口东南50米恒邦时代天街1-30-33 72-73,大理白族自治州,532900,25.585614,100.226937,云南,530000,RS5300722,小鹏汽车大理恒邦时代天街体验中心,,体验中心,0872-2134530
浙江省舟山市临城海宇道111号凯虹广场L1-21\22铺位,舟山市,330900,29.984431,122.213156,浙江,330000,RS3304600,小鹏汽车舟山凯虹广场体验中心,,体验中心,0580-2620550
上海市黄浦区徐家汇路268号1层04号,上海市,310100,31.210312,121.477071,上海,310000,RS3102621,小鹏汽车上海LuOne凯德晶萃广场体验中心,,体验中心,021-63505006
河南省郑州市中原区桐柏路与棉纺路交叉口锦艺城C区1号楼1-25号,郑州市,410100,34.762995,113.606889,河南,410000,RS4101923,小鹏汽车郑州锦艺城体验中心,,体验中心,0371-65015088
"山东省枣庄市薛城区临城街道永兴路126号万达广场一楼1083A,1083B",枣庄市,370400,34.792999,117.266998,山东,370000,RS3702300,小鹏汽车枣庄万达广场体验中心,,体验中心,06325199667
北京市东城区王府井大街88号1幢一层L1007-2、L1008号,北京市,110100,39.92,116.41,北京,110000,RS1102623,小鹏汽车北京王府井银泰in88体验中心,,体验中心,010-53658793
合肥市包河区庐州大道800号融创茂1013号商户,合肥市,340100,31.703199,117.304001,安徽,340000,C934AAS01,小鹏汽车合肥融创茂体验中心,,体验中心,055162828537
江苏省苏州市吴中区木渎镇中山东路166号,苏州市,320500,31.258635,120.545799,江苏,320000,RS3203922,小鹏汽车苏州凯马广场销售服务中心,0512-62991888,体验和服务中心,0512-67991799
武汉市汉阳区龙阳大道特18号欧亚达一层A1-（01-14）、B1-（14-20）,武汉市,420100,30.536413,114.197653,湖北,420000,RS4202701,小鹏汽车武汉龙阳大道销售服务中心,027-84873009,体验和服务中心,027-84873007
浙江省衢州市柯城区花园街道荷花中路555号万达广场1F1036商铺,衢州市,330800,28.9265,118.878998,浙江,330000,RS3300900,小鹏汽车衢州万达广场体验中心,,体验中心,05703355286
深圳市福田区 ONE AVENUE L1-L2层N133、N222号商铺,深圳市,440300,22.538,114.066002,广东,440000,C944BOS02,小鹏汽车深圳ONE AVENUE卓悦体验中心,,体验中心,075526907961
河南省南阳市宛城区长江路泰祥国际汽车城2425号小鹏汽车,南阳市,411300,32.957766,112.599652,河南,410000,RS4101200,小鹏汽车南阳泰祥国际汽车城销售服务中心,0377-60918666,体验和服务中心,0377-60925999
甘肃省兰州市安宁区北滨河西路（沙井驿汽车物流园）,兰州市,620100,36.140999,103.625,甘肃,620000,RS6200201,小鹏汽车兰州安宁销售服务中心,0931-7614680,体验和服务中心,09317681680
广东省中山市港口镇港口大道11号SOHO车城2号/5号展厅,中山市,442000,22.569314,113.38992,广东,440000,RS4410301,小鹏汽车中山港口销售服务中心,0760-86188678,体验和服务中心,0760-88889877
韶关武江区保利广场1009-1010,韶关市,440200,24.755822,113.533008,广东,440000,RS4409121,小鹏汽车韶关保利广场体验中心,,体验中心,0751-8799902
惠州市惠城区江北金山汽车城二街,惠州市,441300,23.132,114.396004,广东,440000,C944LAS02,小鹏汽车惠州金山汽车城销售服务中心,0752-2891059,体验和服务中心,07523231111
河南省许昌市魏都区许都路777号万达广场1F1035号铺位,许昌市,411000,34.031101,113.859001,河南,410000,C941KAS01,小鹏汽车许昌万达广场体验中心,,体验中心,0374-7099888
民治街道大岭社区人民路2020号,深圳市,440300,22.6271,114.021004,广东,440000,RS4407900,小鹏汽车深圳龙华天虹体验中心,,体验中心,075521033420
无锡市新吴区新吴万达广场a座一层1008小鹏汽车体验中心,无锡市,320200,31.485001,120.365997,江苏,320000,C932BOM01,小鹏汽车无锡新吴万达体验中心,,体验中心,051083133193
江苏省南通市崇川区星城路与青年中路交叉口，崇川大有境商场一楼L1-025号,南通市,320600,32.002899,120.915001,江苏,320000,C932FAS01,小鹏汽车南通崇川大有境体验中心,,体验中心,051385577520
杨舍镇河西路88号,苏州市,320500,31.8608,120.544998,江苏,320000,C932EAA04,小鹏汽车张家港曼巴特购物广场体验中心,,体验中心,051256329599
江西省赣州市章贡区水南镇登峰大道8号万象城1楼L183号,赣州市,360700,25.815599,114.926003,江西,360000,S3606,小鹏汽车赣州万象城体验中心,,体验中心,07975169160
海南省海口市秀英区秀英街道海盛路49-3号,海口市,460100,20.008954,110.247644,海南,460000,RS4600921,小鹏汽车海口秀英销售服务中心,0898-68624670,体验和服务中心,0898-68625630
浙江省杭州市江干区彭埠街道新塘路1093号七堡花园城L1层128-129商铺,杭州市,330100,30.300301,120.242996,浙江,330000,C933AOS09,小鹏汽车杭州七堡花园城体验中心,,体验中心,13372539102
海口市美兰区琼山大道260号,海口市,460100,19.9835,110.417999,海南,460000,C946AAS03,小鹏汽车海口琼山大道销售服务中心,0898--65717591,体验和服务中心,0898-65727297
上海市宝山区同济路699弄1-10号宝杨宝龙广场M1-L1-072/073,上海市,310100,31.3951,121.482002,上海,310000,RS3102200,小鹏汽车上海宝杨宝龙广场体验中心,,体验中心,02136382926
浙江宁波江北区中官新路555号5号-1 宁波小鹏交付中心,宁波市,330200,29.912355,121.59843,浙江,330000,S3333,小鹏汽车宁波江北销售服务中心,0574-87282081,体验和服务中心,057487282080
天津市滨海新区空港经济区环河北路62号,天津市,120100,39.161098,117.377998,天津,120000,C912AOS04,小鹏汽车天津空港销售服务中心,022-24925560,体验和服务中心,02284916261
滨盛路3867号滨江宝龙广场一区一号楼一楼M-F1-070/071商铺,杭州市,330100,30.1884,120.167999,浙江,330000,S3328,小鹏汽车杭州滨江宝龙城体验中心,,体验中心,057186908156
浙江省台州市椒江区台州宝龙城1F M1-L1-023-2/024/025/060,台州市,331000,28.674725,121.410285,浙江,330000,RS3304700,小鹏汽车台州宝龙城体验中心,,体验中心,0576-89533333
四川省成都市高新区天府大道北段1777号招商•大魔方第 LG 层的第 G1050、G1051,成都市,510100,30.574381,104.069945,四川,510000,S5109,小鹏汽车成都招商大魔方体验中心,,体验中心,028-60798390
北京市大兴区永兴路7号院1号楼北京龙湖大兴天街1F-01A小鹏汽车,北京市,110100,39.686812,116.320202,北京,110000,RS1102421,小鹏汽车北京龙湖大兴天街体验中心,,体验中心,010-89289454
深圳市南山区沙河街道益田假日广场1-301，铺位号：B2-49,深圳市,440300,22.5378,113.974998,广东,440000,C944BOS03,小鹏汽车深圳益田假日广场体验中心,,体验中心,075526911154
肇庆市端州区东岗西路123号,肇庆市,441200,23.099899,112.499001,广东,440000,C944HOW01,小鹏汽车肇庆端州销售服务中心,0758- 2839369,体验和服务中心,0758-2838983
海南省三亚市迎宾路吉阳镇清平乐东城18号楼01号商铺,三亚市,460200,18.281601,109.575996,海南,460000,RS4601123,小鹏汽车三亚吉阳体验中心,,体验中心,0898-88710822
陕西省榆林市榆阳区明珠大道与长兴路交叉口西160米,榆林市,610800,38.247107,109.754244,陕西,610000,RS6101100,小鹏汽车榆林万达广场体验中心,,体验中心,0912-3267687
佛山市顺德区大良街道新松社区105国道新松路段6号,佛山市,440600,22.8557,113.233002,广东,440000,C944EAS03,小鹏汽车佛山顺德销售服务中心,0757-26609335,体验和服务中心,075726609336
昆明市西山区环城南路与南坝路交叉口昆明大悦城购物中心5-1-08号商铺(C区14门),昆明市,530100,25.023001,102.712997,云南,530000,C953AAS01,小鹏汽车昆明大悦城体验中心,,体验中心,0871-68571777
青岛市市北区四流南路66号丙L1层L118、L119号,青岛市,370200,36.1425,120.3736,山东,370000,RS3703000,小鹏汽车青岛万科未来城体验中心,,体验中心,0532-80919896
武汉市汉阳区黄金口汽车市场南门小鹏汽车,武汉市,420100,30.5658,114.175003,湖北,420000,RS4201500,小鹏汽车武汉黄金口体验中心,,体验中心,02784616689
安徽省合肥市包河区包河万达广场苏宁易购百货1F-WBF10号铺位,合肥市,340100,31.8571,117.302002,安徽,340000,RS3401000,小鹏汽车合肥包河万达广场体验中心,,体验中心,055162621823
桂林市七星区穿山东路43号桂林高新万达广场室内步行街1F层1038号商铺,桂林市,450300,25.242181,110.320125,广西,450000,RS4500923,小鹏汽车桂林高新万达广场体验中心,,体验中心,0771-5712806
广东省佛山市顺德区区南霞大街与京珠线交叉路口往西万达广场L1-1010,佛山市,440600,22.7941,113.281998,广东,440000,RS4409400,小鹏汽车佛山顺德万达广场体验中心,,体验中心,075781260187
云南省昆明市盘龙区白龙路508号,昆明市,530100,25.065252,102.751599,云南,530000,RS5300600,小鹏汽车昆明世博园销售服务中心,0871-63355303,体验和服务中心,0871-65623555
石家庄市长安区建华大街北二环国际汽车园区西门内30米路北,石家庄市,130100,38.071626,114.546795,河北,130000,S1312,小鹏汽车石家庄国际汽车园销售服务中心,0311-89298880,体验和服务中心,031189298889
浙江省永康市经济开发区长城西大道399号永康万达广场2号门1061商铺,金华市,330700,28.9,120.06,浙江,330000,RS3303600,小鹏汽车永康万达广场体验中心,,体验中心,15372990775
济南市历区奥体龙湖天街A座3号门18-19,济南市,370100,36.667702,117.110001,山东,370000,C937AOS06,小鹏汽车济南龙湖天街体验中心,,体验中心,19819753311
广东省东莞市高埗镇高昌路5号,东莞市,441900,23.09715,113.72321,广东,440000,RS4410200,小鹏汽车东莞高埗销售服务中心,0769-38813618,体验和服务中心,0769-85989989
南河路16号王府井购物中心G-1F-P017A号商铺,绵阳市,510700,31.450949,104.756027,四川,510000,RS5101800,小鹏汽车绵阳涪城王府井体验中心,,体验中心,0816-2111322
北京市朝阳区朝阳公园6号蓝色港湾L-BS-193c、L-BS-193d铺位,北京市,110100,39.949299,116.475998,北京,110000,RS1102200,小鹏汽车北京蓝色港湾体验中心,,体验中心,15712838499
湖北省武汉市洪山区烽胜路55号龙湖白沙天街 A-1F-47&48号,武汉市,420100,30.477457,114.292689,湖北,420000,RS4202400,小鹏汽车武汉龙湖白沙天街体验中心,,体验中心,027-86832096
天津市东丽区先锋路万达广场一层1029-1030,天津市,120100,39.0811,117.324997,天津,120000,C912AAS01,小鹏汽车天津东丽万达广场体验中心,,体验中心,02259388777
山西省太原市小店区马练营路59号新汇众汽车家园内小鹏汽车4S店,太原市,140100,37.7624,112.608266,山西,140000,C914AAS01,小鹏汽车太原龙城体验中心,,体验中心,03512193266
中山大道1515号壹方购物中心1层商19A单元（1-19A）,武汉市,420100,30.609501,114.309998,湖北,420000,C942AOS04,小鹏汽车武汉天地体验中心,,体验中心,02782966859
广州珠江新城花城大道85-87号一层之自编108B,广州市,440100,23.1199,113.322998,广东,440000,C944AOS03,小鹏汽车广州高德置地体验中心,,体验中心,020-22050132
武汉市汉阳区龙阳大道特6号武汉摩尔城一期B座栋1层L1B-038-1,武汉市,420100,30.558701,114.208,湖北,420000,RS4202300,小鹏汽车武汉汉阳摩尔城体验中心,,体验中心,02784588828
福建省厦门市高崎北路 428 号航空自贸广场1号楼110、111、112、113单元,厦门市,350200,24.5508,118.125999,福建,350000,RS3501601,小鹏汽车厦门高崎销售服务中心,0592-2069890,体验和服务中心,18650006206
广东省珠海市香洲区南屏科技工业园屏西三路1号2#汽车展厅一层B区展厅,珠海市,440400,22.208252,113.457497,广东,440000,RS4401801,小鹏汽车珠海南屏销售服务中心,0756-6969266,体验和服务中心,0756-8336866
北京市海淀区西三旗桥南880米路西,北京市,110100,40.0476,116.333,北京,110000,C911AAS04,小鹏汽车北京清河销售服务中心,010-68876660,体验和服务中心,01068876660
贵州省贵阳市观山湖区华润万象汇L136号,贵阳市,520100,26.619499,106.622002,贵州,520000,RS5200700,小鹏汽车贵阳万象汇旗舰体验中心,,体验中心,0851-84808014
贵州省贵阳市观山湖区贵遵高速公路新寨村八组130号,贵阳市,520100,26.6106,106.664,贵州,520000,C952AAS01,小鹏汽车贵阳观山湖贵遵路销售服务中心,0851-82215737,体验和服务中心,0851-82215997
山东省潍坊市奎文区潍州路2800号,潍坊市,370700,36.643193,119.131999,山东,370000,RS3703201,小鹏汽车潍坊潍州路销售服务中心,0536-2100856,体验和服务中心,0536-2108078
厦门市海沧区马青路1283号,厦门市,350200,24.489,118.015999,福建,350000,RS3500210,小鹏汽车厦门海沧销售服务中心,0592-2106197,体验和服务中心,0592-5280671
信安大道3号敏捷广场1层1014铺,肇庆市,441200,23.07431,112.50443,广东,440000,S4462,小鹏汽车肇庆敏捷广场体验中心,,体验中心,07582788669
陕西省西安市国家民用航天产业基地东长安街958号鹏飞商业楼,西安市,610100,34.152987,108.997994,陕西,610000,RS6101001,小鹏汽车西安长安销售服务中心,029-85831996,体验和服务中心,029-85831993
福建省福州市晋安区福马路788号宜家家居商业广场L1层01A24号,福州市,350100,26.0651,119.366997,福建,350000,C935AOS01,小鹏汽车福州宜家荟聚体验中心,,体验中心,059183706157
浙江省杭州市上城区东坡路2号,杭州市,330100,30.2519,120.163002,浙江,330000,C933AOS08,小鹏汽车杭州西湖旗舰体验中心,,体验中心,057186800931
江苏省南京市江宁区东山街道润麒路2号（东山汽车园区内）,南京市,320100,31.979979,118.877289,江苏,320000,C932AOS03,小鹏汽车南京江宁销售服务中心,025-86131909,体验和服务中心,02552708086
上海市浦东新区御桥路1441号,上海市,310100,31.1567,121.561996,上海,310000,C931AAW01,小鹏汽车上海浦东御桥体验中心,,体验中心,02168930027
广州市白云区白云大道北1399号109房,广州市,440100,23.233093,113.305387,广东,440000,RS4409221,小鹏汽车广州白云销售服务中心,020-35620142,体验和服务中心,020-35620230
江苏省扬州市江都区文昌东路1177号金鹰新城市中心,扬州市,321000,32.4039,119.580002,江苏,320000,RS3201100,小鹏汽车扬州金鹰国际体验中心,,体验中心,051486276655
沧州市运河区黄河西路与开元南大道交叉口荣盛国际购物广场E1010商铺,沧州市,130900,38.2906,116.818001,河北,130000,C913JAS01,小鹏汽车沧州荣盛国际体验中心,,体验中心,03173068899
广州市天河区林和中路63号东方宝泰B1层1145号,广州市,440100,23.1469,113.324997,广东,440000,C944AOS04,小鹏汽车广州东方宝泰体验中心,,体验中心,02038803513
中国(云南)自由贸易试验区昆明片区经开区玉缘路东(经开区国际汽车城F02地块),昆明市,530100,24.965484,102.805985,云南,530000,RS5300501,小鹏汽车昆明经开区汽车城销售服务中心,0871-65526611,体验和服务中心,0871-65526610
成都市高新区火车南站西路1719号,成都市,510100,30.58848,104.029396,四川,510000,C951AAS04,小鹏汽车成都机场路销售服务中心,028-85528828,体验和服务中心,02883330522
天津市和平区和平路263号天津天河城购物中心1-01/02/03,天津市,120100,39.127102,117.204002,天津,120000,RS1200900,小鹏汽车天津天河城体验中心,,体验中心,022-27316480
云龙大道与藏龙路交汇处西北侧一楼,株洲市,430200,27.881701,113.158997,湖南,430000,RS4300500,小鹏汽车株洲万达广场体验中心,,体验中心,073122280808
青海西宁城中区同安路182号7号楼,西宁市,630100,25.734739,114.825274,青海,630000,RS6300201,小鹏汽车西宁南川销售服务中心,0971-2210324,体验和服务中心,0971-2295500
河南省濮阳市中原路与丽都路交叉口恒丰购物公园一层145号商铺,濮阳市,410900,35.776402,115.061996,河南,410000,RS4100300,小鹏汽车濮阳恒丰中央广场体验中心,,体验中心,03936102888
鄂尔多斯市康巴什区碳中和研究院内小鹏汽车,鄂尔多斯市,150600,39.59984,109.824886,内蒙古,150000,C915KOS01,小鹏汽车鄂尔多斯天骄路销售服务中心,0477-8162002,体验和服务中心,0477-8392299
广州市天河区黄埔大道东661号1F014、1F015铺,广州市,440100,23.105101,113.416,广东,440000,RS4405400,小鹏汽车广州美林天地体验中心,,体验中心,02032382563
江苏省镇江市中山东路288号镇江八佰伴6010F1032铺位,镇江市,321100,32.204907,119.448609,江苏,320000,RS3202000,小鹏汽车镇江八佰伴体验中心,,体验中心,0511-88856886
深圳市南山区南头街道宝安大道以北、双界河以东嘉进隆前海汽车城二层A05-2,深圳市,440300,22.548269,113.906956,广东,440000,S4449,小鹏汽车深圳前海销售服务中心,0755-26911130,体验和服务中心,075526919610
山东省青岛市黄岛区漓江西路1669号1层114-3区,青岛市,370200,35.9319,120.165001,山东,370000,C937BOS02,小鹏汽车青岛永旺梦乐城体验中心,,体验中心,0532-86881766
惠州市惠城区三栋镇惠南汽车城小鹏汽车新车交付中心,惠州市,441300,22.98102,114.458597,广东,440000,RS4409021,小鹏汽车惠州惠南销售服务中心,0752-2311123,体验和服务中心,0752-2828789
湖北省襄阳市高新区长虹北路9号万达广场1楼152,襄阳市,420600,32.062401,112.133003,湖北,420000,RS4201400,小鹏汽车襄阳万达广场体验中心,,体验中心,07102307866
天津市红桥区大丰路14、16、18、20、22、24号水游城F1AN02-2,天津市,120100,39.148201,117.169998,天津,120000,RS1200800,小鹏汽车天津鹏欣水游城体验中心,,体验中心,02258193858
江苏省无锡市锡山经济开发区团结中路3号无锡荟聚中心L11层02D17号,无锡市,320200,31.582899,120.394997,江苏,320000,C932BOS01,小鹏汽车无锡宜家荟聚体验中心,,体验中心,051088710089
上海市青浦区香花桥街道北青公路9399号5幢一层,上海市,310100,31.185976,121.128714,上海,310000,RS3102723,小鹏汽车上海青浦销售服务中心,021-59116651,体验和服务中心,021-59116660
南昌市青山湖区京东南大道天香佳苑商铺111-115号,南昌市,360100,28.6495,115.966003,江西,360000,C936AAS02,小鹏汽车南昌青山湖销售服务中心,0791-88258893,体验和服务中心,079188829669
周口市川汇区开元大道与五一路交汇处万达广场一层1022号,周口市,411600,33.582097,114.649535,河南,410000,RS4100500,小鹏汽车周口万达广场体验中心,,体验中心,03948928992
深圳光明新区公明街道油麻岗路73号光明国际汽车城25#及26#,深圳市,440300,22.742252,113.893668,广东,440000,C944BOS07,小鹏汽车深圳光明汽车城销售服务中心,0755-88656975,体验和服务中心,0755-88656976
江西省南昌市青云谱区洪城路158号1F-021,南昌市,360100,28.653299,115.904999,江西,360000,C936AAS01,小鹏汽车南昌王府井体验中心,,体验中心,079186268606
浙江省嘉兴市桐乡市梧桐街道振兴东路（东）439号吾悦广场1036铺,嘉兴市,330400,30.62826,120.58889,浙江,330000,RS3304800,小鹏汽车嘉兴桐乡吾悦广场体验中心,,体验中心,13819191739
江苏省常州市新北区薛家镇顺园路88-3号,常州市,320400,31.854186,119.933626,江苏,320000,RS3202401,小鹏汽车常州薛家销售服务中心,051985506691,体验和服务中心,0519-85776691
福建省福州市仓山区科技园六区116号（叶下片）,福州市,350100,26.011352,119.342426,福建,350000,C935AAS01,小鹏汽车福州仓山销售服务中心,0591-28051771,体验和服务中心,0591-86251527
广东省潮州市枫溪区新风路与潮汕路交汇处财富中心B区一层B122-123号商铺、B136-137号商铺、B140-142号商铺,潮州市,445100,23.6506,116.612,广东,440000,RS4410400,小鹏汽车潮州南风里体验中心,,体验中心,07682924666
上海市松江区广富林路与人民北路交叉口松江印象城1F L150号商铺,上海市,310100,31.060101,121.223,上海,310000,RS3102100,小鹏汽车上海松江印象城体验中心,,体验中心,02137783832
贵州省遵义市汇川区杭州路唯一国际一楼131号,遵义市,520300,27.7101,106.942001,贵州,520000,RS5200400,小鹏汽车遵义亨特唯一国际体验中心,,体验中心,085128237868
江苏省苏州市张家港杨舍镇经济开发区东南大道汽车生活广场9号1,苏州市,320500,31.837789,120.57089,江苏,320000,RS3203722,小鹏汽车苏州张家港销售服务中心,0512-58116376,体验和服务中心,13382282405
北京市昌平区城南街道南口路29号1F-1009.1010号,北京市,110100,40.23,116.19,北京,110000,XL1100123,小鹏汽车北京乐多港万达卫星店,,体验中心,01052172285
东吴南路179号1层A-1F28号店铺,苏州市,320500,31.257799,120.628998,江苏,320000,S3221,小鹏汽车苏州龙湖东吴天街体验中心,,体验中心,051265165257
萍水街城西银泰城3号门一楼1F020商铺  小鹏汽车,杭州市,330100,30.3001,120.108002,浙江,330000,S3327,小鹏汽车杭州城西银泰城体验中心,,体验中心,057186980163
海南省海口市龙华区明珠路8号宜欣城购物中心1F-A-40,海口市,460100,20.024528,110.311463,海南,460000,C946AAS01,小鹏汽车海口宜欣城体验中心,,体验中心,089868550260
大连市中山区中山路129-3号（大连柏威年）4层L4021,大连市,210200,38.918301,121.628998,辽宁,210000,C921BAS01,小鹏汽车大连柏威年体验中心,,体验中心,18525610212
广州市白云区云城东路501号万达广场1L-1107B/1108A/1108B/1109号,广州市,440100,23.1731,113.266998,广东,440000,S4457,小鹏汽车广州白云万达广场体验中心,,体验中心,02037412342
河南省郑州市郑东新区农业东路15号熙地港（郑州）购物中心1层012店铺,郑州市,410100,34.784801,113.717003,河南,410000,RS4100400,小鹏汽车郑州熙地港体验中心,,体验中心,0371-63382171
四川省成都市双流区成双大道南段566号,成都市,510100,30.5977,103.957001,四川,510000,C951AOS02,小鹏汽车成都空港销售服务中心,028-86667753,体验和服务中心,028-62406846
江苏省徐州市云龙区欣欣路两山口新能源汽车产业园内,徐州市,320300,34.209227,117.241754,江苏,320000,RS3201300,小鹏汽车徐州两山口体验中心,,体验中心,0516-83619789
四川省德阳市旌阳区长江西路二段1号,德阳市,510600,31.127399,104.388,四川,510000,RS5100600,小鹏汽车德阳洋洋百货体验中心,,体验中心,17608882828
浙江省杭州市拱墅区东教路611号,杭州市,330100,30.32886,120.152524,浙江,330000,RS3304923,小鹏汽车杭州东教路销售服务中心,0571-28006999,体验和服务中心,0571-28001888
山东省济南市槐荫区经十西路1718号,济南市,370100,36.645599,116.864998,山东,370000,C937AAS04,小鹏汽车济南经十西路销售服务中心,0531-58276635,体验和服务中心,053158276633
郑州市管城回族区经开第二大街158号,郑州市,410100,34.7307,113.742,河南,410000,C941AOS01,小鹏汽车郑州郑东销售服务中心,0371-55653511,体验和服务中心,037153377022
杭州市临安区科技大道2588号青山湖宝龙广场一楼,杭州市,330100,30.258106,119.828553,浙江,330000,C933AAS01,小鹏汽车杭州青山湖宝龙广场体验中心,,体验中心,0571-85062298
张仪村23号院内甲12号,北京市,110100,39.882198,116.231003,北京,110000,C911AAS06,小鹏汽车北京张仪村销售服务中心,010-68635515,体验和服务中心,01068635518
江西省赣州市南康区龙岭汽车城B-10地块,赣州市,360700,25.734739,114.825274,江西,360000,RS3600701,小鹏汽车赣州赣南汽车城销售服务中心,0797-2068369,体验和服务中心,0797-2068368
武汉市洪山区关山大道355号光谷K11艺术购物中心一楼,武汉市,420100,30.493299,114.413002,湖北,420000,C942AOS01,小鹏汽车武汉光谷K11体验中心,,体验中心,02787677976
北京市丰台区丰科路6号北京丰科万达广场一层,北京市,110100,39.824233,116.298932,北京,110000,RS1102000,小鹏汽车北京丰科万达广场卫星店,,体验中心,15010991080
山东省烟台市开发区北京南路2-6号,烟台市,370600,37.548599,121.211998,山东,370000,C937FAS02,小鹏汽车烟台金沙滩销售服务中心,0535-6963126,体验和服务中心,05356963223
福建省泉州市晋江罗山街道福埔开发区SM国际广场1F-1064号（5号门肯德基旁）,泉州市,350500,24.778299,118.567001,福建,350000,C935CAS01,小鹏汽车泉州SM国际广场体验中心,,体验中心,0595-85023997
陕西省汉中市汉台区西新街吾悦广场1F1043.1057-1.1057-2号铺,汉中市,610700,33.071888,106.99604,陕西,610000,RS6101400,小鹏汽车汉中吾悦广场体验中心,,体验中心,0916-2593777
西安市未央区太华北路大明宫万达广场1F-1050号,西安市,610100,34.314358,108.972602,陕西,610000,C961AAS02,小鹏汽车西安大明宫万达体验中心,,体验中心,02981715758
山东省德州市德城区经济技术开发区宋官屯街道办事处东风东路1899号一层1131号铺,德州市,371400,37.428366,116.36755,山东,370000,RS3703523,小鹏汽车德州澳德乐体验中心,,体验中心,0534-2727810
佛山市南海区桂城街道海八西路15号华南世纪车城2栋首层2-101/106 小鹏汽车,佛山市,440600,23.068902,113.122258,广东,440000,S4452,小鹏汽车佛山海八路销售服务中心,0757-86259818,体验和服务中心,0757-86259815
河南省焦作市解放区人民路与民主路交叉口西北角王府井一层A04,焦作市,410800,35.213402,113.237,河南,410000,RS4101000,小鹏汽车焦作王府井体验中心,,体验中心,0391-2999001
柳州市城中区东环大道256号城中万达广场1F-1063号,柳州市,450200,24.329599,109.442001,广西,450000,C945BAS01,小鹏汽车柳州城中万达广场体验中心,,体验中心,07722880322
苏州市虎丘区枫桥街道汇通路9号小鹏汽车,苏州市,320500,31.319787,120.554196,江苏,320000,S3220,小鹏汽车苏州高新区销售服务中心,19951236750,体验和服务中心,051265166775
上海市普陀区真光路1288号G08-02F01-01-0067小鹏汽车,上海市,310100,31.245619,121.383605,上海,310000,C931AOS03,小鹏汽车上海中环百联体验中心,,体验中心,021-62372088
广东省广州市花都区永发路14号雅乐城1025,广州市,440100,23.4223,113.189003,广东,440000,C944AOS08,小鹏汽车广州花都雅乐城体验中心,,体验中心,02086972142
宁波市鄞州区中兴路77号龙湖鄞州天街A-1F-24室,宁波市,330200,29.881143,121.591677,浙江,330000,RS3304400,小鹏汽车宁波龙湖鄞州天街体验中心,,体验中心,0574-88138303
重庆市沙坪坝区西双大道与永祥路交叉口西龙湖高新天街A馆-1F-43,重庆市,500100,29.610418,106.363423,重庆,500000,RS5000900,小鹏汽车重庆龙湖高新天街体验中心,,体验中心,023-65059630
徐州市铜山区珠江路汽车产业园华夏路28-7号,徐州市,320300,34.168334,117.194876,江苏,320000,C932CAW01,小鹏汽车徐州高新汽车城销售服务中心,0516-83878289,体验和服务中心,051683619789
浙江省绍兴市柯桥区金柯桥大道2827号,绍兴市,330600,30.122337,120.518763,浙江,330000,C933DAS02,小鹏汽车绍兴柯桥销售服务中心,0575-81108715,体验和服务中心,057581100060
四川省成都市高新西区新航路1号,成都市,510100,30.738661,103.96331,四川,510000,C951AOS07,小鹏汽车成都高新西区销售服务中心,028-60197636,体验和服务中心,02886671901
重庆市九龙坡区谢家湾正街55号万象城B178,重庆市,500100,29.516399,106.517998,重庆,500000,C950AOS06,小鹏汽车重庆万象城体验中心,,体验中心,02368667618
广东省河源市源城区越王大道139号L14-115,河源市,441600,23.7708,114.720001,广东,440000,RS4408400,小鹏汽车河源坚基购物中心体验中心,,体验中心,07623669809
湖北省大冶市东岳路街道伍桥路1号小鹏汽车,黄石市,420200,30.135599,114.991997,湖北,420000,C942BOW01,小鹏汽车黄石大冶伍桥销售服务中心,0714-8986459,体验和服务中心,07143056618
广西南宁市兴宁区兴工北路汽车市场11-20号,南宁市,450100,22.876405,108.413271,广西,450000,RS4501023,小鹏汽车南宁兴宁区三塘销售服务中心,0771-3172321,体验和服务中心,0771-5770788
四川省成都市天府新区华府大道一段5号L501,成都市,510100,30.53,104.07,四川,510000,RS5102121,小鹏汽车成都智电世界体验中心,,体验中心,028-87346272
陕西省西安市雁塔区锦业一路70号小鹏汽车西安高新销售服务中心,西安市,610100,34.191011,108.860451,陕西,610000,C961AAS01,小鹏汽车西安高新锦业销售服务中心,029-81111909,体验和服务中心,029-81111306
浙江省温州市乐清市城东街道伯乐东路666号南虹广场1027商铺,温州市,330300,28.1096,120.982002,浙江,330000,RS3304100,小鹏汽车乐清南虹广场体验中心,,体验中心,057762577277
重庆市沙坪坝区北站东路188号附3号重庆金沙天街B馆-1F-46C,重庆市,500100,29.5546,106.459,重庆,500000,RS5001000,小鹏汽车重庆龙湖金沙天街体验中心,,体验中心,18996306325
上海市静安区沪太路111弄静安大融城1楼小鹏汽车,上海市,310100,31.2799,121.427002,上海,310000,C931AOS06,小鹏汽车上海静安大融城体验中心,,体验中心,021-36036178
山东省临沂市罗庄区沂河路与琅琊王路交汇处西南（远通汽车超市院内）,临沂市,371300,35.0156,118.300623,山东,370000,C937QAS02,小鹏汽车临沂沂河路体验中心,,体验中心,0539-8178090
长沙市岳麓区枫林三路1099号步步高梅溪新天地G42,长沙市,430100,28.198999,112.861,湖南,430000,C943AAS02,小鹏汽车长沙步步高梅溪新天地体验中心,,体验中心,18874925367
北京市朝阳区姚家园路72号,北京市,110100,39.940701,116.528,北京,110000,RS1102600,小鹏汽车北京姚家园销售服务中心,13269698283,体验和服务中心,01085824384
安徽省马鞍山市花山区雨山东路863号商场一层01-60/61号,马鞍山市,340500,31.672199,118.516998,安徽,340000,RS3400300,小鹏汽车马鞍山印象汇体验中心,,体验中心,05558366767
广东省东莞市东城区鸿福东路1号民盈国贸城1号5栋1029号,东莞市,441900,23.0121,113.762001,广东,440000,C944SOS01,小鹏汽车东莞民盈国贸体验中心,,体验中心,076985876686
贵州省遵义市汇川区董公寺镇和平村汽车博览中心1-1号,遵义市,520300,27.780583,106.923908,贵州,520000,RS5200501,小鹏汽车遵义汇川销售服务中心,0851-28629376,体验和服务中心,
天津市西青区李七庄街卫津南路绥江桥东南100米,天津市,120100,39.055901,117.194785,天津,120000,RS1201000,小鹏汽车天津卫津南路销售服务中心,022-23959191,体验和服务中心,022-23958787
山东省菏泽市开发区长江路菏泽万达广场一层1073铺,菏泽市,371700,35.2244,115.474998,山东,370000,C937RAS01,小鹏汽车菏泽万达广场体验中心,,体验中心,05305700789
浙江省嘉兴经济技术开发区骏力路523号,嘉兴市,330400,30.720269,120.717906,浙江,330000,RS3303301,小鹏汽车嘉兴城南大厦销售服务中心,0573-82087080,体验和服务中心,057382088207
福建省泉州市丰泽区宝洲街679号泉州浦西万达广场1F-1070铺,泉州市,350500,24.882984,118.598557,福建,350000,RS3502222,小鹏汽车泉州浦西万达广场体验中心,,体验中心,0595-68286888
浙江省绍兴市上虞区百官街道称山北路399号万达广场1003铺位,绍兴市,330600,30.053499,120.844002,浙江,330000,RS3303700,小鹏汽车绍兴上虞万达广场体验中心,,体验中心,057582368183
"广州市花都区花城街道凤凰北路63号1F-A,W1001-W1003",广州市,440100,23.426437,113.2344,广东,440000,RS4409001,小鹏汽车广州花都融创茂销售服务中心,020-86972394,体验和服务中心,020-39479613
上海市长宁路1018号龙之梦购物公园B2层B203-A,上海市,310100,31.219101,121.417,上海,310000,RS3102600,小鹏汽车上海长宁龙之梦体验中心,,体验中心,02162141395
浙江省杭州市余杭区莫干山路1803号,杭州市,330100,30.358376,120.08006,浙江,330000,RS3304300,小鹏汽车杭州城北销售服务中心,13067888159,体验和服务中心,0571-26303689
深圳市龙岗区坂田街道吉华路466号新天下华赛区,深圳市,440300,22.643499,114.074991,广东,440000,C944BOW01S,小鹏汽车深圳坂田销售服务中心,0755-84502981,体验和服务中心,075584502985
湖南省郴州市北湖区国庆北路10号1层1019号,郴州市,431000,25.797199,113.030998,湖南,430000,RS4300600,小鹏汽车郴州步步高广场体验中心,,体验中心,07352886111
北京市海淀区建材城东33号西三旗万象汇1层L119小鹏汽车体验店,北京市,110100,40.061023,116.366359,北京,110000,RS1102521,小鹏汽车北京西三旗万象汇体验中心,,体验中心,010-68351210
四川省宜宾市翠屏区临港宜宾大道中段安鸿汽车城1栋,宜宾市,511500,28.795693,104.662576,四川,510000,RS5102500,小鹏汽车宜宾安鸿销售服务中心,0831-6161630,体验和服务中心,0831-6161632
重庆市两江新区湖彩路118号的光环购物公园LG层A-LG-55号,重庆市,500100,29.649705,106.52812,重庆,500000,C950AOS04,小鹏汽车重庆光环购物公园体验中心,,体验中心,02363368185
长宜路1号武汉荟聚中心L1一层02D22,武汉市,420100,30.617701,114.167999,湖北,420000,C942AOS05,小鹏汽车武汉宜家荟聚体验中心,,体验中心,02783389007
湛江市麻章区瑞云北路101号 小鹏汽车粤西国际车城店,湛江市,440800,21.291844,110.316398,广东,440000,C944GAS01,小鹏汽车湛江粤西国际车城体验中心,,体验中心,0759-3338787
浙江省温州市鹿城区府东路333号印象城1F D29-L1-07b号商铺,温州市,330300,27.9856,120.700996,浙江,330000,RS3303100,小鹏汽车温州印象城MEGA体验中心,,体验中心,0577-86779779
东莞市寮步镇塘唇村香市路段32号,东莞市,441900,22.996201,113.872002,广东,440000,C944SOS02,小鹏汽车东莞寮步销售服务中心,0769-85933686,体验和服务中心,076985999686
江苏省泰州市海陵区海军西路117号,泰州市,321200,32.421299,119.899002,江苏,320000,RS3201600,小鹏汽车泰州国际车城销售服务中心,0523-86887388,体验和服务中心,052389611580
浙江省宁波市海曙区日新街88号,宁波市,330200,29.868,121.556,浙江,330000,RS3303800,小鹏汽车宁波天一广场体验中心,,体验中心,057487236020
深圳市南山区桂湾四路169号万象前海 L127,深圳市,440300,22.530899,113.899002,广东,440000,RS4408800,小鹏汽车深圳万象前海旗舰体验中心,,体验中心,075586528452
天津市西青区大寺镇津荣道15号101汽车文化广场内的A区01、06号,天津市,120100,39.025299,117.254997,天津,120000,C912AOS03,小鹏汽车天津西青销售服务中心,022-23882717,体验和服务中心,022-23882785
广州市天河区长兴街岑村松岗大街8号108房,广州市,440100,23.1593,113.385002,广东,440000,C944AOS01,小鹏汽车广州总部体验中心,,体验中心,020-66805289
包头市九原区沙河街九原万达广场1层1050号,包头市,150200,40.606098,109.953003,内蒙古,150000,RS1500300,小鹏汽车包头九原万达广场体验中心,,体验中心,04725102777
湖州市吴兴区蜀山路2999号,湖州市,330500,30.8867,120.154999,浙江,330000,RS3303201,小鹏汽车湖州蜀山路销售服务中心,18072606766,体验和服务中心,0572-2260252
安徽省安庆市宜秀区迎宾东路90号弘阳广场1F-1036号,安庆市,340800,30.545159,117.100673,安徽,340000,RS3400900,小鹏汽车安庆弘阳广场体验中心,,体验中心,0556-5906789
云南省昆明市西山区福海街道办事处南亚风情第壹城A1地块F1-A06,昆明市,530100,25.008699,102.683998,云南,530000,RS5300300,小鹏汽车昆明南亚风情第壹城体验中心,,体验中心,0871-63584600
浙江省杭州市上城区丁兰街道丁城路515号A-1f-46a,杭州市,330100,30.353101,120.230089,浙江,330000,RS3304621,小鹏汽车杭州龙湖丁桥天街体验中心,,体验中心,0571-86998756
广州市机场路1399号百信广场三期DL1-135号,广州市,440100,23.195049,113.260866,广东,440000,C944AOS02,小鹏汽车广州白云百信广场体验中心,,体验中心,020-31522396
河北省邯郸市邯山区渚河路2号,邯郸市,130400,36.588099,114.47241,河北,130000,C913DAS01,小鹏汽车邯郸渚河路销售服务中心,,体验中心,0310-5512688
河南省郑州经济技术开发区前程大道339号9号厂房B区,郑州市,410100,34.715051,113.877988,河南,410000,RS4100201,小鹏汽车郑州前程大道销售服务中心,0371-60156708,体验和服务中心,0371-60163986
河南省郑州市中原区兰州路16号河南大中原国际汽车城C区16号,郑州市,410100,34.754002,113.487999,河南,410000,C941AAS03,小鹏汽车郑州中原西路销售服务中心,0371-58650002,体验和服务中心,037158650001
成都市锦江区锦丰三路77号E-5栋1层2层,成都市,510100,30.59,104.114998,四川,510000,C951AOS05,小鹏汽车成都锦江销售服务中心,028-60197378,体验和服务中心,02860197377
江苏省淮安市淮安区凤里路吾悦广场1层1042/1043号,淮安市,320800,33.553101,119.123001,江苏,320000,RS3201200,小鹏汽车淮安新城吾悦广场体验中心,,体验中心,051789682888
河北省秦皇岛市海港区茂业天地F01042X铺位,秦皇岛市,130300,39.908298,119.546997,河北,130000,RS1300500,小鹏汽车秦皇岛茂业天地体验中心,,体验中心,03353999961
湖南省长沙市雨花区湘府路和韶山路交汇处步步高星城天地G045A&L1044,长沙市,430100,28.1119,113.016998,湖南,430000,RS4300300,小鹏汽车长沙星城天地体验中心,,体验中心,073182836588
重庆市渝北区礼慈路14号龙湖重庆礼嘉天街商场A馆-1F-40号,重庆市,500100,29.669701,106.491997,重庆,500000,C950AOS03,小鹏汽车重庆礼嘉天街体验中心,,体验中心,02367030216
河北省石家庄市长安区中山东路583号 石家庄长安万达广场室内步行街1F层1032号,石家庄市,130100,38.0443,114.563004,河北,130000,C913AOS01,小鹏汽车石家庄长安万达广场体验中心,,体验中心,031189298882
厦门市集美区集美大道集美世茂广场1F1024号,厦门市,350200,24.6024,118.075996,福建,350000,C935DOS03,小鹏汽车厦门集美世茂广场体验中心,,体验中心,05922060680
江苏省无锡市宜兴市解放东路288号八佰伴L-1030,无锡市,320200,31.3582,119.843002,江苏,320000,RS3201500,小鹏汽车无锡宜兴八佰伴体验中心,,体验中心,051087111021
宁波市江北区绿地缤纷城1-104,宁波市,330200,29.881901,121.558998,浙江,330000,C933BAS01,小鹏汽车宁波绿地缤纷城体验中心,,体验中心,057427869393
广东省珠海市香洲区珠海大道8号华发商都3#楼1层C1007号商铺,珠海市,440400,22.23,113.51,广东,440000,RS4601021,小鹏汽车珠海华发商都体验中心,,体验中心,0756-8336229
江苏省苏州市常熟区东南开发区永旺梦乐城一楼119-120铺位,苏州市,320500,31.6014,120.778999,江苏,320000,C932EAS06,小鹏汽车常熟永旺梦乐城体验中心,,体验中心,051252318980
山东省泰安市岱岳区天平街道泰山国际汽车城211号,泰安市,370900,36.162012,117.038061,山东,370000,RS3703100,小鹏汽车泰安泰山国际汽车城销售服务中心,0538-8576616,体验和服务中心,0538-8576616
深圳市南山区粤海街道海珠社区文心五路33号海岸城购物中心1楼198-1铺位,深圳市,440300,22.5173,113.934998,广东,440000,C944BOS04,小鹏汽车深圳海岸城体验中心,,体验中心,075526904485
广东省珠海市香洲区华威路115号,珠海市,440400,22.287625,113.494174,广东,440000,RS4409521,小鹏汽车珠海上冲销售服务中心,0756-8622823,体验和服务中心,0756-8619789
合肥市庐阳区临泉路7388号华润万象汇商场1FL166号铺位,合肥市,340100,31.887356,117.257781,安徽,340000,RS3401100,小鹏汽车合肥万象汇体验中心,,体验中心,0551-62191858
深圳市光明区凤凰街道东坑社区龙光玖龙台栋C座L1-23,深圳市,440300,22.745199,113.933998,广东,440000,C944BAS05,小鹏汽车深圳光明蓝鲸世界体验中心,,体验中心,075528886636
江苏省南京市江宁区双龙大道1698号景枫广场F125/9,南京市,320100,31.930401,118.819,江苏,320000,C932AOS01,小鹏汽车南京景枫广场体验中心,,体验中心,02586199392
湖南省长沙市岳麓区茶子山东路112号凯德壹中心LG-16B/17,长沙市,430100,28.242201,112.958,湖南,430000,RS4300700,小鹏汽车长沙凯德壹中心体验中心,,体验中心,17373151515
广东省广州市番禺区汉溪大道东366号番禺天河城L1层143号、L2层236号、B2层149号铺位,广州市,440100,23.0037,113.348,广东,440000,S4450,小鹏汽车广州番禺天河城体验中心,,体验中心,02036989826
南庄镇樵乐路（吉利大道西）杜村工业区5号,佛山市,440600,22.953093,113.018514,广东,440000,RS4408522,小鹏汽车佛山南庄销售服务中心,0757-82305260,体验和服务中心,0757-82305260
深圳市龙岗区万科里龙城广场体验中心B1-64,深圳市,440300,22.717199,114.250999,广东,440000,C944BAS01,小鹏汽车深圳龙城万科里体验中心,,体验中心,13380069151
上海市杨浦区军工路1599号,上海市,310100,31.314199,121.544998,上海,310000,C931AOW01S,小鹏汽车上海杨浦销售服务中心,02155396293,体验和服务中心,02155271511
广东省中山市中山三路16号利和购物广场L1-110,中山市,442000,22.512501,113.384003,广东,440000,C944TOS02,小鹏汽车中山利和购物广场体验中心,,体验中心,076089881399
"广州市南沙区双山大道3号188房自编1058,1059号",广州市,440100,22.794518,113.533093,广东,440000,RS4408100,小鹏汽车广州南沙万达广场体验中心,,体验中心,020-32356494
山东省青岛市市北区长沙路49-6号,青岛市,370200,36.129351,120.392858,山东,370000,C937BAS03,小鹏汽车青岛重庆路销售服务中心,0532-85626277,体验和服务中心,0532-85627877
杭州市江干区新业路228号,杭州市,330100,30.248699,120.212997,浙江,330000,C933AOS02,小鹏汽车杭州来福士体验中心,,体验中心,057186688733
上海市浦东新区金桥路738号啦啦宝都118室,上海市,310100,31.2512,121.602997,上海,310000,C931AOS08,小鹏汽车上海金桥啦啦宝都体验中心,,体验中心,021-58462656
北京市顺义区京密路后沙峪段3号2幢,北京市,110100,40.114408,116.562079,北京,110000,C911AOM01,小鹏汽车北京后沙峪销售服务中心,010-68303350,体验和服务中心,010-68210117
安徽省蚌埠市蚌山区解放路与涂山路交汇处吾悦广场1028商铺,蚌埠市,340300,32.9328,117.389999,安徽,340000,RS3400400,小鹏汽车蚌埠吾悦广场体验中心,,体验中心,05523738800
同升街道黄谷路262-12号,长沙市,430100,28.082899,113.041,湖南,430000,C943AOS04,小鹏汽车长沙雨花销售服务中心,073188233257,体验和服务中心,0731-84721289
浙江省杭州市萧山区鸿达路191号,杭州市,330100,30.22,120.33,浙江,330000,RS3304500,小鹏汽车杭州萧山销售服务中心,0571-86950211,体验和服务中心,0571-85121315
朝阳区朝阳北路龙湖长楹天街西区一层,北京市,110100,39.924,116.598,北京,110000,C911AOS01,小鹏汽车北京龙湖长楹天街体验中心,,体验中心,01085398408
广东省佛山市顺德区北滘镇君兰社区诚德路1号美的悦然广场1F层1008-1009商铺,佛山市,440600,22.931299,113.216003,广东,440000,C944EAS02,小鹏汽车佛山顺德悦然广场体验中心,,体验中心,075726609310
飞虹路与金鸡路交叉口街（路）奥体印象城L1 层第 L1-46/47 号,杭州市,330100,30.2239,120.251999,浙江,330000,S3334,小鹏汽车杭州奥体印象城体验中心,,体验中心,13372503193
江西省九江市濂溪区德化路666号万达广场1A18B,九江市,360400,29.693474,116.014986,江西,360000,RS3600823,小鹏汽车九江万达广场体验中心,,体验中心,0792-8990008
海南省三亚市吉阳区海润路海南诚越新能源汽车产业园6号馆,三亚市,460200,18.29908,109.49901,海南,460000,RS4600501,小鹏汽车三亚诚越销售服务中心,0898-88713199,体验和服务中心,0898-88715900
湖北省武汉市武昌区中北路与公正路交汇处凯德1818一楼01-01号,武汉市,420100,30.5532,114.339996,湖北,420000,RS4201600,小鹏汽车武汉凯德1818体验中心,,体验中心,02787833099
浙江省义乌市工人西路9 号 义乌之心 L-133,金华市,330700,29.30558,120.07468,浙江,330000,C933GAS02,小鹏汽车义乌之心体验中心,,体验中心,13958408700
安徽省合肥市蜀山区南二环路3818号合肥天鹅湖万达广场室内步行街1F层1028，1029，1051号商铺,合肥市,340100,31.819,117.222,安徽,340000,C3405,小鹏汽车合肥天鹅湖万达广场体验中心,,体验中心,055165520980
深圳市龙岗区坂田街道南坑社区雅宝路1号(10号线雅宝C出口)星河WORLD. COCO PARK  L1S-002/L1S-003/L1S-003A号铺,深圳市,440300,22.604035,114.061504,广东,440000,RS4410800,小鹏汽车深圳坂田星河COCO PARK体验中心,,体验中心,0755-86910666
江苏省苏州市吴江区松陵街道开平路2188号吾悦商业广场1号门旁1F-021-1商铺,苏州市,320500,31.13748,120.61632,江苏,320000,RS3202300,小鹏汽车苏州吴江吾悦广场体验中心,,体验中心,0512-65162956
成都市锦江区蜀都大道大慈寺路与东顺城中街交叉路口西侧量子光,成都市,510100,30.654301,104.085999,四川,510000,C951AOS01,小鹏汽车成都大慈寺旗舰体验中心,,体验中心,028-85910176
北京市石景山区阜石路173号院1号楼京西大悦城1F-09,北京市,110100,39.925783,116.182584,北京,110000,RS1102700,小鹏汽车北京京西大悦城体验中心,,体验中心,010-59248333
山东省青岛市南区银川西路21号,青岛市,370200,36.084599,120.412003,山东,370000,RS3701601,小鹏汽车青岛银川西路销售服务中心,0532-80907366,体验和服务中心,053280907388
浙江省金华市金东区汽车城西九路,金华市,330700,29.142849,119.686985,浙江,330000,C933GAS01,小鹏汽车金华汽车城销售服务中心,0579-82412877,体验和服务中心,057982080801
北京市朝阳区来广营西路18号,北京市,110100,40.021599,116.448997,北京,110000,C911AAS03,小鹏汽车北京来广营销售服务中心,010-84918885,体验和服务中心,01084919991
海口市龙华区南海大道115号友谊南海城1F-002,海口市,460100,19.996549,110.29558,海南,460000,RS4600200,小鹏汽车海口友谊南海城体验中心,,体验中心,089866960090
山西省长治市长治高新技术开发区北外环路关村汽贸城东第一排（2号）,长治市,140400,36.224437,113.149182,山西,140000,RS1400400,小鹏汽车长治关村汽贸城销售服务中心,,体验中心,0355-3334555
成都市天府新区麓山大道二段199号天府和悦广场A馆-1F-31号,成都市,510100,30.486458,104.085199,四川,510000,RS5102323,小鹏汽车成都天府和悦体验中心,,体验中心,02860802016
上海市浦东新区鸿音路（海云苑西侧约150米)临港万达广场一楼1005A,上海市,310100,30.8913,121.815002,上海,310000,RS3102700,小鹏汽车上海临港万达广场体验中心,,体验中心,02158093796
山西省太原市万柏林区新晋祠路36号汇豪新能源汽车城B04号,太原市,140100,37.825802,112.526001,山西,140000,RS1400300,小鹏汽车太原晋祠路销售服务中心,0351-7983666,体验和服务中心,03517982666
龙溪街道嘉州路92号新光里B-104,重庆市,500100,29.5951,106.519997,重庆,500000,C950AOS07,小鹏汽车重庆新光天地体验中心,,体验中心,02367215602
江苏省苏州市昆山市周市镇黄浦江北路211号004号楼1楼、2楼,苏州市,320500,31.420286,121.008126,江苏,320000,C932EAS07,小鹏汽车昆山明诚汽车城销售服务中心,,体验和服务中心,051267666289
湖北省宜昌市发展大道63号,宜昌市,420500,30.7241,111.3358,湖北,420000,RS4202100,小鹏汽车宜昌发展大道销售服务中心,18671716377,体验和服务中心,18671713877
浙江省嘉兴市经济技术开发区龙凤路与新盛西路的交汇处万达广场一楼1061号商铺,嘉兴市,330400,30.7526,120.718002,浙江,330000,C933FAS01,小鹏汽车嘉兴经开万达广场体验中心,,体验中心,057382192209
长江中路77号华强吾悦广场1020-1、1020-2铺位,芜湖市,340200,31.34042,118.364541,安徽,340000,C934BAS02,小鹏汽车芜湖华强吾悦广场体验中心,,体验中心,0553-5222218
山西省晋城市城区文峰路与白水东街交叉路口晋城万达广场一楼1009B、1010铺,晋城市,140500,35.472755,112.882037,山西,140000,RS1400500,小鹏汽车晋城万达广场体验中心,,体验中心,0356-2222255
泉州市丰泽区安吉南路69号中骏世界城1层M130/129B,泉州市,350500,24.920401,118.658997,福建,350000,S3506,小鹏汽车泉州中骏世界城体验中心,,体验中心,0595-27559815
河北省张家口市经济技术开发区白云街1号万国汽配城后,张家口市,130700,40.78,114.94,河北,130000,RS1300600,小鹏汽车张家口白云街销售服务中心,,体验中心,0313-2018992
江苏省盐城市盐都区新都路88号,盐城市,320900,33.326236,120.137456,江苏,320000,C932JOS02,小鹏汽车盐城永宁销售服务中心,18036321765,体验和服务中心,051588231189
深圳市福田区中康路卓悦汇商场L1楼16+17a,深圳市,440300,22.5697,114.059998,广东,440000,C944BAS02,小鹏汽车深圳梅林卓悦汇体验中心,,体验中心,0755-28879816
亳州市经济开发区希夷大道 1008 号（万达广场3号门）,亳州市,341600,33.828999,115.779999,安徽,340000,RS3400700,小鹏汽车亳州杜仲路万达广场体验中心,,体验中心,0558-5818000
山东省济南市历城区经十东路199号济南融创文旅城融创茂L1层1001、1002铺位,济南市,370100,36.647499,117.185997,山东,370000,S3718,小鹏汽车济南融创茂体验中心,,体验中心,053180983136
广东省茂名市电白区坡心镇高水路278号之二,茂名市,440900,21.613503,110.961203,广东,440000,RS4410901,小鹏汽车茂名大道销售服务中心,0668-2190300,体验和服务中心,0668-2660988
山西省运城市经济技术开发区康杰北路34号河东汽贸空港车城内,运城市,140800,35.091049,111.049011,山西,140000,RS3600923,小鹏汽车运城河东汽贸空港销售服务中心,0359-2885550,体验和服务中心,0359-2885518
南湖路171号B612、B613、B614、B622,嘉兴市,330400,30.7565,120.764,浙江,330000,RS3302800,小鹏汽车嘉兴南湖天地体验中心,,体验中心,057383619177
重庆市渝中区长江二路174号C馆-G层-17铺,重庆市,500100,29.5361,106.513,重庆,500000,C950AOS01,小鹏汽车重庆龙湖时代天街体验中心,,体验中心,02363263353
广西壮族自治区南宁市良庆区东风路50号五象汽车生活广场二期30/31/32号铺位及二层铺位,南宁市,450100,22.720295,108.349169,广西,450000,RS4500901,小鹏汽车南宁五象汽车广场销售服务中心,0771-3300766,体验和服务中心,07713361299
苏州市相城区御窑路1699号大悦春风里1F L1-62号商铺,苏州市,320500,31.400499,120.608002,江苏,320000,C932EAS05,小鹏汽车苏州大悦春风里体验中心,,体验中心,051265106690
深圳市龙岗区平湖街道禾花社区华南二道华南城4号交易广场万达广场,深圳市,440300,22.6738,114.130997,广东,440000,C944BOS05,小鹏汽车深圳龙岗万达广场体验中心,,体验中心,075528700244
山东省滨州市滨城区渤海十一路滨州万达广场1楼1032铺,滨州市,371600,37.402699,117.994003,山东,370000,RS3702400,小鹏汽车滨州万达广场体验中心,,体验中心,05438600068
广东省东莞市虎门镇太沙路130号君乐汇购物中心A-131号铺,东莞市,441900,22.805799,113.684998,广东,440000,RS4410100,小鹏汽车东莞君乐汇体验中心,,体验中心,076989609998
重庆市渝北区金渝大道99号汽博中心新名车广场1楼1-12铺位,重庆市,500100,29.641199,106.574997,重庆,500000,C950BOD01,小鹏汽车重庆汽博体验中心,,体验中心,02360391128
广东省江门市蓬江区广场西路蓬江万达广场15幢1层-1F-03号铺,江门市,440700,22.6182,113.084999,广东,440000,C944JAS01,小鹏汽车江门万达广场体验中心,,体验中心,07503088912
深圳市龙岗区南湾街道下李朗社区布澜路21号联创科技1栋厂房A、B区A101A201,深圳市,440300,22.632381,114.130596,广东,440000,RS4409623,小鹏汽车深圳龙岗联创销售服务中心,0755-28870966,体验和服务中心,0755-28870866
深圳市坪山区坪山街道六联社区深汕路168号益田假日广场L1-12-1,深圳市,440300,22.692801,114.338997,广东,440000,S4456,小鹏汽车深圳坪山益田假日体验中心,,体验中心,075589660149
广东省东莞市长安镇长盛社区长青南路1号 L1009,东莞市,441900,22.8,113.8,广东,440000,RS4409321,小鹏汽车东莞长安万科广场体验中心,,体验中心,0769-83334686
河南省郑州市惠济区开元路省汽贸中心1号附6号楼1-2层,郑州市,410100,34.86408,113.67749,河南,410000,RS4100900,小鹏汽车郑州省汽贸销售服务中心,0371-86003777,体验和服务中心,0371-86001777
广东省广州市荔湾区西湾路150-3号小鹏汽车,广州市,440100,23.150037,113.243088,广东,440000,C944AOS06,小鹏汽车广州悦汇城体验中心,,体验中心,020-33974021
广东省梅州市三角镇金燕大道109号万达广场1022号铺,梅州市,441400,24.2714,116.137001,广东,440000,RS4409700,小鹏汽车梅州万达广场体验中心,,体验中心,07532299505
上海市浦东新区祖冲之路1181号长泰广场1F175室,上海市,310100,31.2059,121.601997,上海,310000,S3116,小鹏汽车上海浦东长泰广场体验中心,,体验中心,021-50409929
黑龙江省哈尔滨市道里区崂山路3号,哈尔滨市,230100,45.698002,126.532997,黑龙江,230000,RS2300101,小鹏汽车哈尔滨机场路销售服务中心,0451-87322325,体验和服务中心,0451-58860999
广东省广州市增城区荔城街道雁塔社区增城大道69号万达广场1楼1031,广州市,440100,23.2761,113.815002,广东,440000,S4451,小鹏汽车广州增城万达广场体验中心,,体验中心,02083320384
北京市海淀区远大路一号世纪金源购物中心东区一层A03通道,北京市,110100,39.958407,116.28904,北京,110000,XL1100423,小鹏汽车北京世纪金源卫星店,,体验中心,18810307765
上海市浦东新区秀浦路668号新田360广场 L105+L106号商铺,上海市,310100,31.125299,121.565002,上海,310000,S3115,小鹏汽车上海康桥360广场体验中心,,体验中心,021-38256353
河南省洛阳市涧西区万达广场一层1号中庭,洛阳市,410300,34.655102,112.406998,河南,410000,RS4100600,小鹏汽车洛阳万达广场体验中心,,体验中心,037963188666
云南省曲靖市麒麟区学府路361号（万达一楼1A022-1A023),曲靖市,530300,25.5194,103.755997,云南,530000,RS5300400,小鹏汽车曲靖万达广场体验中心,,体验中心,08743922995
驻马店市置地大道与乐山路交叉口玖隆茂商场一层,驻马店市,411700,33.003502,114.028,河南,410000,C941QAS01,小鹏汽车驻马店玖隆茂体验中心,,体验中心,03962999006
长沙市岳麓区洋湖路253号长沙荟聚中心L1层1D20T号,长沙市,430100,28.117701,112.938004,湖南,430000,C943AAS03,小鹏汽车长沙宜家荟聚体验中心,,体验中心,073185581652
西安市雁塔区木塔寨西路719号高新万达广场1F1033,西安市,610100,34.208302,108.891998,陕西,610000,C961AOS01,小鹏汽车西安高新万达体验中心,,体验中心,029-84500300
江苏省苏州市高新区塔园路181号龙湖狮山天街SZSSTJ-A-1F-20号,苏州市,320500,31.294869,120.556725,江苏,320000,C931AOW02S,小鹏汽车苏州龙湖狮山天街体验中心,,体验中心,0512-65162206
泉州经济技术开发区清濛园区西片区F-06地块,泉州市,350500,24.8696,118.542999,福建,350000,RS3501901,小鹏汽车泉州清濛开发区销售服务中心,0595-22012526,体验和服务中心,0595-27559829
山东省聊城市东昌府区柳园北路39号聊城万达广场1楼,聊城市,371500,36.478699,115.985001,山东,370000,RS3702600,小鹏汽车聊城万达广场体验中心,,体验中心,06355090999
经开区白鹤路工业园1号（附9号）,重庆市,500100,29.509501,106.560997,重庆,500000,RS5000701,小鹏汽车重庆金菱车世界销售服务中心,023-62600869,体验和服务中心,02362308022
浙江省宁波市鄞州区钱湖北街（路）288号 印象城F1层01-15商铺,宁波市,330200,29.833,121.566002,浙江,330000,C933BOS01,小鹏汽车宁波印象城体验中心,,体验中心,0574-88258852
上海市浦东新区耀体路212号1层114B店铺,上海市,310100,31.153,121.476997,上海,310000,RS3102800,小鹏汽车上海晶耀前滩体验中心,,体验中心,02150891007
广西省南宁市江南区亭洪路48-1号江南万达广场1F-1025,南宁市,450100,22.790247,108.31403,广西,450000,C945FAS01,小鹏汽车南宁江南万达体验中心,,体验中心,07715770788
人民东路与望龙路交叉口东南角龙湖芙蓉天街1F37号商铺,长沙市,430100,28.190043,113.074072,湖南,430000,RS4300900,小鹏汽车长沙龙湖芙蓉天街体验中心,,体验中心,073182851535
将军路街办事处金银潭大道1号136a,武汉市,420100,30.65025,114.236714,湖北,420000,S4208,小鹏汽车武汉金银潭永旺体验中心,,体验中心,02785773500
广东省东莞市厚街镇莞太路厚街段58号,东莞市,441900,22.9629,113.69397,广东,440000,RS4409421,小鹏汽车东莞厚街销售服务中心,0769-28822762,体验和服务中心,0769-28822880
驿都大道与天鹅西湖南路交接处,成都市,510100,30.582199,104.189003,四川,510000,C951AOS06,小鹏汽车成都龙泉世茂广场体验中心,,体验中心,02886517365
广东省深圳市罗湖区东晓街道太白路3008号天河城L1-119&120&121,深圳市,440300,22.578988,114.13488,广东,440000,RS4410600,小鹏汽车深圳天河城体验中心,,体验中心,0755-25366676
安徽省合肥市包河经济开发区繁华大道29华天大厦向东20米3号整栋标准厂房,合肥市,340100,31.795099,117.351997,安徽,340000,C934AOS02,小鹏汽车合肥包河汽车城销售服务中心,0551-65867669,体验和服务中心,055165860669
陕西省西安市未央区草滩十路1155号智巢创新空间7幢1层,西安市,610100,34.369099,108.853996,陕西,610000,C961AOS02,小鹏汽车西安经开销售服务中心,18109287503,体验和服务中心,029-81312700
广东省佛山市南海区里水镇佛山一环水口路出口广物汽贸·广佛汽车城,佛山市,440600,23.167892,113.171295,广东,440000,RS4410500,小鹏汽车佛山广佛汽车城体验中心,,体验中心,0757-86259892
江西省南昌市新建区望城新区武功山大道4138号,南昌市,360100,28.622386,115.724411,江西,360000,RS3600801,小鹏汽车南昌恒望销售服务中心,0791-83962092,体验和服务中心,0791-83962069
广东省惠州市演达大道7号港惠购物中心一期1139、1140a号商铺,惠州市,441300,23.068953,114.417497,广东,440000,C944LAS01,小鹏汽车惠州港惠新天地体验中心,,体验中心,07528906588
贵阳市南明区文昌南路33号亨特广场一层186号,贵阳市,520100,26.5711,106.723,贵州,520000,RS5200600,小鹏汽车贵阳亨特广场体验中心,,体验中心,0851-85612736
山东省日照市东港区万象汇L-112铺位,日照市,371100,35.420601,119.532997,山东,370000,RS3700600,小鹏汽车日照万象汇体验中心,,体验中心,06337071888
浙江省杭州市桐庐县城南街道环城南路555号银泰城1F 103号商铺,杭州市,330100,29.796,119.711998,浙江,330000,RS3303400,小鹏汽车杭州桐庐银泰城体验中心,,体验中心,057186987336
江西省南昌市红谷滩区沙井街道会展路999号万达广场1031B,南昌市,360100,28.6924,115.848999,江西,360000,RS3600600,小鹏汽车南昌红谷滩万达广场体验中心,,体验中心,0791-82090805
广东省汕头市金平区万达广场首层,汕头市,440500,23.381399,116.682999,广东,440000,C944DAS01,小鹏汽车汕头万达广场体验中心,,体验中心,075489922469
中国北京市昌平区北辰亚运村汽车交易市场3-10,北京市,110100,40.100513,116.425212,北京,110000,C911AAS05,小鹏汽车北京亚市销售服务中心,18515126277,体验和服务中心,010-53656635
呼和浩特市回民区海拉尔西街恒茂汽车中心1号,呼和浩特市,150100,40.824299,111.620003,内蒙古,150000,RS1500101,小鹏汽车呼和浩特海西路销售服务中心,0471-3312981,体验和服务中心,04713312980
湖北省襄阳市襄州区深圳工业园富康大道南（国际名车城）,襄阳市,420600,32.117662,112.251768,湖北,420000,RS4201701,小鹏汽车襄阳襄州销售服务中心,18186303151,体验和服务中心,
济南市市中区二环南路2688号领秀城贵和购物中心B102铺位,济南市,370100,36.593201,117.002998,山东,370000,RS3701100,小鹏汽车济南领秀城贵和体验中心,,体验中心,18753191063
广东省阳江市江城区东风一路3号百利广场一楼北环广场1043铺位,阳江市,441700,21.8535,111.964996,广东,440000,RS4408900,小鹏汽车阳江百利广场体验中心,,体验中心,06623636866
上海市闵行区都市路5001号仲盛世界商城GF14E号商铺,上海市,310100,31.1071,121.387001,上海,310000,RS3101900,小鹏汽车上海仲盛世界商城体验中心,,体验中心,02134306907
太仓经济开发区太平北路 111 号 8 栋 102 室东侧,苏州市,320500,31.482111,121.102866,江苏,320000,XL3202023,小鹏汽车苏州太仓森茂汽车城卫星店,,体验中心,18896856705
广东省江门市蓬江区建设三路215号3栋首层,江门市,440700,22.646192,113.061437,广东,440000,RS4410023,小鹏汽车江门蓬江销售服务中心,0750-3222288,体验和服务中心,0750-3222272
浙江省衢州市柯城区浙西大道109号15区3幢2号,衢州市,330800,28.938441,118.901209,浙江,330000,XL3302523,小鹏汽车衢州浙西汽车城卫星店,,体验中心,0570-3355089
浙江省台州市黄岩区大桥路1号新城吾悦广场1005商铺,台州市,331000,28.654892,121.261563,浙江,330000,XL3301223,小鹏汽车台州黄岩吾悦卫星店,,体验中心,0576-82522999
浙江省义乌市江东街道通宝路167号,金华市,330700,29.315201,120.139999,浙江,330000,AF3303600,小鹏汽车义乌江东服务中心,0579-85663305,服务中心,
深圳市南山区海湾路33号,深圳市,440300,22.4674,113.897003,广东,440000,C944BAA01,小鹏汽车深圳南山蛇口港服务中心,0755-26666003,服务中心,
陕西省榆林市榆阳区产业四路与青云二路交汇处,榆林市,610800,38.335499,109.872002,陕西,610000,AF6100401,小鹏汽车榆林青云路服务中心,0912-3568556,服务中心,
上海市闵行区梅陇镇景洪路3199号,上海市,310100,31.095699,121.443001,上海,310000,C931AAA07,小鹏汽车上海闵行服务中心,13166323887,服务中心,
江门市蓬江区建设三路215号3栋,江门市,440700,22.646192,113.061437,广东,440000,DC4403221,小鹏汽车江门蓬江服务中心,,,
福建省泉州市南安市霞美镇霞美东路168号,泉州市,350500,24.922951,118.491058,福建,350000,XL3500523,小鹏汽车泉州霞美福山汽车城卫星店,,体验中心,0595-68286888
浙江省温州市鹿城区温州大道2851号,温州市,330300,27.982033,120.663119,浙江,330000,XL3302923,小鹏汽车温州鹿城汽车城卫星店,,体验中心,
江苏省苏州市吴中区石湖西路136号,苏州市,320500,31.253201,120.615997,江苏,320000,C932EAA03,小鹏汽车苏州马上服务中心,13382109018,服务中心,
河南省洛阳市洛龙区开元大道与杜预街交叉口南350米,洛阳市,410300,34.600757,112.405446,河南,410000,XL4100123,小鹏汽车洛阳杜预街汽车城卫星店,,体验中心,0379-63188666
台州市椒江区东环大道1000号台州浙星广场内,台州市,331000,28.630432,121.423371,浙江,330000,AF3303800,小鹏汽车台州浙星广场服务中心,0576-88058000,服务中心,
江苏省镇江市丹阳市金陵西路88号吾悦广场1楼1号门,镇江市,321100,31.99692,119.60696,江苏,320000,XL3202323,小鹏汽车丹阳吾悦广场卫星店,,体验中心,051188856886
福建省福州市仓山区科技园六区116号,福州市,350100,26.0114,119.342003,福建,350000,C935AAD01,小鹏汽车福州宇翔服务中心,,,
扬州市邗江区扬子江北路999号,扬州市,321000,32.400799,119.415001,江苏,320000,C3217,小鹏汽车扬州国际汽车城服务中心,0514-87861196,服务中心,
四川省眉山市东坡区眉州大道西五段,眉山市,511400,30.0765,103.82,四川,510000,AF5100301,小鹏汽车眉山眉州大道服务中心,028-38188883,服务中心,
广东省肇庆市四会市东城街道商业大道吾悦广场首层1039铺,肇庆市,441200,23.34,112.72,广东,440000,XL4401623,小鹏汽车肇庆四会吾悦卫星店,,体验中心,07582839369
江苏省南京市建邺区江东中路258号,南京市,320100,32.00328,118.72858,江苏,320000,RS3204223,小鹏汽车南京华采天地体验中心,,体验中心,
上海市徐汇区吴中路100号15幢一楼,上海市,310100,31.19463,121.42079,上海,310000,XL3100723,小鹏汽车上海吴中路汽车城卫星店,,体验中心,02154652063
合肥市瑶海区包公大道与护城路交口,合肥市,340100,31.889799,117.413002,安徽,340000,C934AAA01,小鹏汽车合肥护城路服务中心,0551-65215666,服务中心,
东莞市南城区莞太大道231号,东莞市,441900,22.9999,113.730003,广东,440000,C944SAA02,小鹏汽车东莞南城服务中心,0769-23304588,服务中心,
云南省昆明市官渡区永中路38号海乐世界购物中心一层A07-1号,昆明市,530100,24.970577,102.741899,云南,530000,XL5300123,小鹏汽车昆明海乐世界卫星店,,体验中心,087163355015
广东省东莞市塘厦镇东深路塘厦段30号东益智能装备新能源汽车集聚园2栋,东莞市,441900,22.839434,114.107091,广东,440000,AF4404200,小鹏汽车东莞东益汽车园服务中心,0769-81127666,服务中心,
浙江省绍兴市诸暨市浣东街道苎萝东路399号中庭,绍兴市,330600,29.7,120.26,浙江,330000,XL3300723,小鹏汽车诸暨万风新天地卫星店,,体验中心,0575-87671188
江苏省常州市武进区湖塘镇武进汽车城C区9号,常州市,320400,31.69222,119.964068,江苏,320000,XL3200223,小鹏汽车常州武进汽车城卫星店,,体验中心,15961405157
临桂区临桂镇西城北路3号碧园印象53幢1层4-9号,桂林市,450300,25.2634,110.181022,广西,450000,AF4500500,小鹏汽车桂林两江大道服务中心,0773-5584619,服务中心,
江苏省南通市海安万达广场1050号铺位,南通市,320600,32.52,120.45,江苏,320000,XL3200323,小鹏汽车海安万达卫星店,,体验中心,13236099011
山东省滨州市滨城区东方红路口向北500米路东1111号沿街房,滨州市,371600,37.420655,118.019257,山东,370000,AF3700700,小鹏汽车滨州渤海五路服务中心,0543-3364111,服务中心,
潆溪镇康西路442号,南充市,511300,30.879,106.053001,四川,510000,AF5100600,小鹏汽车南充潆溪服务中心,0817-2465368,服务中心,
浙江省温州市瑞安市安阳街道吾悦广场1055-1056,温州市,330300,27.782143,120.663048,浙江,330000,XL3302623,小鹏汽车温州瑞安吾悦卫星店,,体验中心,13587885085
上海市徐汇区吴中路100号10幢一楼B区,上海市,310100,31.187479,121.414629,上海,310000,AF3101021,小鹏汽车上海吴中路服务中心,021-54652063,服务中心,
浙江省台州市临海市靖江南路179号一层,台州市,331000,28.82,121.15,浙江,330000,XL3301323,小鹏汽车台州临海靖江南路汽车城卫星店,,体验中心,0576-89581688
广东省东莞市塘厦镇东深路塘厦段30号东益智能装备新能源汽车集聚园2栋1-2层,东莞市,441900,22.838163,114.107573,广东,440000,XL4400823,小鹏汽车东莞东益汽车园卫星店,,体验中心,0769-83198222
江苏省无锡市锡山区先锋中路25-6号,无锡市,320200,31.582701,120.418999,江苏,320000,C932BAA02,小鹏汽车无锡锡东服务中心,0510-82860080,服务中心,
梧州市万秀区高旺路1号1F层1032号商铺,梧州市,450400,23.46,111.29,广西,450000,XL4500223,小鹏汽车梧州高旺万达卫星店,,体验中心,0774-2832989
广州市天河区天河路230号号万菱汇L1-43号铺,广州市,440100,23.132608,113.330622,广东,440000,XL4401323,小鹏汽车广州万菱汇卫星店,,体验中心,02085591229
江苏省徐州市云龙区云龙万达广场1052,徐州市,320300,34.253522,117.247493,江苏,320000,XL3201123,小鹏汽车徐州云龙万达卫星店,,体验中心,0516-88366566
深圳市宝安区西乡街道宝源路宝港中心A座A102号,深圳市,440300,22.593,113.835999,广东,440000,C944BAA02,小鹏汽车深圳宝安宝港服务中心,0755-28993806,服务中心,
深圳市龙华区大浪街道新石社区嘉义源数码科技园6号1层,深圳市,440300,22.6898,113.994003,广东,440000,C4460,小鹏汽车深圳龙华嘉义源服务中心,0755-28162626,服务中心,
杭州市余杭区仓前街道龙泉路18号,杭州市,330100,30.2803,119.982,浙江,330000,C933AOA01,小鹏汽车杭州余杭服务中心,0571-86888026,服务中心,
福建省龙岩市新罗区东城东宫下东兴路219号,龙岩市,350800,25.125999,117.052002,福建,350000,AF3500700,小鹏汽车龙岩东兴路服务中心,0597-2798999,服务中心,
江苏省南通市崇川区东方大道高架旁宏兴路与晨阳路交界处,南通市,320600,31.9312,120.978996,江苏,320000,C932FAA01,小鹏汽车南通东方大道服务中心,0513-85500100,服务中心,
广西壮族自治区柳州市鱼峰区官塘大道121号柳东汽车贸易园(一期)3#101、201、301 、401号房,柳州市,450200,24.417006,109.546502,广西,450000,DC4500200N,小鹏汽车柳州官塘大道服务中心,0772-2992604,服务中心,
江苏省宿迁市双庄国际汽车城(风驰路西向南100米),宿迁市,321300,33.929861,118.232484,江苏,320000,AF3202122,小鹏汽车宿迁双庄汽车城服务中心,0527-82886555,服务中心,
云南省昆明市盘龙区车行天下2期新东集A座B1层,昆明市,530100,25.038536,102.798478,云南,530000,C953AAA01,小鹏汽车昆明车行天下服务中心,0871-63585586,服务中心,
安徽省合肥市蜀山区天智路4号,合肥市,340100,31.83,117.21,安徽,340000,AF3401122,小鹏汽车合肥西二环汽车城服务中心,0551-63518889,服务中心,
广东省阳江市阳东区东城镇广雅路与东风四路交汇处（石化加油站旁小鹏汽车）,阳江市,441700,21.8911,112.028999,广东,440000,AF4403400,小鹏汽车阳江广雅路服务中心,0662-6619866,服务中心,
长春市宽城区北凯旋路3999-7号,长春市,220100,43.976299,125.287003,吉林,220000,AF2200101,小鹏汽车长春瑞鹏路服务中心,0431-89691111,服务中心,
浙江省杭州市余杭区古墩路1888号永旺梦乐城,杭州市,330100,30.36733,120.06555,浙江,330000,XL3301623,小鹏汽车杭州永旺梦乐城卫星店,,体验中心,057126303689
厦门市集美区岩隆路33-6号厦门汽车城汽车公共服务中心3号楼一层,厦门市,350200,24.634701,118.061996,福建,350000,C935DOA01,小鹏汽车厦门集美服务中心,0592-5091680,服务中心,
山东省日照市奎山汽车城204国道西,日照市,371100,35.390301,119.435997,山东,370000,AF3700500,小鹏汽车日照奎山汽车城服务中心,0633-2297111,服务中心,
广东省中山市小榄镇永宁菊城大道西176号金宁汽车城B1-1幢首层,中山市,442000,22.645252,113.225129,广东,440000,XL4402123,小鹏汽车中山小榄金宁汽车城卫星店,,体验中心,0760-88889880
广东省湛江市麻章区瑞云南路3号金富大厦,湛江市,440800,21.250799,110.343002,广东,440000,C4445,小鹏汽车湛江金富服务中心,0759-3279038,服务中心,
驻马店市驿城区置地大道与兴业大道交叉口东南角长仑工业园内01号,驻马店市,411700,33.000099,114.066002,河南,410000,C941QAA01,小鹏汽车驻马店峄城服务中心,0396-2999007,服务中心,
枣庄市薛城区兴仁街道茂源北路路东108号门市,枣庄市,370400,34.8092,117.288002,山东,370000,AF3700600,小鹏汽车枣庄茂源路服务中心,0632-5199665,服务中心,
上海市普陀区真陈路38号二幢一层A区,上海市,310100,31.293087,121.353361,上海,310000,C931AAA01,小鹏汽车上海普陀桃浦服务中心,021-56081338,服务中心,
沧州市开发区石港路与沧盐路交叉口中石油加油站东侧,沧州市,130900,38.2836,116.913002,河北,130000,C913JAA01,小鹏汽车沧州瑞鑫服务中心,0317-3092001,服务中心,
山西省临汾市尧都区屯里镇沟上村,临汾市,141000,36.1306,111.556,山西,140000,AF1400400,小鹏汽车临汾屯里服务中心,0357-2991588,服务中心,
江苏省扬州市江阳中路425号M会员店1-1001,扬州市,321000,32.37,119.41,江苏,320000,XL3202123,小鹏汽车扬州M会员店卫星店,,体验中心,051487018856
江苏省无锡市江阴市虹桥南路256号江阴八佰伴L1009,无锡市,320200,31.897369,120.270024,江苏,320000,RS3202500,小鹏汽车无锡江阴八佰伴体验中心,,体验中心,
湖北省恩施市六角亭街道恩施国际汽车城2期12号楼,恩施土家族苗族自治州,422800,30.2827,109.454002,湖北,420000,AF4200800,小鹏汽车恩施松树坪国际汽车城服务中心,0718-8110039,服务中心,
山西省太原市小店区马连营路59号新汇众汽车家园小鹏4S店,太原市,140100,37.7624,112.608266,山西,140000,C1405,小鹏汽车太原龙城服务中心,0351-2488181,服务中心,
山东省济南市历下区奥体中路4331号小鹏汽车,济南市,370100,36.677101,117.114998,山东,370000,C937AAA04,小鹏汽车济南奥体中路服务中心,17553107828,服务中心,
广州市黄埔区宏景路67号,广州市,440100,23.123841,113.527456,广东,440000,AF4403700,小鹏汽车广州黄埔宏景服务中心,020-31608924,服务中心,
绵阳市经开区机场东路206号,绵阳市,510700,31.421499,104.769997,四川,510000,AF5100500,小鹏汽车绵阳机场东路服务中心,0816-6917888,服务中心,
浙江省杭州市余杭区西溪亲橙里1层2-1,杭州市,330100,30.28,120.03,浙江,330000,XL3300123,小鹏汽车杭州亲橙里卫星店,,体验中心,0571-87071167
惠州市惠城区惠州大道11号佳兆业中心二期一层01号L111/114商铺,惠州市,441300,23.117189,114.417714,广东,440000,XL4400423,小鹏汽车惠州佳兆业卫星店,,体验中心,0752-8906585
陕西省西安市未央区沣东新城三桥疏导线58号西部车城内新能源区1-（EV）02小鹏汽车,西安市,610100,34.29,108.82,陕西,610000,XL6100223,小鹏汽车西安西部车城卫星店,,体验中心,18240838815
浙江省宁波市鄞州区下应北路678号,宁波市,330200,29.818199,121.595001,浙江,330000,C933BAA02,小鹏汽车宁波俊鞍服务中心,0574-28832003,服务中心,
海南省儋州市兰洋北路111号1F-045B,儋州市,460400,19.528381,109.589448,海南,460000,XL4600123,小鹏汽车儋州夏日广场卫星店,,体验中心,0898-68550260
海南省海口市秀英区南海大道230号利星汽车城内,海口市,460100,19.992599,110.276001,海南,460000,C946AAA01,小鹏汽车海口华胜行服务中心,0898-68607119,服务中心,
山东省菏泽市定陶区广州路与曙光路交叉口向东50米路北小鹏汽车服务中心,菏泽市,371700,35.112218,115.579304,山东,370000,C937RAA01,小鹏汽车菏泽汽车小镇服务中心,16653080101,服务中心,
内蒙古自治区包头市青山区万青路草原小区威龙汽车城南侧销售展厅,包头市,150200,40.645802,109.883003,内蒙古,150000,AF1500200,小鹏汽车包头威龙汽车城服务中心,13245120008,服务中心,
漳州市龙文区龙文北路与浦口路交叉口,漳州市,350600,24.524401,117.718002,福建,350000,AF3500800,小鹏汽车漳州龙文北路服务中心,18006966270,服务中心,
云南省大理白族自治州大理市经济开发区巍山路大理国际会展中心泛亚490号,大理白族自治州,532900,25.595615,100.262609,云南,530000,AF5300521,小鹏汽车大理泛亚汽车城服务中心,0872-2134530,服务中心,
贵阳孟关汽贸城20号地块中心绿地公园地下A6-A7商铺,贵阳市,520100,26.4,106.74,贵州,520000,XL5200123,小鹏汽车贵阳孟关汽车城卫星店,,体验中心,0851-83859335
内蒙古鄂尔多斯市东胜区原和平宴会城北墙底商小鹏汽车交付中心,鄂尔多斯市,150600,39.820555,109.973723,内蒙古,150000,DC1500100,小鹏汽车鄂尔多斯天骄路服务中心,,,
江苏省扬州市高邮市吾悦广场1027铺位,扬州市,321000,32.78,119.48,江苏,320000,XL3200923,小鹏汽车高邮吾悦卫星店,,体验中心,0514-84435887
广东省珠海市香洲区梅界路珠海奥园广州一期中庭L1-09/10商铺,珠海市,440400,22.2819,113.514999,广东,440000,XL4400723,小鹏汽车珠海奥园卫星店,,体验中心,0756-8622775
浙江省温州市苍南县玉苍路1088号(苍南银泰 一楼1013号),温州市,330300,27.51,120.43,浙江,330000,XL3301023,小鹏汽车温州苍南银泰城卫星店,,体验中心,057788815999
山东省威海市环翠区温泉西路119号32号,威海市,371000,37.367001,122.137001,山东,370000,AF3701600,小鹏汽车威海金蚂蚁汽车广场服务中心,0631-5996506,服务中心,
浙江省台州市椒江区东环大道1000号一幢3号,台州市,331000,28.630512,121.423347,浙江,330000,XL3302323,小鹏汽车台州浙星广场汽车城卫星店,,体验中心,0576-88671688
浙江省衢州市柯城区浙西大道109号16区1幢,衢州市,330800,28.930965,118.895088,浙江,330000,AF3300600,小鹏汽车衢州浙西汽车城服务中心,0570-3355050,服务中心,
浙江省台州市路桥区新安南街766号,台州市,331000,28.565061,121.38569,浙江,330000,C933JAA01,小鹏汽车台州路桥服务中心,0576-82444247,服务中心,
成都市锦江区三圣街道喜树街609号华熙528-A区1109号,成都市,510100,30.593066,104.145741,四川,510000,XL5100423,小鹏汽车成都华熙LIVE卫星店,,体验中心,02886258812
合肥市蜀山区长江西路189号 之心城购物中心1层08C号商铺 小鹏汽车,合肥市,340100,31.853481,117.257206,安徽,340000,XL3400223,小鹏汽车合肥之心城卫星店,,体验中心,055165860669
德州市德城区大学西路1758号（金车汽贸）,德州市,371400,37.4711,116.308998,山东,370000,AF3700900,小鹏汽车德州金车汽贸服务中心,0534-2360222,服务中心,
江苏省南通市开发区永旺梦乐城129-131b,南通市,320600,31.922246,120.96292,江苏,320000,XL3200623,小鹏汽车南通永旺梦乐城卫星店,,体验中心,19895928816
新港大道与新港三路交界处的楷博大厦,黄冈市,421100,30.441601,114.919998,湖北,420000,AF4201100,小鹏汽车黄冈楷博大厦服务中心,0713-8888769,服务中心,
贵州省毕节市金海湖新区梨树镇梨树村高铁站旁通源汽车文化广场,毕节地区,520500,27.26389,105.41033,贵州,520000,AF5200522,小鹏汽车毕节碧阳大道服务中心,0857-7135555,服务中心,
浙江人嘉兴市海宁市海昌南路363号B-1121铺位,嘉兴市,330400,30.50127,120.692942,浙江,330000,XL3300323,小鹏汽车海宁银泰城卫星店,,体验中心,13586322394
上海上海市松江区九亭镇沪亭北路99弄1楼,上海市,310100,31.14,121.32,上海,310000,XL3100123,小鹏汽车上海九亭金地卫星店,,体验中心,021-59116612
南珠大道52号,北海市,450500,21.486099,109.168999,广西,450000,AF4500700,小鹏汽车北海南珠大道服务中心,0779-3832222,服务中心,
四川省乐山市市中区龙游路北段518号,乐山市,511100,29.612,103.737,四川,510000,AF5100700,小鹏汽车乐山天牛汽车城销售服务中心,0833-2444885,服务中心,
安徽省芜湖市鸠江区阳明路28号,芜湖市,340200,31.3792,118.422997,安徽,340000,C934BAA02,小鹏汽车芜湖阳明路服务中心,0553-5222006,服务中心,
北京市顺义区仁和镇杜杨北街21号新丰泰集团,北京市,110100,40.103359,116.6314,北京,110000,AF1101223,小鹏汽车北京杜杨北街服务中心,010-56848898,服务中心,
浙江省宁波市慈溪浒崇公路489号,宁波市,330200,30.191914,121.245521,浙江,330000,XL3302123,小鹏汽车宁波慈溪浒崇公路汽车城卫星店,,体验中心,0574-27869393
四川省成都市成华区成致路1号附13号,成都市,510100,30.684432,104.166932,四川,510000,XL5100223,小鹏汽车成都龙潭寺汽车城卫星店,,体验中心,028-61066899
成都市武侯区大悦路518号,成都市,510100,30.626087,104.011853,四川,510000,XL5100323,小鹏汽车成都武侯大悦城卫星店,,体验中心,02885910176
浙江省宁波市海曙区中山西路3666号海曙印象城L1-27,宁波市,330200,29.89692,121.478429,浙江,330000,XL3300523,小鹏汽车宁波海曙印象城卫星店,,体验中心,057427869393
陕西省西咸新区三桥疏导路付58号,咸阳市,610400,34.290449,108.819794,陕西,610000,AF6100101,小鹏汽车西咸新区三桥服务中心,029-84520058,服务中心,
清远市清城区新城B28区奇鸿汽车城,清远市,441800,23.662105,113.0552,广东,440000,AF4403600,小鹏汽车清远广清大道服务中心,0763-3988939,服务中心,
河南省安阳市文峰区彰德路南段玄鸟北100米路东（宝捷汽贸院内）,安阳市,410500,36.075298,114.348,河南,410000,AF4101300,小鹏汽车安阳彰德路服务中心,0372-2568199,服务中心,
新疆乌鲁木齐市米东区永顺街1642-1号,乌鲁木齐市,650100,43.943981,87.627857,新疆,650000,RS3100122,小鹏汽车乌鲁木齐天汇汽车城销售服务中心,,体验和服务中心,
广东省惠州市惠阳区大亚湾西区街道龙海二路38号万达广场1F层1013A,惠州市,441300,22.755273,114.47992,广东,440000,XL4401823,小鹏汽车惠州大亚湾万达卫星店,,体验中心,0752-5299789
安徽省阜阳市济技术开发区新安路788号和华海悦城,阜阳市,341200,32.85059,115.858192,安徽,340000,C934KAA01,小鹏汽车阜阳华海服务中心,0558-2221092,服务中心,
浙江省台州市玉环市双港路888号吾悦广场F1007铺位,台州市,331000,28.11,121.23,浙江,330000,XL3300823,小鹏汽车台州玉环吾悦卫星店,,体验中心,057682968111
河南省许昌市建安区许州路与新东街交叉口东100米汽车公园内,许昌市,411000,34.028702,113.889999,河南,410000,C941KAA01,小鹏汽车许昌东城区新东街服务中心,0374-2770059,服务中心,
浙江省丽水市莲都区车城路135号,丽水市,331100,28.471399,119.956001,浙江,330000,AF3301000,小鹏汽车丽水岩泉汽车城服务中心,0578-2616881,服务中心,
广东省清远市清城区新城 B28区奇鸿汽车城,清远市,441800,23.66219,113.055352,广东,440000,XL4402023,小鹏汽车清远广清大道汽车城卫星店,,体验中心,0763-3988939
福建省泉州市南安市霞美镇霞美东路168号,泉州市,350500,24.921647,118.492358,福建,350000,AF3501122,小鹏汽车泉州霞美服务中心,0595-68286999,服务中心,
长沙市长沙县芙蓉区雄天路118号长沙现代服务业产业园四栋一楼,长沙市,430100,28.214513,113.075742,湖南,430000,C943AOA01,小鹏汽车长沙芙蓉服务中心,0731-82910190,服务中心,
苏州新区永旺梦乐城127号铺位,苏州市,320500,31.37,120.53,江苏,320000,XL3200723,小鹏汽车苏州新区永旺梦乐城卫星店,,体验中心,18360481115
陕西省西安市雁塔区雁翔路3369号曲江创意谷中央广场,西安市,610100,34.212565,109.012921,陕西,610000,XL6100323,小鹏汽车西安曲江创意谷卫星店,,体验中心,18710729780
广东省佛山市禅城区石湾街道佛山世纪车城小鹏汽车禅城店,佛山市,440600,22.995199,113.099998,广东,440000,AF4403300,小鹏汽车佛山禅城服务中心,0757-83131309,服务中心,
湖北省荆门市高新区掇刀区月亮湖路国际汽车城江山2路9号1幢,荆门市,420800,31.041201,112.237999,湖北,420000,AF4200900,小鹏汽车荆门国际汽车城服务中心,13617241345,服务中心,
上海浦东新区金湘路500号,上海市,310100,31.250601,121.608002,上海,310000,C931AAA02,小鹏汽车上海金桥服务中心,021-58212266,服务中心,
开封市龙亭区金明大道与稻一路交叉口向西800米33号,开封市,410200,34.848492,114.294294,河南,410000,AF4101500,小鹏汽车开封稻一路服务中心,0371-25550006,服务中心,
南京市浦口区文景路99号龙湖南京江北天街2号门1F-59A,南京市,320100,32.159344,118.696709,江苏,320000,XL3202223,小鹏汽车南京龙湖江北天街卫星店,,体验中心,02558881609
湖南省长沙市长沙县蒸湘路242号,长沙市,430100,28.237386,113.066835,湖南,430000,XL4300423,小鹏汽车长沙中南汽车城卫星店,,体验中心,073188155901
安徽省马鞍山市湖西南路152号（院内）,马鞍山市,340500,31.6404,118.499001,安徽,340000,AF3400400,小鹏汽车马鞍山湖西南路服务中心,0555-2107998,服务中心,
江苏省南通市崇川区桃源路10号1027-1028号,南通市,320600,31.97,120.9,江苏,320000,XL3200423,小鹏汽车南通中南百货卫星店,,体验中心,15962952292
广州市番禺区东环街甘棠村市新路140号之二,广州市,440100,22.959499,113.375,广东,440000,C944AAA01,小鹏汽车广州华奔服务中心,020-34516651,服务中心,
合肥市经开区芙蓉路291号正大广场室内一层1041铺位,合肥市,340100,31.78,117.23,安徽,340000,XL3400123,小鹏汽车合肥正大卫星店,,体验中心,13966717283
深圳市宝安区沙井街道大王山社区沙井南环路381号A1栋二层,深圳市,440300,22.7176,113.8025,广东,440000,AF4403800,小鹏汽车深圳宝安沙井服务中心,18148525105,服务中心,
宝屯社区康乐北路6号厚街万达广场L1-L1-1025-1026,东莞市,441900,22.943899,113.674004,广东,440000,RS4407600,小鹏汽车东莞厚街万达广场体验中心,,体验中心,076985886656
陕西省汉中市汉台区航空经济技术开发区管理委员会向北200米,汉中市,610700,33.068,107.126,陕西,610000,AF6100500,小鹏汽车汉中兴汉路服务中心,0916-8158158,服务中心,
山东省枣庄滕州市滕州万达广场1楼1078号商铺,枣庄市,370400,35.109675,117.194406,山东,370000,XL3700223,小鹏汽车滕州万达卫星店,,体验中心,0632-5252600
深圳市龙岗区吉祥路555号,深圳市,440300,22.7267,114.237999,广东,440000,C944BAA03,小鹏汽车深圳龙岗吉祥路服务中心,0755-84509656,服务中心,
河北省衡水市高新区胜利路南侧，顺兴大街西侧衡水敬诚橡胶贸易有限公司院内,衡水市,131100,37.736099,115.632004,河北,130000,AF1300900,小鹏汽车衡水胜利路服务中心,0318-6999993,服务中心,
江苏省苏州市常熟市东风路12号,苏州市,320500,31.636283,120.796265,江苏,320000,XL3202623,小鹏汽车常熟汽车市场卫星店,,体验中心,
青岛市城阳区城阳街道吕家庄社区（青威路与春阳路交叉口北50米）,青岛市,370200,36.3162,120.420998,山东,370000,RS3702901,小鹏汽车青岛城阳销售服务中心,0532-87712828,服务中心,053287712288
周浦镇沪南公路建豪路92号,上海市,310100,31.093479,121.571766,上海,310000,AF3100500,小鹏汽车上海浦东服务中心,021-20906867,服务中心,
重庆市渝中区石油路街道8号,重庆市,500100,29.5441,106.509003,重庆,500000,C950AAA01,小鹏汽车重庆商社悦通服务中心,023-68590909,服务中心,
广西省玉林市玉林市玉州区一环东路44-46号百花汇购物广场一号楼,玉林市,450900,22.630501,110.167,广西,450000,AF4500800,小鹏汽车玉林永嘉园服务中心,0775-2299928,,
辽宁省大连市甘井子区华北路北市商贸街158号,大连市,210200,39.019957,121.627386,辽宁,210000,XL2100223,小鹏汽车大连市华北路卫星店,,体验中心,15842628428
湖南省衡阳市蒸湘区联合街道杨柳村二组（外环西路）,衡阳市,430400,26.872601,112.574997,湖南,430000,AF4300600,小鹏汽车衡阳杨柳汽贸城服务中心,0734-8157666,服务中心,
云南省曲靖市麒麟区玉林南路460号家讯车市4-6号铺面,曲靖市,530300,25.541901,103.811996,云南,530000,AF5300200,小鹏汽车曲靖玉林南路服务中心,0874-3944995,服务中心,
浙江省杭州市宁围镇浙江世纪汽车市场2幢26号,杭州市,330100,30.2043,120.288,浙江,330000,XL3303023,小鹏汽车杭州萧山汽车城卫星店,,体验中心,13094808868
山西省长治市长治高新技术产业开发区北外环路关村汽贸城东第一排（2号）,长治市,140400,36.224701,113.148003,山西,140000,AF1400601,小鹏汽车长治关村汽贸城服务中心,0355-6057668,服务中心,
江苏省盐城市西环路88号万达广场一层1018号商铺,盐城市,320900,33.364696,120.135398,江苏,320000,XL3201923,小鹏汽车盐城万达卫星店,,体验中心,051588213151
广东省江门市新会区启超大道2号万达广场一层1020-1021铺,江门市,440700,22.503515,113.046638,广东,440000,XL4400323,小鹏汽车江门新会万达卫星店,,体验中心,0750-331886
浙江省湖州市吴兴区南街580号,湖州市,330500,30.871394,120.105588,浙江,330000,XL3301723,小鹏汽车湖州爱山银泰城卫星店,,体验中心,05722260252
江苏省镇江市润州区官塘桥路299号,镇江市,321100,32.171919,119.468717,江苏,320000,AF3201400,小鹏汽车镇江官塘桥路服务中心,0511-85516666,服务中心,
杭州市余杭区五常街道西溪印象城B座P3-01-03/04,杭州市,330100,30.25,120.05,浙江,330000,XL3301523,小鹏汽车杭州西溪印象城卫星店,,体验中心,0571-85068810
广东省珠海市香洲区银湾路268号1层1004号商铺,珠海市,440400,22.173664,113.521258,广东,440000,XL4402423,小鹏汽车珠海十字门A8卫星店,,体验中心,0756-8336223
浙江省嘉兴市平湖区平湖吾悦广场1号门,嘉兴市,330400,30.678401,121.026915,浙江,330000,XL3303123,小鹏汽车嘉兴平湖吾悦广场卫星店,,体验中心,13511330674
济宁市刘堤头转盘南路东（金宇汽配城对过）,济宁市,370800,35.4291,116.549004,山东,370000,AF3701000,小鹏汽车济宁任城服务中心,0537-2896000,服务中心,
浙江省嘉兴市南湖区南溪东路1362号,嘉兴市,330400,30.7465,120.827003,浙江,330000,C933FAA01,小鹏汽车嘉兴禾众服务中心,0573-82589666,服务中心,
山东省聊城市开发区东昌东路东首路北,聊城市,371500,36.454243,115.997815,山东,370000,AF3701400,小鹏汽车聊城五洲东昌路服务中心,0635-8207678,服务中心,
广东省深圳市龙华区龙华大道3839号壹方天地D区L1-046铺,深圳市,440300,22.6431,114.032419,广东,440000,XL4401723,小鹏汽车深圳壹方天地卫星店,,体验中心,0755-23737067
浙江省东阳市人民路106号第一百货,金华市,330700,29.27,120.24,浙江,330000,XL3300423,小鹏汽车东阳第一百货卫星店,,体验中心,13958408700
盐城市东台市惠阳路107号吾悦广场1楼1016号商铺,盐城市,320900,32.83212,120.320636,江苏,320000,XL3201423,小鹏汽车盐城东台吾悦卫星店,,体验中心,051588231189
上海市闵行区剑川路1000号龙湖闵行天街L1-9号商铺,上海市,310100,31.026158,121.414887,上海,310000,XL3100223,小鹏汽车上海龙湖闵行天街卫星店,,体验中心,13921121566
浙江省绍兴市越城区袍江汽车城袍中北路507号,绍兴市,330600,30.08938,120.615668,浙江,330000,XL3302223,小鹏汽车绍兴袍江汽车城卫星店,,体验中心,
广东省东莞市塘厦镇东深路塘厦段30号东益智能装备新能源汽车集聚园2栋102室,东莞市,441900,22.839347,114.107106,广东,440000,RS4409923,小鹏汽车东莞东益汽车园销售服务中心,,体验中心,
浙江省绍兴市诸暨市陶朱街道北二环路9号,绍兴市,330600,29.74385,120.192816,浙江,330000,AF3302823,小鹏汽车诸暨北二环销售服务中心,0575-89088512,服务中心,
湖南省郴州市北湖区万华汽车城A18栋一楼,郴州市,431000,25.743248,112.952066,湖南,430000,XL4300323,小鹏汽车郴州万华汽车城卫星店,,体验中心,0735-2886111
河北省张家口经济技术开发区张宣公路西侧白云街1号,张家口市,130700,40.755085,114.906049,河北,130000,AF1300800,小鹏汽车张家口白云街服务中心,0313-2066999,服务中心,
上海市浦东新区陆家嘴西路168号正大广场一楼GF03号,上海市,310100,31.236752,121.49917,上海,310000,XL3100823,小鹏汽车上海正大广场卫星店,,体验中心,18917698865
天津市南开区黄河道513号熙悦汇购物中心1F-17号商铺,天津市,120100,39.136959,117.123772,天津,120000,XL1200423,小鹏汽车天津熙悦汇卫星店,,体验中心,022-85283088
一通国际汽车城汽配区A2栋,河源市,441600,23.777901,114.68,广东,440000,AF4403200,小鹏汽车河源一通国际汽车城服务中心,18666653871,服务中心,
上海市松江区泗泾镇九干路50号,上海市,310100,31.126101,121.294998,上海,310000,AF3100700,小鹏汽车上海九亭服务中心,400-102-1596,服务中心,
广东省佛山市顺德区大良街道欢乐大道1号OPLAZA欢乐海岸购物中心F117号铺,佛山市,440600,22.82,113.31,广东,440000,XL4400123,小鹏汽车佛山顺德OPLAZA欢乐海岸卫星店,,体验中心,0757-22200760
江苏省常熟市东南开发区东南大道358号（小鹏汽车服务中心）,苏州市,320500,31.601299,120.793999,江苏,320000,AF3201500,小鹏汽车常熟东南大道服务中心,15312170969,服务中心,
蚌埠市迎宾大道1155号国际汽车城32栋附1号,蚌埠市,340300,32.862499,117.308998,安徽,340000,AF3400300,小鹏汽车蚌埠国际汽车城服务中心,0552-3708983,服务中心,
湖南省株洲市天元区吉利路汽车博览园内9号,株洲市,430200,27.818399,113.057999,湖南,430000,AF4300201,小鹏汽车株洲天元汽车博览园服务中心,0731-22280808,服务中心,
湖北省十堰市茅箭区东风大道40号,十堰市,420300,32.604198,110.847,湖北,420000,AF4200600,小鹏汽车十堰东风大道服务中心,0719-8765151,服务中心,
广东省江门市蓬江区建设三路215号3栋首层,江门市,440700,22.645413,113.061191,广东,440000,XL4400923,小鹏汽车江门蓬江汽车城卫星店,,体验中心,0750-3222288
广东省佛山市三水区万达广场1022铺位,佛山市,440600,23.178277,112.903944,广东,440000,XL4400523,小鹏汽车佛山三水万达卫星店,,体验中心,18585791201
广东省珠海市高新区唐家湾镇金峰北路 88 号宝龙广场一层 L1-044-01 商铺,珠海市,440400,22.381257,113.551213,广东,440000,XL4401923,小鹏汽车珠海高新宝龙卫星店,,体验中心,0756-8336132
浙江省绍兴市嵊州市吾悦广场广场1502铺位,绍兴市,330600,29.57,120.82,浙江,330000,XL3300923,小鹏汽车嵊州吾悦卫星店,,体验中心,0575-83671650
安徽省亳州市经开区杜仲路与桐乡路交叉口西北侧,亳州市,341600,33.831799,115.760002,安徽,340000,AF3400500,小鹏汽车亳州远景汽车城服务中心,0558-5818222,服务中心,
浙江省温州市平阳县鳌江镇车站大道88号万达广场1019A铺位,温州市,330300,27.587016,120.573897,浙江,330000,XL3301123,小鹏汽车温州平阳万达卫星店,,体验中心,057762577277
上海市奉贤区金海公路3800号龙湖奉贤天街A-1F-36,上海市,310100,30.913418,121.496887,上海,310000,XL3100623,小鹏汽车上海奉贤龙湖天街卫星店,,体验中心,13671969520
江苏省常州市溧阳市古县街道吾悦广场一楼1010铺位,常州市,320400,31.78,119.95,江苏,320000,XL3200123,小鹏汽车溧阳吾悦卫星店,,体验中心,15895013118
江苏省无锡市新区梅村新都路29号,无锡市,320200,31.5613,120.417999,江苏,320000,C932BAA01,小鹏汽车无锡华尊服务中心,18961837768,服务中心,
江苏省淮安市淮阴区钱江路100号,淮安市,320800,33.653875,119.028071,江苏,320000,AF3201101,小鹏汽车淮安香港路服务中心,0517-89682666,服务中心,
江西省九江市经济技术开发区九瑞大道176号,九江市,360400,29.702499,115.935997,江西,360000,AF3600400,小鹏汽车九江国际汽车城服务中心,0792-8888360,服务中心,
四川省德阳市旌阳区八角工业园区柳江街1号,德阳市,510600,31.072001,104.385002,四川,510000,AF5100400,小鹏汽车德阳八角服务中心,0838-2603182,服务中心,
湖南省常德市武陵区龙港北路小鹏汽车二楼（湘西北汽车城内）,常德市,430700,29.074499,111.674004,湖南,430000,AF4300300,小鹏汽车常德湘西北汽车城服务中心,0736-7172518,服务中心,
陕西省西安市雁塔区芙蓉西路芙蓉新天地购物中心1F-1005（大唐芙蓉园南门对面）,西安市,610100,34.21,108.97,陕西,610000,XL6100423,小鹏汽车西安芙蓉新天地卫星店,,体验中心,
民主路与金桥路交叉口,商丘市,411400,34.440601,115.596001,河南,410000,AF4100800,小鹏汽车商丘中原车城服务中心,0370-2235559,服务中心,
淄博市张店区山泉路89号,淄博市,370300,36.77,118.041,山东,370000,AF3701100,小鹏汽车淄博张店服务中心,0533-7989399,服务中心,
江西省宜春经济技术开发区经发大道6号,宜春市,360900,27.85,114.4,江西,360000,AF3600500,小鹏汽车宜春经发大道服务中心,0795-3658883,服务中心,
河南省焦作市中站区人民路西段蚂蚁汽车城内,焦作市,410800,35.2048,113.158997,河南,410000,AF4101400,小鹏汽车焦作蚂蚁汽车城服务中心,0391-2999002,服务中心,
广州市番禺区南村镇兴业大道东488号4栋1楼101,广州市,440100,22.995501,113.370003,广东,440000,C944AOA05,小鹏汽车广州番禺服务中心,020-84503960,服务中心,
广东省汕头市龙湖区汕汾路与淮河路交界处北侧,汕头市,440500,23.392342,116.726265,广东,440000,C944DAA01,小鹏汽车汕头龙湖服务中心,0754-86960696,服务中心,
河南省洛阳市洛龙区开元大道杜预街向南300米,洛阳市,410300,34.6008,112.404999,河南,410000,DC4100521,小鹏汽车洛阳杜预街服务中心,0379-63183666,服务中心,
浙江省舟山市定海区千岛街道临城工业区三道9号,舟山市,330900,29.984431,122.213156,浙江,330000,AF3303700,小鹏汽车舟山临城服务中心,0580-2620005,服务中心,
河北省邯郸市邯山区渚河路4号,邯郸市,130400,36.588085,114.472647,河北,130000,C913DAA01,小鹏汽车邯郸渚河路服务中心,0310-5505600,服务中心,
辽宁省大连市甘井子区华北路北市商贸街158号7号,大连市,210200,39.018902,121.625999,辽宁,210000,C921BAA01,小鹏汽车大连鹏悦服务中心,15304111843,服务中心,
福建省福清市福和路9号福和万达广场1层1030铺位,福州市,350100,25.72,119.35,福建,350000,XL3500323,小鹏汽车福清福和万达卫星店,,体验中心,18559177680
河北省秦皇岛海港区经济技术开发区松花江西道2号,秦皇岛市,130300,39.940701,119.528,河北,130000,AF1300700,小鹏汽车秦皇岛松花江西道服务中心,0335-3999911,服务中心,
河南省新乡市高新区朗公庙镇新飞大道南段107国际汽车园内46号楼10-13号展厅,新乡市,410700,35.217499,113.894997,河南,410000,C941GAA01,小鹏汽车新乡国际汽车园服务中心,16690960111,服务中心,
河南省濮阳市濮阳县龙都瑞璞汽车小镇1期23#商铺,濮阳市,410900,35.755199,115.117996,河南,410000,AF4100700,小鹏汽车濮阳汽车小镇服务中心,0393-6102999,服务中心,
浙江省杭州市萧山区通惠南路667号,杭州市,330100,30.18,120.26,浙江,330000,XL3301823,小鹏汽车杭州萧山银泰城卫星店,,体验中心,057186908156
杭州市余杭区未来科技城宝龙广场L1三号门,杭州市,330100,30.279786,119.987963,浙江,330000,XL3301923,小鹏汽车杭州未来科技城宝龙卫星店,,体验中心,18058433322
安徽省安庆市宜秀区石塘湖路8号,安庆市,340800,30.56605,117.059347,安徽,340000,AF3400800,小鹏汽车安庆英德利汽车城服务中心,0556-5326789,服务中心,
浙江省义乌市朝阳门三区3幢L1-097,金华市,330700,29.303353,120.080486,浙江,330000,XL3302823,小鹏汽车金华义乌朝阳门卫星店,,体验中心,13958408700
江苏省南京市栖霞区学海路1号金鹰B区1楼7号门,南京市,320100,32.100412,118.925085,江苏,320000,XL3202423,小鹏汽车南京仙林金鹰卫星店,,体验中心,02552708086
湖南省郴州市北湖区国庆北路10号,郴州市,431000,25.743,112.953003,湖南,430000,AF4300400,小鹏汽车郴州万华汽车城服务中心,0735-2702277,服务中心,
广州市黄埔区南云五路8号自编八栋,广州市,440100,23.14577,113.457734,广东,440000,DC4400111,小鹏汽车广州黄埔交付中心,,,
山东省东营市垦利区北二路14号,东营市,370500,37.479676,118.419287,山东,370000,XL3700423,小鹏汽车东营市北二路汽车城卫星店,,体验中心,18954310898
海南省海口市龙华区南海大道115号,海口市,460100,19.9958,110.299004,海南,460000,AF4600501,小鹏汽车海口南海大道服务中心,0898-66805001,服务中心,
江苏省南通市崇川区城港路150号,南通市,320600,32.035,120.805,江苏,320000,AF3201200,小鹏汽车南通城港路服务中心,0513-85535188,服务中心,
天津市武清区前进道威尼都H2-101号,天津市,120100,39.376142,117.012051,天津,120000,XL1200323,小鹏汽车天津威尼都卫星店,,体验中心,15900352506
